Location,Office type,Counter type,Address 1,Address 2,Suburb,Postcode,Latitude,Longitude,Phone,Fax,Maintenance,Mon am,Mon pm,Tues am,Tues pm,Wed am,Wed pm,Thurs am,Thurs pm,Fri am,Fri pm,Sat am,Sat pm,Sun am,Sun pm,Agency,Services,,,,,,,,,,,,,Site Details,Popluation
Agnes Water,Service,QGAP,,71 Springs Road,Agnes Water,4677,-24.212252,151.910144,(07) 4902 1555,(07) 4902 1599,,9:00,16:30,9:00,16:30,9:00,16:30,9:00,16:30,9:00,16:30,,,,,SSQ,"Birth, Death &  Marriage Certificate copies; CTP insurance; Transport Services - Licences, Infringements & Registrations etc; Public Trustee - Write a Will; JP Services; Seniors Card; SPER Payments; Information & Form Provision for ATO; Centrelink; ACCC; RTA; ASIC; Medicare; Legal Aid; Workcover; Veterans Affairs; General Queensland Government Enquiries;",,,,,,,,,,,,,"Agnes Water, a coastal town of about 1600 people (including tourists on census night), is 80 km south-east of Gladstone.",1600
Aramac,Service,QGAP,,Gordon Street,Aramac,4726,-22.970524,145.242898,(07) 4651 3014,(07) 4651 3000,,9:00-13:00,14:00-16:45,9:00-13:00,14:00-16:45,9:00-13:00,14:00-16:45,9:00-13:00,14:00-16:45,9:00-13:00,14:00-16:45,,,,,SSQ,"CTP Insurance; Transport Services - Licences, Infringments & Registrations, etc; Information & Form Provision for ATO; Centrelink; ACCC; RTA; Medicare; Legal Aid; Workcover; Veterans Affairs; General Queensland Government Enquiries",,,,,,,,,,,,,"Aramac, a rural town of about 340 people, is 530 km west of Rockhampton and 70 km north of Barcaldine, central Queensland.",340
Augathella,Service,QGAP,,98 Main Street,Augathella,4477,-25.795825,146.581712,(07) 4654 5007,(07) 4654 5009,,9:30,15:30,9:30,15:30,9:30,15:30,9:30,15:30,9:30,15:30,,,,,SSQ,"Birth, Death &  Marriage Certificate copies; Transport Services - Licences, Infringement & Registrations etc; Public Trustee - Write a Will; SPER payments; Information & Form provision for ATO; Centrelink; ACCC; RTA; Medicare; Legal Aid; Workcover; Veterans Affairs; General Queensland Government Enquiries",,,,,,,,,,,,,"Augathella, a rural town of 520 people, is 700 km north-west of Brisbane, and 75 km north-east of Charleville.",
Babinda ,Service,QGAP,Police Station,10 Munro Street,Babinda,4861,-17.343982,145.924292,(07) 4067 1120,(07) 4067 1045,,8:30,15:30,8:30,15:30,Closed,Closed,8:30,15:30,8:30,15:30,,,,,QPS,"Birth, Death &  Marriage Certificate copies; CTP Insurance; Transport services -Licences, Infringements & Registrations, etc; Public Trustee - Write a Will; JP Services; SPER Payments; Information & Form provision for ATO; Centrelink; ACCC; RTA; ASIC; Medicare; Legal Aid; Workcover; Veterans Affair;  General Queensland Government Enquiries",,,,,,,,,,,,,"Babinda, a rural town of 1200 people, is 50 km south-east of Cairns and 10 km inland from the coast.",1200
Barcaldine ,Service,QGAP ,Court House,65 Ash Street,Barcaldine,4725,-23.553474,145.290261,(07) 4651 1191,(07) 4651 2021,,9:00,16:30,9:00,16:30,9:00,16:30,9:00,16:30,9:00,16:30,,,,,JAG,"Birth, Death & Marriage Certificate copies; Housing & Homelessness Services - Bond Loans etc; Community Liquor Permits, Liquor & Gaming Infringements, Liquor & Gaming Licences; CTP Insurance; Transport  Services - Licences, Infringements & Registrations etc; Public Trustee -  Write a Will; Information & Form Provision for ATO; Centrelink; ACCC; RTA; ASIC; Medicare ;Legal Aid; Workcover; Veterans Affairs; General Queensland Government Enquiries",,,,,,,,,,,,,"Barcaldine is a rural town 520 km west of Rockhampton, at the intersection of the Capricorn and Landsborough Highways",
Beaudesert,Service,QGAP,Centre 9 ,William Street,Beaudesert,4285,-27.989608,152.998844,(07) 5542 9400,(07) 5542 9450,,8:30,16:30,8:30,16:30,9:30,16:30,8:30,16:30,8:30,16:30,,,,,TMR,"Birth, Death &  Marriage Certificate copies; Fair Trading Services -  Industry Licensing Applications & Renewals, Incorporated Association Application & Renewals etc & Consumer Complaints; Housing & Homelessness services -  Bond Loans; CTP Insurance; Public Trustee - Write a Will; JP Services; Seniors Card; Information & Form provision for ATO; Centrelink; ACCC; RTA; ASIC; Medicare; Legal Aid; Workcover; Veterans Affairs; General Queensland Government Enquiries",,,,,,,,,,,,,"Beaudesert, a rural town of 4500 people, is 53 km south of central Brisbane.",4500
Bedourie ,Service,QGAP,Police Station,Merri Street,Bedourie,4829,-24.358787,139.469664,(07) 4746 1128,(07) 4746 1266,,8:30-12:30,1:00-5:00,Closed,Closed,Closed,Closed,Closed,Closed,8:30-12:30,1:00-5:00,,,,,QPS,"CTP Insurance; Transport Services - Licences, Infringements & Registrations etc; QPS - Weapons Licence etc; Information & Form provision for ATO; Centrelink; ACCC; RTA; ASIC; Medicare; Legal Aid; Workcover; Veterans Affair;  General Queensland Government Enquiries",,,,,,,,,,,,,,
Biloela,Service,QGAP,,60 Kariboe Street,Biloela,4715,-24.400826,150.513251,(07) 4992 8700,(07) 4992 1768,,9:00-12:30,13:30-16:30,9:00-12:30,13:30-16:30,9:30-12:30,13:30-16:30,9:00-12:30,13:30-16:30,9:00-12:30,13:30-16:30,,,,,TMR,"Birth, Death &  Marriage Certificate copies; Fair Trading Services - Industry Licensing Applications & Renewals, Incorporated Association Application & Renewals etc & Consumer complaints; Housing & Homelessness Services - Bond Loans etc; CTP Insurance; Land Tax Payments; Public Trustee - Write a Will; JP Services; Seniors Card; SPER Payments; Information & Form Provision for ATO; Centrelink; ACCC; RTA; ASIC; Medicare; Legal Aid; Workcover; Veterans Affairs; General Queensland Government Enquiries",,,,,,,,,,,,,"Biloela is a rural town of 5400 people, is 95 km south-west of Gladstone.",5400
Birdsville ,Service,QGAP,Police Station,MacDonald Street,Birdsville,4482,-25.901947,139.349082,(07) 4656 3310,(07) 4656 3312,,9:00,13:00,Closed,Closed,9:00,13:00,9:00,13:00,9:00,13:00,,,,,QPS,"Housng & Homelessness Services - Bond Loans etc; Land Tax Payments; Transport Services - Licences, Infringements & Registrations etc; QPS - Weapons Licence etc; Information & Form Provision for ATO; Centrelink; ACCC; RTA; ASIC; Medicare; Legal Aid; Workcover; Veterans Affairs; General Queensland Government Enquiries",,,,,,,,,,,,,,
Blackall,Service,QGAP,,Shamrock Street,Blackall,4472,-24.421675,145.45902,(07) 4657 4233,(07) 4657 4908,,9:00,16:30,9:00,16:30,9:00,16:30,9:00,16:30,9:00,16:30,,,,,DERM,"Birth, Death & Marriage Certificate copies; Housing & Homelessness Services - Bond Loans etc; Community Liquor Permits, Liquor & Gaming Infringements, Liquor & Gaming Licences; CTP Insurance; Transport  Services - Licences, Infringements & Registrations etc; Public Trustee -  Write a Will;  SPER Payments; Information & Form Provision for ATO; Centrelink; ACCC; RTA; ASIC; Medicare; Legal Aid; Workcover; Veterans Affairs; General Queensland Government Enquiries",,,,,,,,,,,,,"Blackall, a rural town of 1400 people, is in central-western Queensland, between Longreach and Charleville and 500 km south-west of Rockhampton.",1400
Blackbutt,Service,QGAP,,69 Hart Street,Blackbutt,4306,-26.884029,152.101976,(07) 4163 0030,(07) 4163 0436,,9:00,15:30,9:00,15:30,9:00,15:30,9:00,15:30,9:00,15:30,,,,,SSQ,"Birth, Death & Marriage Certificate copies; Housing & Homelessness Services - Bond Loans etc; Community Liquor Permits, Liquor & Gaming Infringements, Liquor & Gaming Licences; CTP Insurance; Transport  Services - Licences, Infringements & Registrations etc; Public Trustee -  Write a Will; JP Services; Seniors Card; SPER Payments; Information & Form Provision for ATO; Centrelink; ACCC; RTA; ASIC; Medicare; Legal Aid; Workcover; Veterans Affairs; General Queensland Government Enquiries",,,,,,,,,,,,,"Blackbutt is a rural town of about 560 people, 115 km north-west of central Brisbane.",560
Boonah,Service,QGAP,,70 High Street,Boonah,4310,-27.996542,152.682354,(07) 5463 2165,(07) 5463 2167,,8:30-12:00,14:00-16:30,8:30-12:00,14:00-:16:30,8:30-12:00,14:00-16:30,8:30-12:00,14:00-:16:30,8:30-12:00,14:00-16:30,,,,,SSQ,"Birth, Death & Marriage Certificate copies;  CTP Insurance; Transport Services - Licences, Infringements & Registrations etc; Public Trustee - Write a Will; Seniors Card; SPER Payments; Information & Form Provision for ATO; Centrelink; ACCC; RTA; ASIC; Medicare; Legal Aid; Workcover; Veterans Affairs; General Queensland Government Enquiries",,,,,,,,,,,,,"Boonah, a rural town of about 2300 is 70 km south-west of Brisbane.",2300
Boulia ,Service,QGAP,Police Station,Herbert Street,Bouila,4829,-22.909859,139.906762,(07) 4746 3043,(07) 4746 3338,,8:00-12:00,Closed,8:00-12:00,Closed,8:00-12:00,Closed,8:00-12:00,Closed,8:00-12:00,Closed,,,,,QPS,"CTP Insurance; Transport Services - Licences, Infringements & Registrations etc; QPS - Weapons Licence etc; Information & Form Provision for ATO; Centrelink; ACCC; RTA; ASIC; Medicare; Legal Aid; Workcover; Veterans Affairs; General Queensland Government Enquiries",,,,,,,,,,,,,"Boulia, a rural town of 200 people, is in western Queensland, 190 km east of the Northern Territory border and 240 km south of Mount Isa.",200
Brisbane,Service,QGSC,,33 Charlotte Street,Brisbane,4000,-27.471629,153.025728,13 QGOV (13 74 68),(07) 3239 0128,,8:30-12:00,12:00-16:30,8:30-12:00,12:00-16:30,8:30-12:00,12:00-16:30,8:30-12:00,12:00-16:30,8:30-12:00,12:00-16:30,,,,,SSQ,"Land Tax Payments, Stamp Duty Lodgements & Payments, Payroll Tax Payments; Liquor & Gaming Infringements, Liquor & Gaming Licences etc;  SDS - Sale of Publications; Seniors Card; Fair Trading Services - Industry Licensing Applications & Renewals, Incorporated Association Application & Renewals etc & Consumer Complaints;Fisheries - Commercial Licences, Infringements; General Queensland Government Enquiries;",,,,,,,,,,,,,,
Cairns,Service,QGSC,,William McCormack Place Ground Floor 5B Sheridan Street,Cairns,4870,-16.926148,145.775376,13 QGOV (13 74 68),(07) 4048 9977,,8:30-12:00,12:00-16:30,8:30-12:00,12:00-16:30,8:30-12:00,12:00-16:30,8:30-12:00,12:00-16:30,8:30-12:00,12:00-16:30,,,,,SSQ,"Housing & Homelessness Services - Bond Loans etc; Disabilities & Community Services; Land Tax Payments, Stamp Duty Lodgements & Payments, Payroll Tax Payments; Liquor & Gaming Infringements, Liquor & Gaming Licences etc;  Seniors Card; Fair Trading Services - Industry Licensing Applications & Renewals, Incorporated Association Application & Renewals etc & Consumer complaints;Fisheries - Commercial Licences, Infringments; General Queensland Government Enquiries;",,,,,,,,,,,,,"Cairns, Queensland's northern-most city, is an international gateway to Australia and the Great Barrier Reef.",
Camooweal,Service,QGAP,,Barkly Street,Camooweal,4828,19.918162,138.119917,(07) 4748 2025,(07) 4748 2164,,9:00-12:00,12:00-17:00,9:00-12:00,12:00-17:00,9:00-12:00,12:00-17:00,9:00-12:00,12:00-17:00,9:00-12:00,12:00-17:00,9:00-12:00,,,,SSQ,"Birth, Death & Marriage Certificate copies; Housing & Homelessness Services - Bond Loans etc; Information & Form Provision for ATO; Centrelink; ACCC; RTA; ASIC; Medicare; Legal Aid; Workcover; Veterans Affairs; General Queensland Government Enquiries",,,,,,,,,,,,,,
Cannonvale,Service,QGAP,Shops 5–7, 11 Island Drive,Cannonvale,4802,-20.278079,148.700917,(07) 4948 2981,(07) 4948 2899,,9:00-12:00,13:00-16:30,9:00-12:00,13:00-16:30,9:30-12:00,13:00-16:30,9:00-12:00,13:00-16:30,9:00-12:00,13:00-16:30,,,,,TMR,"Birth, Death & Marriage Certificate copies; Fair Trading Services - Industry Licensing Applications & Renewals, Incorporated Association Applications & Renewals etc & Consumer Complaints; Housing & Homelessness Services - Bond Loans etc; Community Liquor Permits, Liquor & Gaming Infringements, Liquor & Gaming Licences; Land Tax Payments; Public Trustee - Write a Will; Seniors Card; SPER Payments; Information & Form Provision for ATO; Centrelink; ACCC; RTA; ASIC; Medicare; Legal Aid; Workcover; Veterans Affairs; General Queensland Government Enquiries",,,,,,,,,,,,,"Cannonvale, a coastal town of 4000 people, is 20 km north-east of Proserpine and immediately west of Airlie Beach.",4000
Childers,Service,QGAP,,67 Churchill Street,Childers,4660,-25.23571,152.277821,(07) 4126 1455,(07) 4126 1208,,9:00-12:00,12:00-16:30,9:00-12:00,12:00-16:30,9:00-12:00,12:00-16:30,9:00-12:00,12:00-16:30,9:00-12:00,12:00-16:30,,,,,JAG,"Birth, Death & Marriage Certificate copies; Fair Trading Services - Industry Licensing Applications & Renewals, Incorporated Association Applications & Renewals etc & Consumer Complaints; Housing & Homelessness Services - Bond Loans etc; Transport Services - Licences, Infringements & Registrations etc; Public Trustee - Write a Will; JP Services; Information & Form Provision for ATO; Centrelink; ACCC; RTA; ASIC; Medicare; Legal Aid; Workcover; Veterans Affairs; General Queensland Government Enquiries",,,,,,,,,,,,,"Childers, a rural town of 1350 people, is 60 km west of Hervey Bay and on the Bruce Highway north-west of Maryborough.",1350
Clermont,Service,QGAP,,44 Daintree Street,Clermont,4721,-22.824185,147.639695,(07) 4983 1233,(07) 4983 3164,,9:00-12:00,12:00-16:30,9:00-12:00,12:00-16:30,9:00-12:00,12:00-16:30,9:00-12:00,12:00-16:30,9:00-12:00,12:00-16:30,,,,,JAG,"Birth, Death & Marriage Certificate copies; Housing & Homelessness Services - Bond Loans etc; Community Liquor Permits, Liquor & Gaming Infringements, Liquor & Gaming Licences; CTP Insurance; Transport  Services - Licences, Infringements & Registrations etc; Public Trustee - Write a Will; Information & Form Provision for ATO; Centrelink; ACCC; RTA; ASIC; Medicare; Legal Aid; Workcover; Veterans Affairs; General Queensland Government Enquiries",,,,,,,,,,,,,"Clermont, a former mining town of about 1850 people, is 320 km west of Rockhampton and 100 km north of Emerald.",1850
Collinsville,Service,QGAP,,64 Sonoma Street,Collinsville,4804,-20.548952,147.84234,(07) 4785 5567,(07) 4785 5789,,9:00-12:30,14:00-16:30,9:00-12:30,14:00-16:30,9:00-12:30,14:00-16:30,9:00-12:30,14:00-16:30,9:00-12:30,14:00-16:30,,,,,COMM,"Birth, Death & Marriage Certificate copies; Housing & Homelessness Services - Bond Loans etc; Community Liquor Permits, Liquor & Gaming Infringements, Liquor & Gaming Licences; CTP Insurance; Transport  Services - Licences, Infringements & Registrations etc; JP Services; SPER Payments; Information & Form Provision for ATO; Centrelink; ACCC; RTA; ASIC; Medicare; Legal Aid; Workcover; Veterans Affairs; General Queensland Government Enquiries",,,,,,,,,,,,,"Collinsville, a rural town of about 2050 people, is 80 km south-west of Bowen.",2050
Cooktown,Service,QGAP,,172 Charlotte Street,Cooktown,4895,-15.461084,145.250666,(07) 4069 5333,(07) 4069 5864,,9:00-12:00,12:00-16:30,9:00-12:00,12:00-16:30,9:00-12:00,12:00-16:30,9:00-12:00,12:00-16:30,9:00-12:00,12:00-16:30,,,,,JAG,"Birth, Death & Marriage Certificate copies; Housing & Homelessness Services - Bond Loans etc; Community Liquor Permits, Liquor & Gaming Infringements, Liquor & Gaming Licences; CTP Insurance; Transport  Services - Licences, Infringements & Registrations etc; Public Trustee - Write a Will; Seniors Card; SPER Payments; Information & Form Provision for ATO; Centrelink; ACCC; RTA; ASIC; Medicare; Legal Aid; Workcover; Veterans Affairs; General Queensland Government Enquiries",,,,,,,,,,,,,"Cooktown, on the eastern coast of Cape York Peninsula, is 1600 km north of Brisbane and 650 km from Torres Strait.",
Crows Nest,Service,QGAP,,16 Charlotte Street,Crows Nest,4355,-27.260552,152.056337,(07) 4698 2985,(07) 4698 2800,,9:30-12:00,12:00-16:30,9:30-12:00,12:00-16:30,9:30-12:00,12:00-16:30,9:30-12:00,12:00-16:30,9:30-12:00,12:00-16:30,,,,,SSQ,"Birth, Death & Marriage Certificate copies; CTP Insurance; Information & Form Provision for ATO; Centrelink; ACCC; RTA; ASIC; Medicare; Legal Aid; Workcover; Veterans Affairs; General Queensland Government Enquiries",,,,,,,,,,,,,"Crows Nest is a rural town of about 1443 people, 35 km north of Toowoomba and 100 km north-west of Brisbane.",1443
Croydon,Service,QGAP,,Samwell Street,Croydon,4871,-18.203578,142.244151,(07) 4748 7101,(07) 4745 6147,,9:00-12:00,12:00-15:30,Closed,Closed,Closed,Closed,Closed,Closed,9:00-12:00,12:00-15:30,,,,,SSQ,"Birth, Death & Marriage Certificate copies; Housing & Homelessness Services - Bond Loans etc; CTP Insurance; Transport Services - Licences, Infringements & Registrations etc; Information & Form Provision for ATO; Centrelink; ACCC; RTA; ASIC; Medicare; Legal Aid; Workcover; Veterans Affairs; General Queensland Government Enquiries",,,,,,,,,,,,,"Croydon, a rural town of 250 people, is 170 km inland from the south-east corner of the Gulf of Carpentaria (Karumba) and 480 km north-west of Townsville.",250
Cunnamulla,Service,QGAP,,5 Stockyard Street,Cunnamulla,4490,-28.069178,145.682094,(07) 4655 1331,(07) 4655 1422,,9:00-13:00,14:00-16:30,9:00-13:00,14:00-16:30,9:00-13:00,14:00-16:30,9:00-13:00,14:00-16:30,9:00-13:00,14:00-16:30,,,,,JAG,"Birth, Death & Marriage Certificate copies; Fair Trading Services - Industry Licensing Applications & Renewals, Incorporated Association Applications & Renewals etc & Consumer Complaints; Housing & Homelessness Services - Bond Loans etc; Community Liquor Permits, Liquor & Gaming Infringements, Liquor & Gaming Licences;CTP Insurance; Transport Services - Licences, Infringements & Registrations etc; Public Trustee - Write a Will; SPER Payments; Information & Form Provision for ATO; Centrelink; ACCC; RTA; ASIC; Medicare; Legal Aid; Workcover; Veterans Affairs; General Queensland Government Enquiries",,,,,,,,,,,,,"Cunnamulla, a rural town of about 1200 people, is 700 km west of Brisbane and 100 km north of the New South Wales border.",1200
Dirranbandi,Service,QGAP,,35–37 Railway Street,Dirranbandi,4486,-28.585558,148.226806,(07) 4625 8411,(07) 4625 8433,,10:00-12:30,13:30-16:00,10:00-12:30,13:30-16:00,10:00-12:30,13:30-16:00,10:00-12:30,13:30-16:00,10:00-12:30,13:30-16:00,,,,,SSQ,"Birth, Death & Marriage Certificate copies; Housing & Homelessness Services - Bond Loans etc; Community Liquor Permits, Liquor & Gaming Infringements, Liquor & Gaming Licences; CTP Insurance; Transport Services - Licences, Infringements & Registrations etc;Information & Form Provision for ATO; Centrelink; ACCC; RTA; ASIC; Medicare; Legal Aid; Workcover; Veterans Affairs; General Queensland Government Enquiries",,,,,,,,,,,,,"Dirranbandi, a rural town of about 437 people, is 470 km south-west of Brisbane and midway between St George and the New South Wales border.",437
Eidsvold,Service,QGAP,,39 Moreton Street,Eidsvold,4627,-25.369612,151.123272,(07) 4165 1063,(07) 4165 7244,,8:30-12:00,12:00-16:30,8:30-12:00,12:00-16:30,8:30-12:00,12:00-16:00,8:30-12:00,12:00-16:30,8:30-12:00,12:00-16:30,,,,,SSQ,"Birth, Death & Marriage Certificate copies;CTP Insurance; Transport Services - Licences, Infringements & Registrations etc; SPER Payments;Information & Form Provision for ATO; Centrelink; ACCC; RTA; ASIC; Medicare; Legal Aid; Workcover; Veterans Affairs; General Queensland Government Enquiries",,,,,,,,,,,,,"Eidsvold, a rural town of about 460 people, is 160 km west of Maryborough, between Mundubbera and Monto.",460
Gayndah,Service,QGAP,,20 Capper Street,Gayndah,4625,-25.625276,151.609063,(07) 4161 1655,(07) 4161 2221,,9:00-12:00,12:00-16:30,9:00-12:00,12:16:30,9:00-12:00,12:00-16:30,9:00-12:00,12:16:30,9:00-12:00,12:00-16:30,,,,,JAG,"Birth, Death & Marriage Certificate copies; Housing & Homelessness Services - Bond Loans etc; CTP Insurance; Transport Services - Licences, Infringements & Registrations etc; Information & Form Provision for ATO; Centrelink; ACCC; RTA; ASIC; Medicare; Legal Aid; Workcover; Veterans Affairs; General Queensland Government Enquiries",,,,,,,,,,,,,"Gayndah is a rural town of 1750 people on the Burnett River, where it is joined by Oakey Creek, 110 km west of Maryborough and 250 km north-west of Brisbane.",1750
Georgetown,Service,QGAP,,High Street,Georgetown,4871,-18.291532,143.547598,(07) 4062 1204,(07) 4062 1260,,8:30-12:00,12:00-16:30,8:30-12:00,12:00-16:30,8:30-12:00,12:00-16:30,8:30-12:00,12:00-16:30,8:30-12:00,12:00-16:30,,,,,DEEDI,"Birth, Death & Marriage Certificate copies; Housing & Homelessness Services - Bond Loans etc; Community Liquor Permits, Liquor & Gaming Infringements, Liquor & Gaming Licences; CTP Insurance; Transport Services - Licences, Infringements & Registrations etc; Public Trustee - Write a Will; Seniors Card; QPS - Weapons Licence etc; Information & Form Provision for ATO; Centrelink; ACCC; RTA; ASIC; Medicare; Legal Aid; Workcover; Veterans Affairs; General Queensland Government Enquiries",,,,,,,,,,,,,"Georgetown, a rural centre of about 250 people, is 270 km south-west of Innisfail, on the road to Croydon. Originally known as Etheridge, it is the administrative centre of Etheridge Shire.",250
Goombungee,Service,QGAP,,89 Mocatta Street,Goombungee,4354,-27.3039,151.851899,(07) 4696 5985,(07) 4696 7940,,9:00-12:00,12:00-16:00,9:00-12:00,12:00-16:00,9:00-12:00,12:00-16:00,9:00-12:00,12:00-16:00,9:00-12:00,12:00-16:00,,,,,SSQ,"Birth, Death & Marriage Certificate copies;  Community Liquor Permits, Liquor & Gaming Infringements, Liquor & Gaming Licences;CTP Insurance; Transport Services - Licences, Infringements & Registrations etc; Seniors Card; Information & Form Provision for ATO; Centrelink; ACCC; RTA; ASIC; Medicare; Legal Aid; Workcover; Veterans Affairs; General Queensland Government Enquiries",,,,,,,,,,,,,"Goombungee, a rural town of over 700 people, is 110 km north-west of central Brisbane and 35 km north-west of Toowoomba.",700
Herberton,Service,QGAP,,56 Grace Street,Herberton,4887,-17.383815,145.38684,(07) 4096 2702,(07) 4096 2704,,Closed,Closed,Closed,Closed,Closed,Closed,9:00-13:00,14:00-16:00,Closed,Closed,,,,,COMM,"Transport Services - Licences, Infringements & Registrations etc; JP Services; Information & Form Provision for ATO; Centrelink; ACCC; RTA; ASIC; Medicare; Legal Aid; Workcover; Veterans Affairs; General Queensland Government Enquiries",,,,,,,,,,,,,"Herberton, a town of nearly 1000 people, is 75 km west of Innisfail and 60 km south-west of Cairns.",1000
Hughenden,Service,QGAP,,65 Brodie Street,Hughenden,4821,-20.842198,144.200179,(07) 4741 1735,(07) 4741 1412,,8:30-12:00,12:00-16:30,8:30-12:00,12:00-16:30,8:30-12:00,12:00-16:30,8:30-12:00,12:00-16:30,8:30-12:00,12:00-16:30,,,,,DEEDI,"Birth, Death & Marriage Certificate copies; Fair Trading Services - Industry Licensing Applications & Renewals, Incorporated Association Applications & Renewals etc & Consumer Complaints; Housing & Homelessness Services - Bond Loans etc; Community Liquor Permits, Liquor & Gaming Infringements, Liquor & Gaming Licences;CTP Insurance; Transport Services - Licences, Infringements & Registrations etc; JP Services; SPER Payments; Information & Form Provision for ATO; Centrelink; ACCC; RTA; ASIC; Medicare; Legal Aid; Workcover; Veterans Affairs; General Queensland Government Enquiries",,,,,,,,,,,,,"Hughenden, a rural town of 1150 people, is 320 km south-west of Townsville.",1150
Inglewood,Service,QGAP,,25 Albert Street,Inglewood,4387,-28.414003,151.083564,(07) 4652 1310,(07) 4652 2964,,9:30-13:30,14:00-15:00,9:30-13:30,14:00-15:00,9:30-13:30,14:00-15:00,9:30-13:30,14:00-15:00,9:30-13:30,14:00-16:00,,,,,TMR,"Community Liquor Permits, Liquor & Gaming Infringements, Liquor & Gaming Licences; CTP Insurance; Public Trustee - Write a Will; JP Services; SPER Payments; Information & Form Provision for ATO; Centrelink; ACCC; RTA; ASIC; Medicare; Legal Aid; Workcover; Veterans Affairs; General Queensland Government Enquiries",,,,,,,,,,,,,"Inglewood is a town of about 810 people on the Cunningham Highway, 210 km south-west of Brisbane and midway between Warwick and Goondiwindi.",810
Injune,Service,QGAP,,Hutton Street,Injune,4454,-25.845031,148.564292,(07) 4626 1546,(07) 4626 1099,,8:30-12:00,13:00-16:30,8:30-12:00,13:00-16:30,8:00-12:00,13:00-17:00,8:00-12:00,13:00-17:00,8:30-12:00,13:00-16:30,,,,,SSQ,"Birth, Death & Marriage Certificate copies; Community Liquor Permits, Liquor & Gaming Infringements, Liquor & Gaming Licences; CTP Insurance; Transport Services - Licences, Infringements & Registrations etc; Information & Form Provision for ATO; Centrelink; ACCC; RTA; ASIC; Medicare; Legal Aid; Workcover; Veterans Affairs; General Queensland Government Enquiries",,,,,,,,,,,,,,
Isisford ,Service,QGAP,Police Station,St Mary Street,Isisford,4731,-24.260219,144.438698,(07) 4658 8153,(07) 4658 8183,,8:00-12:00,13:00-17:00,8:00-12:00,13:00-17:00,8:00-12:00,13:00-17:00,8:00-12:00,13:00-17:00,8:00-12:00,13:00-17:00,,,,,QPS,"CTP Insurance; Transport Services - Licences, Infringements & Registrations etc; QPS - Weapons Licence etc; Information & Form Provision for ATO; Centrelink; ACCC; RTA; ASIC; Medicare; Legal Aid; Workcover; Veterans Affairs; General Queensland Government Enquiries",,,,,,,,,,,,,"Isisford is a rural town and formerly a shire in Queensland's central west. Situated on the Barcoo River, the town is 100 km south-west of Longreach and 1160 km north-west of Brisbane.",
Jandowae,Service,QGAP,,Corner George and High Streets,Jandowae,4410,-26.78116,151.110075,(07) 4668 5488,(07) 4668 5842,,9:00-12:00,12:00-16:00,9:00-12:00,12:00-16:00,9:00-12:00,12:00-16:00,9:00-12:00,12:00-16:00,9:00-12:00,12:00-16:00,,,,,SSQ,"Birth, Death & Marriage Certificate copies; CTP Insurance; Transport Services - Licences, Infringements & Registrations etc; Land Tax Payments; Public Trustee - Write a Will; JP Services; Seniors Card; SPER Payments; Information & Form Provision for ATO; Centrelink; ACCC; RTA; ASIC; Medicare; Legal Aid; Workcover; Veterans Affairs; General Queensland Government Enquiries",,,,,,,,,,,,,"Jandowae, a town of 780 people, is 200 km north-west of Brisbane and 45 km north-west of Dalby.",780
Julia Creek,Service,QGAP,,Burke Street,Julia Creek,4823,-20.657051,141.744263,(07) 4746 7162,(07) 4746 7338,,9:00-12:30,13:30-16:30,9:00-12:30,13:30-16:30,9:00-12:30,13:30-16:30,9:00-12:30,13:30-16:30,9:00-12:30,13:30-16:30,,,,,JAG,"Birth, Death & Marriage Certificate copies; Fair Trading Services - Industry Licensing Applications & Renewals, Incorporated Association Applications & Renewals etc & Consumer Complaints; Housing & Homelessness Services - Bond Loans etc; Community Liquor Permits, Liquor & Gaming Infringements, Liquor & Gaming Licences; CTP Insurance; Transport Services - Licences, Infringements & Registrations etc; Information & Form Provision for ATO; Centrelink; ACCC; RTA; ASIC; Medicare; Legal Aid; Workcover; Veterans Affairs; General Queensland Government Enquiries",,,,,,,,,,,,,"Julia Creek, a rural town of over 500 people, is 550 km west of Townsville and 250 km east of Mount Isa.",500
Jundah ,Service,QGAP,Police Station,Dickson Street,Jundah,4736,-24.831455,143.058856,(07) 4658 6193,(07) 4658 6180,,9:00-12:00,12:00-13:00,9:00-12:00,12:00-13:00,9:00-12:00,12:00-13:00,9:00-12:00,12:00-13:00,Closed,Closed,,,,,QPS,"CTP Insurance; Transport Services - Licences, Infringements & Registrations etc; QPS - Weapons Licence etc; Information & Form Provision for ATO; Centrelink; ACCC; RTA; ASIC; Medicare; Legal Aid; Workcover; Veterans Affairs; General Queensland Government Enquiries",,,,,,,,,,,,,,
Kilkivan,Service,QGAP,,26 Bligh Street,Kilkivan,4600,-26.085338,152.241388,(07) 5484 1859,(07) 5484 1390,,8:30-12:00,12:00-16:30,8:30-12:00,12:00-16:30,8:30-12:00,12:00-16:30,8:30-12:00,12:00-16:30,8:30-12:00,12:00-16:30,,,,,SSQ,"Birth, Death & Marriage Certificate copies; Community Liquor Permits, Liquor & Gaming Infringements, Liquor & Gaming Licences; CTP Insurance; Transport Services - Licences, Infringements & Registrations etc; Information & Form Provision for ATO; Centrelink; ACCC; RTA; ASIC; Medicare; Legal Aid; Workcover; Veterans Affairs; General Queensland Government Enquiries",,,,,,,,,,,,,"Kilkivan, a rural town of about 300 people, is 45 km north-west of Gympie and 170 km north-west of central Brisbane.",300
Laidley,Service,QGAP,,9 Spicer Street,Laidley,4341,-27.629922,152.395304,(07) 5466 8814,(07) 5466 8860,,8:00-12:00,12:00-17:00,8:00-12:00,12:00-17:00,8:00-12:00,12:00-17:00,8:00-12:00,12:00-17:00,8:00-12:00,12:00-17:00,,,,,SSQ,"Birth, Death & Marriage Certificate copies; Fair Trading Services - Industry Licensing Applications & Renewals, Incorporated Association Applications & Renewals etc & Consumer Complaints; Housing & Homelessness Services - Bond Loans etc; CTP Insurance; Transport Services - Licences, Infringements & Registrations etc; Public Trustee - Write a Will; Seniors Card; SPER Payments; Information & Form Provision for ATO; Centrelink; ACCC; RTA; ASIC; Medicare; Legal Aid; Workcover; Veterans Affairs; General Queensland Government Enquiries",,,,,,,,,,,,,"Laidley is a rural town of 2800 people, 65 km west of central Brisbane.",2800
Lowood,Service,QGAP,,Corner Michel and Main Streets,Lowood,4311,-27.463471,152.580387,(07) 5425 9103,(07) 5426 1816,,9:00-12:00,12:00-16:30,9:00-12:00,12:00-16:30,9:00-12:00,12:00-16:30,9:00-12:00,12:00-16:30,9:00-12:00,12:00-16:30,,,,,SSQ,"Birth, Death & Marriage Certificate copies; Housing & Homelessness Services - Bond Loans etc; Community Liquor Permits, Liquor & Gaming Infringements, Liquor & Gaming Licences; CTP Insurance; Transport Services - Licences, Infringements & Registrations etc; JP Services; SPER Payments; Information & Form Provision for ATO; Centrelink; ACCC; RTA; ASIC; Medicare; Legal Aid; Workcover; Veterans Affairs; General Queensland Government Enquiries",,,,,,,,,,,,,"Lowood, a rural town of 1000 people, is 40 km west of central Brisbane and 25 km north-west of Ipswich.",1000
Malanda,Service,QGAP,,21 James Street,Malanda,4885,-17.35284,145.595679,(07) 4096 5277,(07) 4096 5008,,8:30-12:00,12:00-16:00,8:30-12:00,12:00-16:00,8:30-12:00,12:00-16:00,8:30-12:00,12:00-16:00,8:30-12:00,12:00-16:00,,,,,DEEDI,"Housing & Homelessness Services - Bond Loans etc; Community Liquor Permits, Liquor & Gaming Infringements, Liquor & Gaming Licences; CTP Insurance; Transport Services - Licences, Infringements & Registrations etc; Information & Form Provision for ATO; Centrelink; ACCC; RTA; ASIC; Medicare; Legal Aid; Workcover; Veterans Affairs; General Queensland Government Enquiries",,,,,,,,,,,,,"Malanda, a rural town of 1000 people on the Johnstone River on the Atherton Tableland, is 50 km south-west of Cairns.",1000
Maleny ,Service,QGAP,Police Station,49 Maple Street,Maleny,4552,-26.758609,152.849285,(07) 5429 6293,(07) 5494 2655,,9:00-12:00,12:00-14:00,9:00-12:00,12:00-14:00,9:00-12:00,12:00-14:00,9:00-12:00,12:00-14:00,9:00-12:00,12:00-14:00,,,,,QPS,"Birth, Death & Marriage Certificate copies; Fair Trading Services - Industry Licensing Applications & Renewals, Incorporated Association Applications & Renewals etc & Consumer Complaints; Housing & Homelessness Services - Bond Loans etc; CTP Insurance; Transport Services - Licences, Infringements & Registrations etc; Seniors Card; SPER Payments; Information & Form Provision for ATO; Centrelink; ACCC; RTA; ASIC;Medicare;Legal Aid; Workcover; Veterans Affairs; General Queensland Government Enquiries",,,,,,,,,,,,,"Maleny is a Sunshine Coast hinterland town, situated on the Obi Obi Creek in the Blackall Ranges, 80 km north of central Brisbane and 25 km inland from Caloundra.",
Maroochydore,Service,QGSC,Mike Ahern Centre,"Ground floor, 12 First Avenue",Maroochydore,4558,-26.656606,153.093294,13 QGOV (13 74 68),(07) 5453 1812,,8:30-12:00,12:00-16:30,8:30-12:00,12:00-16:30,8:30-12:00,12:00-16:30,8:30-12:00,12:00-16:30,8:30-12:00,12:00-16:30,,,,,SSQ,"Housing & Homelessness Services - Bond Loans etc; Disabilities & Community Services; Land Tax Payments, Stamp Duty Lodgements & Payments, Payroll Tax Payments; Liquor & Gaming Infringements, Liquor & Gaming Licenses etc;  Seniors Card; Fair Trading Services - Industry Licensing Applications & Renewals, Incorporated Association Application & Renewals etc, Consumer complaints;Fisheries - Commercial Licenses, Infringments; General Queensland Government Enquiries;",,,,,,,,,,,,,"Maroochydore, a major beach resort on the Sunshine Coast, is 95 km north of central Brisbane.",
Kandanga,Service,QGAP,,45 Main Street,Kandanga,4570,-26.38692,152.676474,(07) 5484 3203,(07) 5484 3203,,9:00-12:00,12:00-17:00,9:00-12:00,12:00-17:00,9:00-12:00,12:00-17:00,9:00-12:00,12:00-17:00,9:00-12:00,12:00-17:00,,,,,SSQ,"Birth, Death & Marriage Certificate copies; Fair Trading Services - Industry Licensing Applications & Renewals, Incorporated Association Applications & Renewals etc & Consumer Complaints; Housing & Homelessness Services - Bond Loans etc; Community Liquor Permits, Liquor & Gaming Infringements, Liquor & Gaming Licences; Information & Form Provision for ATO; Centrelink; ACCC; RTA; ASIC; Medicare; Legal Aid; Workcover; Veterans Affairs; General Queensland Government Enquiries",,,,,,,,,,,,,"Kandanga, a rural town in the Mary Valley, is 20 km south of Gympie.",
Middlemount,Service,QGAP,,Middlemount Shopping Centre,Middlemount,4746,-22.809045,148.698902,(07) 4985 7255,(07) 4981 2888,,8:30-12:00,12:45-16:00,8:30-12:00,12:45-16:00,8:30-12:00,12:45-16:00,8:30-12:00,12:45-16:00,8:30-12:00,12:45-16:00,,,,,SSQ,"Birth, Death & Marriage Certificate copies; Housing & Homelessness Services - Bond Loans etc; Community Liquor Permits, Liquor & Gaming Infringements, Liquor & Gaming Licences; CTP Insurance; Transport Services - Licences, Infringements & Registrations etc; Land Tax Payments; JP Services; Information & Form Provision for ATO; Centrelink; ACCC; RTA; ASIC; Medicare; Legal Aid; Workcover; Veterans Affairs; General Queensland Government Enquiries",,,,,,,,,,,,,"Middlemount, a rural town of 2000 people, is 190 km north-west of Rockhampton.",2000
Miles,Service,QGAP,,32 Constance Street,Miles,4415,-26.657153,150.185786,(07) 4627 1177,(07) 4627 1341,,9:00-12:00,12:00-16:00,9:00-12:00,12:00-16:00,9:00-12:00,12:00-16:00,9:00-12:00,12:00-16:00,9:00-12:00,12:00-16:00,,,,,QPS,"Birth, Death & Marriage Certificate copies; Fair Trading Services - Industry Licensing Applications & Renewals, Incorporated Association Applications & Renewals etc & Consumer Complaints; Housing & Homelessness Services - Bond Loans etc; Community Liquor Permits, Liquor & Gaming Infringements, Liquor & Gaming Licences;CTP Insurance; Transport Services - Licences, Infringements & Registrations etc; Public Trustee - Write a Will; JP Services; SPER Payments; Information & Form Provision for ATO; Centrelink; ACCC; RTA; ASIC; Medicare; Legal Aid; Workcover; Veterans Affairs; General Queensland Government Enquiries",,,,,,,,,,,,,"Miles, a rural town of 1200 people, at the junction of the Warrego and Leichardt Highways in the western Darling Downs, 300 km north-west of Brisbane.",1200
Mirani,Service,QGAP,,20 Victoria Street,Mirani,4754,-21.15876,148.863494,(07) 4959 1842,(07) 4959 1275,,9:00-12:00,12:00-15:00,9:00-12:00,12:00-15:00,9:00-12:00,12:00-15:00,9:00-12:00,12:00-15:00,9:00-12:00,12:00-15:00,,,,,SSQ,"Birth, Death & Marriage Certificate copies; CTP Insurance; Transport Services - Licences, Infringements & Registrations etc; JP Services; Seniors Card; SPER Payments; Information & Form Provision for ATO; Centrelink; ACCC; RTA; ASIC; Medicare; Legal Aid; Workcover; Veterans Affairs; General Queensland Government Enquiries",,,,,,,,,,,,,"Mirani (pronounced Mi-Ranni) a rural town of 800 people, is 30 km west of Mackay.",800
Mitchell,Service,QGAP,,Corner Mary and Dublin Streets,Mitchell,4465,-26.488493,147.978231,(07) 4623 1106,(07) 4623 1510,,9:00-12:30,13:30-16:30,9:00-12:30,13:30-16:30,9:00-12:30,13:30-16:30,9:00-12:30,13:30-16:30,9:00-12:30,13:30-16:30,,,,,JAG,"Birth, Death & Marriage Certificate copies; Fair Trading Services - Industry Licensing Applications & Renewals, Incorporated Association Applications & Renewals etc & Consumer Complaints; Housing & Homelessness Services - Bond Loans etc; Community Liquor Permits, Liquor & Gaming Infringements, Liquor & Gaming Licences; CTP Insurance; Transport Services - Licences, Infringements & Registrations etc; Information & Form Provision for ATO; Centrelink; ACCC; RTA; ASIC; Medicare; Legal Aid; Workcover; Veterans Affairs; General Queensland Government Enquiries",,,,,,,,,,,,,"Mitchell, a rural town of 1000 people, is 500 km north-west of Brisbane and 80 km west of Roma.",1000
Monto,Service,QGAP,,53 Newton Street,Monto,4630,-24.864663,151.124656,(07) 4166 1350,(07) 4166 1047,,9:00-12:00,12:00-16:30,9:00-12:00,12:00-16:30,9:00-12:00,12:00-16:30,9:00-12:00,12:00-16:30,9:00-12:00,12:00-16:30,,,,,DEEDI,"Birth, Death & Marriage Certificate copies; Fair Trading Services - Industry Licensing Applications & Renewals, Incorporated Association Applications & Renewals etc & Consumer Complaints; Housing & Homelessness Services - Bond Loans etc; Community Liquor Permits, Liquor & Gaming Infringements, Liquor & Gaming Licences; CTP Insurance; Transport Services - Licences, Infringements & Registrations etc; Public Trustee - Write a Will; SPER Payments; Information & Form Provision for ATO; Centrelink; ACCC; RTA; ASIC; Medicare; Legal Aid; Workcover; Veterans Affairs; General Queensland Government Enquiries",,,,,,,,,,,,,"Monto, a rural town of 1200 people, is 120 km west of Bundaberg and 340 km north-west of Brisbane.",1200
Moranbah,Service,QGAP,,21 Griffin Street,Moranbah,4744,-21.998992,148.045319,(07) 4941 7633,(07) 4941 5743,,9:00-12:00,12:00-16:30,9:00-12:00,12:00-16:30,9:00-12:00,12:00-16:30,9:00-12:00,12:00-16:30,9:00-12:00,12:00-16:30,,,,,JAG,"Birth, Death & Marriage Certificate copies;  Housing & Homelessness Services - Bond Loans etc; Community Liquor Permits, Liquor & Gaming Infringements, Liquor & Gaming Licences; CTP Insurance; Transport Services - Licences, Infringements & Registrations etc; Public Trustee - Write a Will; Information & Form Provision for ATO; Centrelink; ACCC; RTA; ASIC; Medicare; Legal Aid; Workcover; Veterans Affairs; General Queensland Government Enquiries",,,,,,,,,,,,,"Moranbah, a rural and mining town of 7100 people, is 150 km south-west of Mackay.",7100
Mossman,Service,QGAP,,27 Front Street,Mossman,4783,-16.46042,145.373603,(07) 4098 1500,(07) 4098 2207,,9:00-12:00,12:00-16:30,9:00-12:00,12:00-16:30,9:00-12:00,12:00-16:30,9:00-12:00,12:00-16:30,9:00-12:00,12:00-16:30,,,,,JAG,"Birth, Death & Marriage Certificate copies; Housing & Homelessness Services - Bond Loans etc; CTP Insurance; Transport Services - Licences, Infringements & Registrations etc;Public Trustee - Write a Will; JP Services; SPER Payments;Information & Form Provision for ATO; Centrelink; ACCC; RTA; ASIC; Medicare; Legal Aid; Workcover; Veterans Affairs; General Queensland Government Enquiries",,,,,,,,,,,,,"Mossman, an inland rural town of about 1700 people, is 70 km north-west of Cairns and 10 km from Port Douglas.",1700
Mount Garnet ,Service,QGAP,Police Station,Garnet Street,Mount Garnet,4872,-17.682164,145.125756,(07) 4097 9005,(07) 4097 9036,,9:30-12:00,12:00-15:30,Closed,Closed,9:30-12:00,12:00-15:30,Closed,Closed,Closed,Closed,,,,,COMM,"Community Liquor Permits, Liquor & Gaming Infringements, Liquor & Gaming Licences; CTP Insurance; Transport Services - Licences, Infringements & Registrations etc; Information & Form Provision for ATO; Centrelink; ACCC; RTA; ASIC; Medicare; Legal Aid; Workcover; Veterans Affairs; General Queensland Government Enquiries",,,,,,,,,,,,,"Mount Garnet, a town of 450 people, is 100 km west of Innisfail and 110 km south-west of Cairns.",450
Mount Morgan,Service,QGAP,,32 Hall Street,Mount Morgan,4717,-23.648131,150.388647,(07) 4938 1359,(07) 4938 1083,,Closed,Closed,9:00-12:00,12:00-16:00,9:00-12:00,12:00-13:00,9:00-12:00,12:00-16:00,9:00-12:00,12:00-16:00,,,,,SSQ,"Birth, Death & Marriage Certificate copies; Housing & Homelessness Services - Bond Loans etc; CTP Insurance; Transport Services - Licences, Infringements & Registrations etc; SPER Payments; Information & Form Provision for ATO; Centrelink; ACCC; RTA; ASIC; Medicare; Legal Aid; Workcover; Veterans Affairs; General Queensland Government Enquiries",,,,,,,,,,,,,"Mount Morgan, a former gold and copper mining town and with a present population of about 2400 people, is 40 km south-west of Rockhampton.",2400
Moura,Service,QGAP,,Marshall and Shirley Streets,Moura,4718,-24.570153,149.973215,(07) 4997 2244,(07) 4997 1388,,9:00-12:00,12:00-16:30,9:00-12:00,12:00-16:30,10:00-12:00,12:00-16:30,9:00-12:00,12:00-16:30,9:00-12:00,12:00-16:30,,,,,TMR,"Birth, Death & Marriage Certificate copies; Housing & Homelessness Services - Bond Loans etc; Community Liquor Permits, Liquor & Gaming Infringements, Liquor & Gaming Licences; CTP Insurance; Public Trustee - Write a Will; JP Services; SPER Payments; Information & Form Provision for ATO; Centrelink; ACCC; RTA; ASIC; Medicare; Legal Aid; Workcover; Veterans Affairs; General Queensland Government Enquiries",,,,,,,,,,,,,"Moura, a rural town of about 1800 people, is 150 km south-west of Gladstone.",1800
Mundubbera,Service,QGAP,,51 Lyons Street,Mundubbera,4626,-25.59093,151.299568,(07) 4165 5741,(07) 4165 4803,,8:30-12:00,12:00-16:30,8:30-12:00,12:00-16:30,8:30-12:00,12:00-16:30,8:30-12:00,12:00-17:00,8:30-12:00,12:00-16:30,,,,,SSQ,"Birth, Death & Marriage Certificate copies; Housing & Homelessness Services - Bond Loans etc; Community Liquor Permits, Liquor & Gaming Infringements, Liquor & Gaming Licences; CTP Insurance; Transport Services - Licences, Infringements & Registrations etc; Public Trustee - Write a Will; JP Services; Seniors Card; SPER Payments;Information & Form Provision for ATO; Centrelink; ACCC; RTA; ASIC; Medicare; Legal Aid; Workcover; Veterans Affairs; General Queensland Government Enquiries",,,,,,,,,,,,,"Mundubbera, a rural town of 1050 people, is on the Burnett River in the central Burnett region, 140 km west of Maryborough and 270 km north-west of central Brisbane.",1050
Murgon,Service,QGAP,,48 Stephens Street West,Murgon,4605,-26.240038,151.940991,(07) 4168 1801,(07) 4168 1669,,9:00-12:00,12:00-16:30,9:00-12:00,12:00-16:30,9:00-12:00,12:00-16:30,9:00-12:00,12:00-16:30,9:00-12:00,12:00-16:30,,,,,JAG,"Birth, Death & Marriage Certificate copies; Fair Trading Services - Industry Licensing Applications & Renewals, Incorporated Association Applications & Renewals etc & Consumer Complaints; Housing & Homelessness Services - Bond Loans etc; Community Liquor Permits, Liquor & Gaming Infringements, Liquor & Gaming Licences; CTP Insurance; Transport Services - Licences, Infringements & Registrations etc; Information & Form Provision for ATO; Centrelink; ACCC; RTA; ASIC; Medicare; Legal Aid; Workcover; Veterans Affairs; General Queensland Government Enquiries",,,,,,,,,,,,,"Murgon, a town of 2100 people, is 70 km west of Gympie and 170 km north-west of Brisbane.",2100
Nanango,Service,QGAP,,30 Henry Street,Nanango,4615,-26.670634,152.002425,(07) 4163 1165,(07) 4163 1083,,9:00-12:30,13:30-16:30,9:00-12:30,13:30-16:30,9:00-12:30,13:30-16:30,9:00-12:30,13:30-16:30,9:00-12:30,13:30-16:30,,,,,JAG,"Birth, Death & Marriage Certificate copies;  Housing & Homelessness Services - Bond Loans etc; Community Liquor Permits, Liquor & Gaming Infringements, Liquor & Gaming Licences; CTP Insurance; Transport Services - Licences, Infringements & Registrations etc; Public Trustee - Write a Will; SPER Payments; Information & Form Provision for ATO; Centrelink; ACCC; RTA; ASIC; Medicare; Legal Aid; Workcover; Veterans Affairs; General Queensland Government Enquiries",,,,,,,,,,,,,"Nanango, a rural town of about 3100 people, is 150 km north-west of central Brisbane.",3100
Normanton,Service,QGAP,,Haig Street,Normanton,4890,-17.668241,141.079622,(07) 4745 1177,(07) 4745 1393,,9:00-12:00,12:00-16:00,9:00-12:00,12:00-16:00,9:00-12:00,12:00-16:00,9:00-12:00,12:00-16:00,9:00-12:00,12:00-16:00,,,,,JAG,"Birth, Death & Marriage Certificate copies; Housing & Homelessness Services - Bond Loans etc; Community Liquor Permits, Liquor & Gaming Infringements, Liquor & Gaming Licences; CTP Insurance; Transport Services - Licences, Infringements & Registrations etc; Public Trustee - Write a Will; JP Services; Information & Form Provision for ATO; Centrelink; ACCC; RTA; ASIC; Medicare; Legal Aid; Workcover; Veterans Affairs; General Queensland Government Enquiries",,,,,,,,,,,,,"rmanton, a rural town of 1100 people, is 40 km south-east of the mouth of the Norman River on the Gulf of Carpentaria.",1100
North Stradbroke Island,Service,QGAP,,5 Ballow Street,Dunwich,4183,-27.499602,153.403471,(07) 3409 9906,(07) 3409 9431,,Closed,Closed,8:30-13:00,14:00-16:00,Closed,Closed,8:30-13:00,14:00-16:00,Closed,Closed,,,,,TMR,"Birth, Death & Marriage Certificate copies; Fair Trading Services - Industry Licensing Applications & Renewals, Incorporated Association Applications & Renewals etc & Consumer Complaints; Public Trustee - Write a Will; SPER Payments; Information & Form Provision for ATO; Centrelink; ACCC; RTA; ASIC; Medicare; Legal Aid; Workcover; Veterans Affairs; General Queensland Government Enquiries",,,,,,,,,,,,,,
Pittsworth,Service,QGAP,,77 Yandilla Street,Pittsworth,4356,-27.715161,151.633825,(07) 4693 1168,(07) 4693 2348,,9:00-13:00,14:00-16:30,9:00-13:00,14:00-16:30,9:00-13:00,14:00-16:30,9:00-13:00,14:00-16:30,9:00-13:00,14:00-16:15,,,,,JAG,"Birth, Death & Marriage Certificate copies; Housing & Homelessness Services - Bond Loans etc; CTP Insurance; Transport Services - Licences, Infringements & Registrations etc; Public Trustee - Write a Will; Information & Form Provision for ATO; Centrelink; ACCC; RTA; ASIC; Medicare; Legal Aid; Workcover; Veterans Affairs; General Queensland Government Enquiries",,,,,,,,,,,,,"Pittsworth, a rural town of over 2900 people, is 135 km south-west of central Brisbane and 35 km south-west of Toowoomba.",2900
Quilpie,Service,QGAP,,Buln Buln Street,Quilpie,4570,-26.613066,144.26881,(07) 4656 1266,(07) 4656 1442,,8:30-12:00,12:00-16:30,8:30-12:00,12:00-16:30,8:30-12:00,12:00-16:30,8:30-12:00,12:00-16:30,8:30-12:00,12:00-16:30,,,,,DEEDI,"Birth, Death & Marriage Certificate copies; CTP Insurance; Transport Services - Licences, Infringements & Registrations etc; Information & Form Provision for ATO; Centrelink; ACCC; RTA; ASIC; Medicare; Legal Aid; Workcover; Veterans Affairs; General Queensland Government Enquiries",,,,,,,,,,,,,"Quilpie, the administrative centre of Quilpie shire, is about 860 km west of Brisbane and 320 km from the South Australian border.",
Ravenshoe,Service,QGAP,,27–29 Grigg Street,Ravenshoe,4888,-17.604665,145.481041,(07) 4097 6660,(07) 4097 6830,,9:00-13:00,14:00-16:30,9:00-13:00,14:00-16:30,9:00-13:00,14:00-16:30,9:00-13:00,14:00-16:30,9:00-13:00,14:00-16:30,,,,,COMM,"Birth, Death & Marriage Certificate copies;  Housing & Homelessness Services - Bond Loans etc; Community Liquor Permits, Liquor & Gaming Infringements, Liquor & Gaming Licences; Transport Services - Licences, Infringements & Registrations etc; Public Trustee - Write a Will; JP Services; Seniors Card; SPER Payments; Information & Form Provision for ATO; Centrelink; ACCC; RTA; ASIC; Medicare; Legal Aid; Workcover; Veterans Affairs; General Queensland Government Enquiries",,,,,,,,,,,,,"Ravenshoe is a town of about 900 people, 60 km west of Innisfail and 80 km south-west of Cairns.",900
Richmond,Service,QGAP,,Goldring Street,Richmond,4822,-20.726635,143.14002,(07) 4741 3227,(07) 4741 3721,,9:00-12:30,13:30-16:30,9:00-12:30,13:30-16:30,9:00-12:30,13:30-16:30,9:00-12:30,13:30-16:30,9:00-12:30,13:30-16:30,,,,,JAG,"Birth, Death & Marriage Certificate copies; Housing & Homelessness Services - Bond Loans etc; Community Liquor Permits, Liquor & Gaming Infringements, Liquor & Gaming Licences; CTP Insurance; Transport Services - Licences, Infringements & Registrations etc; Public Trustee - Write a Will;  JP Services; SPER Payments; Information & Form Provision for ATO; Centrelink; ACCC; RTA; ASIC; Medicare; Legal Aid; Workcover; Veterans Affairs; General Queensland Government Enquiries",,,,,,,,,,,,,"Richmond is the administrative centre of the Richmond shire (26,936 sq km), 620 km west of Mackay and 110 km west of Hughenden.",
Sarina,Service,QGAP,,Broad Street,Sarina,4737,-21.419526,149.216241,(07) 4956 1820,(07) 4943 1009,,9:00-12:30,13:30-16:30,9:00-12:30,13:30-16:30,9:00-12:30,13:30-16:30,9:00-12:30,13:30-16:30,9:00-12:30,13:30-16:30,,,,,JAG,"Birth, Death & Marriage Certificate copies; Fair Trading Services - Industry Licensing Applications & Renewals, Incorporated Association Applications & Renewals etc & Consumer Complaints; Housing & Homelessness Services - Bond Loans etc; Community Liquor Permits, Liquor & Gaming Infringements, Liquor & Gaming Licences;CTP Insurance; Transport Services - Licences, Infringements & Registrations etc; JP Services; Information & Form Provision for ATO; Centrelink; ACCC; RTA; ASIC; Medicare; Legal Aid; Workcover; Veterans Affairs; General Queensland Government Enquiries",,,,,,,,,,,,,"Sarina, a rural town of about 3300 people, is on the Bruce Highway, 30 km south of Mackay.",3300
Springsure,Service,QGAP,,Eclipse Street,Springsure,4722,-24.113953,148.089221,(07) 4984 1433,(07) 4984 1368,,9:00-12:00,12:00-16:30,Closed,Closed,9:00-12:00,12:00-16:30,Closed,Closed,9:00-12:00,12:00-16:30,,,,,JAG,"CTP Insurance; Transport Services - Licences, Infringements & Registrations etc; JP Services; Information & Form Provision for ATO; Centrelink; ACCC; RTA; ASIC; Medicare; Legal Aid; Workcover; Veterans Affairs; General Queensland Government Enquiries",,,,,,,,,,,,,"Springsure, a rural town of over 800 people, is on the Dawson Highway, 320 km west of Gladstone.",800
St George,Service,QGAP,,The Terrace,St George,4487,-28.036134,148.576845,(07) 4625 3266,(07) 4625 3180,,9:00-12:00,12:00-16:30,9:00-12:00,12:00-16:30,9:00-12:00,12:00-16:30,9:00-12:00,12:00-16:30,9:00-12:00,12:00-16:30,,,,,JAG,"Birth, Death & Marriage Certificate copies; Fair Trading Services - Industry Licensing Applications & Renewals, Incorporated Association Applications & Renewals etc & Consumer Complaints; Housing & Homelessness Services - Bond Loans etc; Community Liquor Permits, Liquor & Gaming Infringements, Liquor & Gaming Licences;CTP Insurance; Transport Services - Licences, Infringements & Registrations etc; Public Trustee - Write a Will; Information & Form Provision for ATO; Centrelink; ACCC; RTA; ASIC; Medicare; Legal Aid; Workcover; Veterans Affairs; General Queensland Government Enquiries",,,,,,,,,,,,,"St George, a rural town of about 2400 people, is in southern Queensland, 420 km west of Brisbane and 100 km from the New South Wales border.",2400
Stanthorpe,Service,QGAP,,51 Marsh Street,Stanthorpe,4380,-28.652483,151.934103,(07) 4681 4965,(07) 4681 4971,,9:00-13:00,14:00-16:00,9:00-13:00,14:00-16:00,9:30-13:00,14:00-16:00,9:00-13:00,14:00-16:00,9:00-13:00,14:00-16:00,,,,,TMR,"Housing & Homelessness Services - Bond Loans etc; Community Liquor Permits, Liquor & Gaming Infringements, Liquor & Gaming Licences;CTP Insurance; Information & Form Provision for ATO; Centrelink; ACCC; RTA; ASIC; Medicare; Legal Aid; Workcover; Veterans Affairs; General Queensland Government Enquiries",,,,,,,,,,,,,"Stanthorpe, a rural town of 4200 people, is in elevated 'granite belt' country near the New South Wales border, 170 km south-west of central Brisbane.",4200
Surat,Service,QGAP,,62 Burrowes Street,Surat,4417,-27.151861,149.068292,(07) 4626 5523,(07) 4626 5256,,9:30-12:30,13:30-16:30,9:30-12:30,13:30-16:30,9:30-12:30,13:30-16:30,9:30-12:30,13:30-16:30,9:30-12:30,13:30-16:30,,,,,SSQ,"Birth, Death & Marriage Certificate copies; CTP Insurance; Transport Services - Licences, Infringements & Registrations etc; Information & Form Provision for ATO; Centrelink; ACCC; RTA; ASIC; Medicare; Legal Aid; Workcover; Veterans Affairs; General Queensland Government Enquiries",,,,,,,,,,,,,"Surat, a rural town of about 430 people on the Balonne River, south-central Queensland, is 380 km west of Brisbane and 70 km south of Roma.",430
Tara,Service,QGAP,,19 Fry Street,Tara,4421,-27.520318,153.079535,(07) 4665 3130,(07) 4665 3460,,9:00-13:00,14:00-16:00,9:00-13:00,14:00-16:00,9:00-13:00,14:00-16:00,9:00-13:00,14:00-16:00,9:00-13:00,14:00-16:00,,,,,SSQ,"Birth, Death & Marriage Certificate copies;  Housing & Homelessness Services - Bond Loans etc; Community Liquor Permits, Liquor & Gaming Infringements, Liquor & Gaming Licences; CTP Insurance; Transport Services - Licences, Infringements & Registrations etc; Public Trustee - Write a Will; JP Services; SPER Payments; Information & Form Provision for ATO; Centrelink; ACCC; RTA; ASIC; Medicare; Legal Aid; Workcover; Veterans Affairs; General Queensland Government Enquiries",,,,,,,,,,,,,"Tara, a rural town of 800 people, is 80 km west of Dalby and 280 km west of central Brisbane.",800
Taroom,Service,QGAP,,33 Yaldwyn Street,Taroom,4420,-25.640685,149.79531,(07) 4627 3106,(07) 4627 3357,,9:00-12:30,13:30-16:30,9:00-12:30,13:30-16:30,9:00-12:30,13:30-16:30,9:00-12:30,13:30-16:30,9:00-12:30,13:30-16:30,,,,,JAG,"Birth, Death & Marriage Certificate copies; Housing & Homelessness Services - Bond Loans etc; Community Liquor Permits, Liquor & Gaming Infringements, Liquor & Gaming Licences; CTP Insurance; Transport Services - Licences, Infringements & Registrations etc; Information & Form Provision for ATO; Centrelink; ACCC; RTA; ASIC; Medicare; Legal Aid; Workcover; Veterans Affairs; General Queensland Government Enquiries",,,,,,,,,,,,,"Taroom, a rural town of about 630 people, is on the Dawson River, 290 km west of Maryborough.",630
Texas,Service,QGAP,,32 Cadell Street,Texas,4385,-28.853845,151.169534,(07) 4653 1251,(07) 4653 1265,,9:30-13:00,14:00-17:00,Closed,Closed,9:30-13:00,14:00-17:00,9:30-13:00,14:00-17:00,9:30-13:00,14:00-17:00,,,,,TMR,"Birth, Death & Marriage Certificate copies; Housing & Homelessness Services - Bond Loans etc; Community Liquor Permits, Liquor & Gaming Infringements, Liquor & Gaming Licences; CTP Insurance;  JP Services; Information & Form Provision for ATO; Centrelink; ACCC; RTA; ASIC; Medicare; Legal Aid; Workcover; Veterans Affairs; General Queensland Government Enquiries",,,,,,,,,,,,,"Texas, a rural town of 700 people, is on the north side of the Dumeresq River (the border with New South Wales) 230 km south-west of Brisbane.",700
Thargomindah ,Service,QGAP,Police Station,Dowling Street,Thargomindah,4492,-27.996239,143.821846,(07) 4655 3291,(07) 4655 3224,,9:00-12:00,12:00-17:00,9:00-12:00,12:00-17:00,9:00-12:00,12:00-17:00,9:00-12:00,12:00-17:00,9:00-12:00,12:00-17:00,,,,,QPS,"Community Liquor Permits, Liquor & Gaming Infringements, Liquor & Gaming Licences;CTP Insurance; Transport Services - Licences, Infringements & Registrations etc; QPS - Weapons Licence; Information & Form Provision for ATO; Centrelink; ACCC; RTA; ASIC; Medicare; Legal Aid; Workcover; Veterans Affairs; General Queensland Government Enquiries",,,,,,,,,,,,,,
Toogoolawah,Service,QGAP,Hopkins Place,Gardner Street,Toogoolawah,4313,-27.0879,152.379463,(07) 5423 1522,(07) 5423 1473,,9:00-13:15,14:30-16:00,9:00-13:15,14:30-16:00,9:00-13:15,14:30-16:00,9:00-13:15,14:30-16:00,9:00-13:15,14:30-16:00,,,,,JAG,"Birth, Death & Marriage Certificate copies; Housing & Homelessness Services - Bond Loans etc; CTP Insurance; Transport Services - Licences, Infringements & Registrations etc; Public Trustee - Write a Will; Information & Form Provision for ATO; Centrelink; ACCC; RTA; ASIC; Medicare; Legal Aid; Workcover; Veterans Affairs; General Queensland Government Enquiries",,,,,,,,,,,,,"Toogoolawah, a rural town of 950 people, is in the Brisbane Valley, 75 km north-west of central Brisbane and about one third further by road.",950
Tully,Service,QGAP,,46 Bryant Street,Tully,4854,-17.935826,145.922833,(07) 4068 1065,(07) 4068 3288,,9:00-12:00,12:00-16:30,9:00-12:00,12:00-16:30,9:00-12:00,12:00-16:00,9:00-12:00,12:00-16:30,9:00-12:00,12:00-16:30,,,,,JAG,"Birth, Death & Marriage Certificate copies;  Housing & Homelessness Services - Bond Loans etc; Community Liquor Permits, Liquor & Gaming Infringements, Liquor & Gaming Licences; CTP Insurance; Transport Services - Licences, Infringements & Registrations etc; Public Trustee - Write a Will; Information & Form Provision for ATO; Centrelink; ACCC; RTA; ASIC; Medicare; Legal Aid; Workcover; Veterans Affairs; General Queensland Government Enquiries",,,,,,,,,,,,,"Tully, a sugar town of 2500 people, is 110 km south of Cairns.",2500
Wandoan,Service,QGAP,,11 Lawton Street,Wandon,4419,-26.120909,149.961034,(07) 4627 5400,(07) 4627 5400,,9:00-12:00,12:00-16:30,9:00-12:00,12:00-16:30,9:00-12:00,12:00-16:30,9:00-12:00,12:00-16:30,9:00-12:00,12:00-16:30,,,,,SSQ,"Birth, Death & Marriage Certificate copies; CTP Insurance; Transport Services - Licences, Infringements & Registrations etc; JP Services; Information & Form Provision for ATO; Centrelink; ACCC; RTA; ASIC; Medicare; Legal Aid; Workcover; Veterans Affairs; General Queensland Government Enquiries",,,,,,,,,,,,,"Wandoan, a rural town of about 400 people, is 270 km west of Gympie and 60 km north of Miles.",400
Weipa,Service,QGAP,,Central Avenue,Weipa,4874,-12.631199,141.878234,(07) 4069 9999,(07) 4069 9160,,9:00-12:00,12:00-16:30,9:00-12:00,12:00-16:30,9:00-12:00,12:00-16:30,9:00-12:00,12:00-16:30,9:00-12:00,12:00-16:30,,,,,JAG,"Birth, Death & Marriage Certificate copies; CTP Insurance; Transport Services - Licences, Infringements & Registrations etc; Public Trustee - Write a Will; JP Services; Information & Form Provision for ATO; Centrelink; ACCC; RTA; ASIC; Medicare; Legal Aid; Workcover; Veterans Affairs; General Queensland Government Enquiries",,,,,,,,,,,,,Weipa faces the Gulf of Carpentaria on the west side of Cape York Peninsula.,
Windorah ,Service,QGAP,Police Station,Victoria Street,Windorah,4481,-25.419769,142.653596,(07) 4656 3171,(07) 4656 3172,,8:00-11:00,Closed,Closed,14:00-17:00,8:00-11:00,Closed,Closed,14:00-17:00,8:00-12:00,Closed,,,,,QPS,"Birth, Death & Marriage Certificate copies; Community Liquor Permits, Liquor & Gaming Infringements, Liquor & Gaming Licences; Transport Services - Licences, Infringements & Registrations etc; QPS - Weapons Licence; Information & Form Provision for ATO; Centrelink; ACCC; RTA; ASIC; Medicare; Legal Aid; Workcover; Veterans Affairs; General Queensland Government Enquiries",,,,,,,,,,,,,,
Winton ,Service,QGAP,Cout House,59 Vindex Street,Winton,4735,-22.388631,143.038782,(07) 4657 1536,(07) 4657 1583,,8:30-12:00,12:00-16:00,8:30-12:00,12:00-16:00,8:30-12:00,12:00-16:00,8:30-12:00,12:00-16:00,8:30-12:00,12:00-16:00,,,,,TMR,"Birth, Death & Marriage Certificate copies; Fair Trading Services - Industry Licensing Applications & Renewals, Incorporated Association Applications & Renewals etc & Consumer Complaints; Housing & Homelessness Services - Bond Loans etc; Community Liquor Permits, Liquor & Gaming Infringements, Liquor & Gaming Licences; CTP Insurance; Transport Services - Licences, Infringements & Registrations etc; Public Trustee - Write a Will; Seniors Card; SPER Payments; Information & Form Provision for ATO; Centrelink; ACCC; RTA; ASIC; Medicare; Legal Aid; Workcover; Veterans Affairs; General Queensland Government Enquiries",,,,,,,,,,,,,"Winton, a rural town of 1000 people, is 750 km west of Rockhampton on the Landsborough Highway between Longreach and Cloncurry.",1000
Yarrabah,Service,QGAP,,5 Noble Drive,Yarrabah,4871,-16.906625,145.865863,(07) 4056 9037,(07) 4056 0759,,9:00-12:00,13:00-16:00,9:00-12:00,13:00-16:00,9:00-12:00,13:00-16:00,9:00-12:00,13:00-16:00,9:00-12:00,Closed,,,,,SSQ,"Birth, Death & Marriage Certificate copies; Transport Services - Licences, Infringements & Registrations etc;  SPER Payments; Information & Form Provision for ATO; Centrelink; ACCC; RTA; ASIC; Medicare; Legal Aid; Workcover; Veterans Affairs; General Queensland Government Enquiries",,,,,,,,,,,,,"Yarrabah, a former Aboriginal mission settlement, is a community governed by an Aboriginal Council, 15 km east of Cairns at Cape Grafton.",
Yeppoon ,Service,QGAP,Cout House,Normanby Street,Yeppoon,4703,-23.127874,150.745671,(07) 4939 5385,(07) 4939 3023,,9:00-12:00,12:00-16:30,9:00-12:00,12:00-16:30,9:00-12:00,12:00-16:30,9:00-12:00,12:00-16:30,9:00-12:00,12:00-16:30,,,,,JAG,"Birth, Death & Marriage Certificate copies; Housing & Homelessness Services - Bond Loans etc; Community Liquor Permits, Liquor & Gaming Infringements, Liquor & Gaming Licences; CTP Insurance; Public Trustee - Write a Will; Seniors Card;  SPER Payments; Information & Form Provision for ATO; Centrelink; ACCC; RTA; ASIC; Medicare; Legal Aid; Workcover; Veterans Affairs; General Queensland Government Enquiries",,,,,,,,,,,,,"Yeppoon, a coastal town of 13,200 people, is 30 km north east of Rockhampton.",13200
Brisbane,Service,Statistical Research,,"Lvl 8, 33 Charlotte Street",Brisbane,4001,-27.471629,153.025728,,,,,,,,,,,,,,,,,,QT&T,,,,,,,,,,,,,,,
Townsville,Service,Statistical Research,,"Lvl 7,  Suncorp Building, 61 Sturt Street",Townsville,4810,-19.258158,146.816186,,,,,,,,,,,,,,,,,,QT&T,,,,,,,,,,,,,,,
Rockhampton,Service,Statistical Research,Ground Floor,36 East Street,Rockhampton,4700,-23.376462,150.511637,,,,,,,,,,,,,,,,,,QT&T,,,,,,,,,,,,,,,
Cairns,Service,Statistical Research,,Lvl 2 Wiliam McCormack Building 5B Sheridan Street,Cairns,4870,-16.926148,145.775376,,,,,,,,,,,,,,,,,,QT&T,,,,,,,,,,,,,,,
Brisbane,Reception,,,"Lvl 9,  33 Charlotte Street",Brisbane,4001,-27.471629,153.025728,,,,,,,,,,,,,,,,,,QT&T,,,,,,,,,,,,,,,
Atherton,Service,Business Centre,,25 Mabel Street,Atherton,4883,-17.2654054,145.477644,,,,,,,,,,,,,,,,,,DNR&M,,,,,,,,,,,,,,,
Ayr,Service,Business Centre,,Little Drysdale Street,Ayr,4807,-19.582966,147.404072,,,,,,,,,,,,,,,,,,DNR&M,,,,,,,,,,,,,,,
Brisbane,Service,Business Centre,,"Landcentre, Lvl 2 Cnr Main and Vulture Streets",Woolloongabba,4102,-27.484542,153.035836,,,,,,,,,,,,,,,,,,DNR&M,,,,,,,,,,,,,,,
Brisbane,Service,Business Centre,,"Lvl 11,  53 Albert Street",Brisbane,4001,-27.472448,153.028178,,,,,,,,,,,,,,,,,,DNR&M,,,,,,,,,,,,,,,
Bundaberg,Service,Business Centre,,16-32 Enterprise Street,Bundaberg,4670,-24.885319,152.327811,,,,,,,,,,,,,,,,,,DNR&M,,,,,,,,,,,,,,,
Caboolture,Service,Business Centre,,"Lvl 4,  33 King Street",Caboolture,4510,-27.084303,152.951395,,,,,,,,,,,,,,,,,,DNR&M,,,,,,,,,,,,,,,
Cairns,Service,Business Centre,,"Lvl 4, Building  2, William McCormack Place, 5B Sheridan Street",Cairns,4870,-16.926148,145.775376,,,,,,,,,,,,,,,,,,DNR&M,,,,,,,,,,,,,,,
Charleville,Service,Business Centre,,Hood Street,Charleville,4470,-26.409299,146.244778,,,,,,,,,,,,,,,,,,DNR&M,,,,,,,,,,,,,,,
Cloncurry,Service,Business Centre,,72 Uhr Street,Cloncurry,4824,-20.705406,140.512166,,,,,,,,,,,,,,,,,,DNR&M,,,,,,,,,,,,,,,
Dalby,Service,Business Centre,,"Lvl 3, Ergon Energy Building, 30 Marble Street",Dalby,4405,-27.183925,151.264552,,,,,,,,,,,,,,,,,,DNR&M,,,,,,,,,,,,,,,
Emerald,Service,Business Centre,,99 Hospital Road,Emerald,4720,-23.509863,148.153267,,,,,,,,,,,,,,,,,,DNR&M,,,,,,,,,,,,,,,
Robina,Service,Business Centre,,"Lvl 1, AVC Building, 14 Edgewater Court",Robina,4226,-28.075889,153.381106,,,,,,,,,,,,,,,,,,DNR&M,,,,,,,,,,,,,,,
Goondiwindi,Service,Business Centre,,42 Callandoon Street,Goondiwindi,4390,-28.545505,150.304067,,,,,,,,,,,,,,,,,,DNR&M,,,,,,,,,,,,,,,
Gympie,Service,Business Centre,,27 O'Connell Street,Gympie,4570,-26.187334,152.661483,,,,,,,,,,,,,,,,,,DNR&M,,,,,,,,,,,,,,,
Ipswich,Service,Business Centre,,"Lvl 1, Tower Central, 114 Brisbane Street",Ipswich,4305,-27.614478,152.759432,,,,,,,,,,,,,,,,,,DNR&M,,,,,,,,,,,,,,,
Kingaroy,Service,Business Centre,,Shop 2/16 Alford Street,Kingaroy,4610,-26.540836,151.838675,,,,,,,,,,,,,,,,,,DNR&M,,,,,,,,,,,,,,,
Longreach,Service,Business Centre,,Landsborough Highway,Longreach,4730,-23.369302,144.193172,,,,,,,,,,,,,,,,,,DNR&M,,,,,,,,,,,,,,,
Mackay,Service,Business Centre,,22-30 Wood Street,Mackay,4740,-21.140405,149.186007,,,,,,,,,,,,,,,,,,DNR&M,,,,,,,,,,,,,,,
Mareeba,Service,Business Centre,,28 Peters Street,Mareeba,4880,-17.007924,145.429516,,,,,,,,,,,,,,,,,,DNR&M,,,,,,,,,,,,,,,
Maryborough,Service,Business Centre,,"Station Chambers, 120 Lennox Street",Maryborough,4650,-25.5396323,152.699281,,,,,,,,,,,,,,,,,,DNR&M,,,,,,,,,,,,,,,
Mount Isa,Service,Business Centre,,"Suite 30, Lvl 1 Mount Isa House, Corner Camooweal and Mary Streets",Mount Isa,4825,-20.722227,139.493885,,,,,,,,,,,,,,,,,,DNR&M,,,,,,,,,,,,,,,
Nambour,Service,Business Centre,Centenary Square,52-64 Currie Street,Nambour,4560,-26.62602,152.958212,,,,,,,,,,,,,,,,,,DNR&M,,,,,,,,,,,,,,,
Rockhampton,Service,Business Centre,,"Lvl 1, State Government Building, 209 Bolsover Street",Rockhampton,4700,-23.381493,150.514669,,,,,,,,,,,,,,,,,,DNR&M,,,,,,,,,,,,,,,
Roma,Service,Business Centre,,1-3 Alfred Street,Roma,4455,-26.569589,148.786851,,,,,,,,,,,,,,,,,,DNR&M,,,,,,,,,,,,,,,
St George,Service,Business Centre,,126 Alfred Street,St Geroge,4487,-28.039376,148.580574,,,,,,,,,,,,,,,,,,DNR&M,,,,,,,,,,,,,,,
Toowoomba,Service,Business Centre,,203 Tor Street,Toowoomba,4350,-27.5359965,151.93222,,,,,,,,,,,,,,,,,,DNR&M,,,,,,,,,,,,,,,
Townsville,Service,Business Centre,"State Government Building,",187-209 Stanley Street,Townsville,4810,-19.2599274,146.813558,,,,,,,,,,,,,,,,,,DNR&M,,,,,,,,,,,,,,,
Warwick,Service,Business Centre,Government Offices," 1st Floor, Corner Guy and Fitzroy Streets",Warwick,4370,-28.214513,152.035896,,,,,,,,,,,,,,,,,,DNR&M,,,,,,,,,,,,,,,
Runcorn,Service,Qld State Archives,,435 Compton Road,Runcorn,4113,-27.611679,153.070868,,,,,,,,,,,,,,,,,,DSITIA,,,,,,,,,,,,,,,
Atherton,Service,Customer Service Centre,,13 Herberton Road,Atherton,4883,-17.269614,145.473399,,,,,,,,,,,,,,,,,,TMR,,,,,,,,,,,,,,,
Barcaldine ,Service,Customer Service Centre,,74 Ash Street,Barcaldine,4725,-23.552628,145.289614,,,,,,,,,,,,,,,,,,TMR,,,,,,,,,,,,,,,
Beenleigh,Service,Customer Service Centre,,31 Logan River Road,Beenleigh,4207,-27.713231,153.189888,,,,,,,,,,,,,,,,,,TMR,,,,,,,,,,,,,,,
Blackwater,Service,Customer Service Centre,,8 Blain Street,Blackwater,4717,-23.575952,148.888831,,,,,,,,,,,,,,,,,,TMR,,,,,,,,,,,,,,,
Bowen,Service,Customer Service Centre,,6 Herbert Street,Bowen,4805,-20.015021,148.248759,,,,,,,,,,,,,,,,,,TMR,,,,,,,,,,,,,,,
Brisbane,Service,Customer Service Centre,,229 Elizabeth Street,Brisbane,4000,-27.468783,153.028258,,,,,,,,,,,,,,,,,,TMR,,,,,,,,,,,,,,,
Bundaberg,Service,Customer Service Centre,,9 Production Street,Bundaberg,4670,-24.890479,152.328862,,,,,,,,,,,,,,,,,,TMR,,,,,,,,,,,,,,,
Bundall,Service,Customer Service Centre,,30 Upton Street,Bundall,4217,-28.009176,153.409814,,,,,,,,,,,,,,,,,,TMR,,,,,,,,,,,,,,,
Burleigh Waters,Service,Customer Service Centre,Burleigh Home Space,1 Santa Maria court,Burleigh Waters,4220,-28.075833,153.423233,,,,,,,,,,,,,,,,,,TMR,,,,,,,,,,,,,,,
Caboolture,Service,Customer Service Centre,,Corner Aerodrome Road and Piper Street,Caboolture,4510,-27.083592,152.980879,,,,,,,,,,,,,,,,,,TMR,,,,,,,,,,,,,,,
Cairns,Service,Customer Service Centre,,Corner Owen Close and Kenny Street,Cairns,4870,-16.934595,145.771228,,,,,,,,,,,,,,,,,,TMR,,,,,,,,,,,,,,,
Cairns,Service,Customer Service Centre,Shop 18 Bentley Village Shopping Centre,S99 McLaughlin Road,Bentley Park,4869,-17.005219,145.741599,,,,,,,,,,,,,,,,,,TMR,,,,,,,,,,,,,,,
Caloundra,Service,Customer Service Centre,,54 Canberra Terrace,Caloundra,4551,-26.804551,153.13586,,,,,,,,,,,,,,,,,,TMR,,,,,,,,,,,,,,,
Charleville,Service,Customer Service Centre,,Hood Street,Charleville,4470,-26.409299,146.244778,,,,,,,,,,,,,,,,,,TMR,,,,,,,,,,,,,,,
Charters Towers,Service,Customer Service Centre,,11-15 Church Street,Charters Towers,4820,-20.071257,146.262548,,,,,,,,,,,,,,,,,,TMR,,,,,,,,,,,,,,,
Chermside,Service,Customer Service Centre,,766 Gympie Road,Chermside,4032,-27.387469,153.030909,,,,,,,,,,,,,,,,,,TMR,,,,,,,,,,,,,,,
Cleveland,Service,Customer Service Centre,Ross Court Centre, Corner Bloomfield Street and Ross Court,Cleveland,4163,-27.532111,153.266642,,,,,,,,,,,,,,,,,,TMR,,,,,,,,,,,,,,,
Cloncurry,Service,Customer Service Centre,,16-22 Ramsay Street,Cloncurry,4824,-20.705892,140.509015,,,,,,,,,,,,,,,,,,TMR,,,,,,,,,,,,,,,
Currumbin ,Service,Customer Service Centre,,Unit 3/ 109 Currumbin Creek Road,Currumbin,4223,-28.149616,153.470321,,,,,,,,,,,,,,,,,,TMR,,,,,,,,,,,,,,,
Dalby,Service,Customer Service Centre,,20 Cunningham Street,Dalby,4405,-27.180054,151.267748,,,,,,,,,,,,,,,,,,TMR,,,,,,,,,,,,,,,
Darra,Service,Customer Service Centre,,Argyle Parade,Darra,4076,-27.573142,152.962294,,,,,,,,,,,,,,,,,,TMR,,,,,,,,,,,,,,,
Emerald,Service,Customer Service Centre,,83 Esmond Street,Emerald,4720,-23.520211,148.165629,,,,,,,,,,,,,,,,,,TMR,,,,,,,,,,,,,,,
Gladstone,Service,Customer Service Centre,,2 Patterson Street,Gladstone,4680,-23.865715,151.242198,,,,,,,,,,,,,,,,,,TMR,,,,,,,,,,,,,,,
Goondiwindi,Service,Customer Service Centre,,6 Brisbane Street,Goondiwindi,4390,-28.544476,150.306115,,,,,,,,,,,,,,,,,,TMR,,,,,,,,,,,,,,,
Greenslopes,Service,Customer Service Centre,Greenslopes Shopping Mall,"700 Logan Road, Corner Plimsoll Street",Greenslopes,4120,-27.5113668,153.05303,,,,,,,,,,,,,,,,,,TMR,,,,,,,,,,,,,,,
Gympie,Service,Customer Service Centre,,44 Duke Street,Gympie,4570,-26.186069,152.656534,,,,,,,,,,,,,,,,,,TMR,,,,,,,,,,,,,,,
Helensvale,Service,Customer Service Centre,Helensvale Plaza Shopping Centre,Shop 9A/B Sir John Overall Drive,Helensvale,4212,-27.922709,153.335261,,,,,,,,,,,,,,,,,,TMR,,,,,,,,,,,,,,,
Hervey Bay,Service,Customer Service Centre,,50-54 Main Street,Pialba,4655,-25.285053,152.839279,,,,,,,,,,,,,,,,,,TMR,,,,,,,,,,,,,,,
Innisfail,Service,Customer Service Centre,,12-14 Clifford Road,Innisfail,4860,-17.514424,146.009895,,,,,,,,,,,,,,,,,,TMR,,,,,,,,,,,,,,,
Ipswich,Service,Customer Service Centre; Passenger Transport,,2 Colvin Street,North Ipswich,4305,-27.605843,152.758736,,,,,,,,,,,,,,,,,,TMR,,,,,,,,,,,,,,,
Kingaroy,Service,Customer Service Centre,Artie Kerr Building,130 Kingaroy Street,Kingaroy,4610,-26.54112,151.839274,,,,,,,,,,,,,,,,,,TMR,,,,,,,,,,,,,,,
Longreach,Service,Customer Service Centre,,14 Wonga Street,Longreach,4730,-23.44025,144.257791,,,,,,,,,,,,,,,,,,TMR,,,,,,,,,,,,,,,
Logan Central,Service,Customer Service Centre,,43-45 Jacaranda Avenue,Logan Central,4114,-27.645728,153.105592,,,,,,,,,,,,,,,,,,TMR,,,,,,,,,,,,,,,
Macgregor,Service,Customer Service Centre,Kessels Court, 567 Kessells Road,Macgregor,4109,-27.562781,153.071486,,,,,,,,,,,,,,,,,,TMR,,,,,,,,,,,,,,,
Mackay,Service,Customer Service Centre; Passenger Transport,,Corner Endeavour and Industrial Streets,Mackay,4740,-21.14371,149.194222,,,,,,,,,,,,,,,,,,TMR,,,,,,,,,,,,,,,
Mareeba,Service,Customer Service Centre,,147 Walsh Street,Mareeba,4880,-16.993177,145.424027,,,,,,,,,,,,,,,,,,TMR,,,,,,,,,,,,,,,
Maroochydore,Service,Customer Service Centre,,6 Kelly Court,Maroochydore,4556,-26.669857,153.088219,,,,,,,,,,,,,,,,,,TMR,,,,,,,,,,,,,,,
Maryborough,Service,Customer Service Centre; Passenger Transport,,Bright Street,Maryborough,4650,-25.517171,152.671012,,,,,,,,,,,,,,,,,,TMR,,,,,,,,,,,,,,,
Mount Isa,Service,Customer Service Centre,,"Shop 1, 29 Simpson Street",Mount Isa,4825,-20.725464,139.493604,,,,,,,,,,,,,,,,,,TMR,,,,,,,,,,,,,,,
Nambour,Service,Customer Service Centre,,Corner Stanley Street and Coronation Avenue,Nambour,4560,-26.617615,152.967543,,,,,,,,,,,,,,,,,,TMR,,,,,,,,,,,,,,,
Proserpine,Service,Customer Service Centre,,55 Main Street,Proserpine,4800,-20.401597,148.58309,,,,,,,,,,,,,,,,,,TMR,,,,,,,,,,,,,,,
Redbank,Service,Customer Service Centre,"Redbank Plaza Shopping Centre,","Shop 221, Lvl 2, 1 Collingwood Drive",Redbank,4301,-27.605604,152.867854,,,,,,,,,,,,,,,,,,TMR,,,,,,,,,,,,,,,
Redcliffe,Service,Customer Service Centre,,Corner Beach and Bingle Streets,Kippa Ring,4021,-27.224951,153.08989,,,,,,,,,,,,,,,,,,TMR,,,,,,,,,,,,,,,
Rockhampton,Service,Customer Service Centre; Passenger Transport,,31 Knight Street,North Rockhampton,4701,-23.363074,150.514221,,,,,,,,,,,,,,,,,,TMR,,,,,,,,,,,,,,,
Roma,Service,Customer Service Centre,,56-58 Gregory Street,Roma,4455,-26.573018,148.793797,,,,,,,,,,,,,,,,,,TMR,,,,,,,,,,,,,,,
Rosalie,Service,Customer Service Centre,,109 Beck Street,Rosalie,4064,-27.463603,152.995114,,,,,,,,,,,,,,,,,,TMR,,,,,,,,,,,,,,,
Sherwood,Service,Customer Service Centre,,14 Primrose Street,Sherwood,4075,-27.532946,152.981897,,,,,,,,,,,,,,,,,,TMR,,,,,,,,,,,,,,,
Southport,Service,Customer Service Centre,,265 Nerang Street,Southport,4215,-27.975624,153.392677,,,,,,,,,,,,,,,,,,TMR,,,,,,,,,,,,,,,
Spring Hill,Service,Customer Service Centre,,477 Boundary Street,Spring Hill,4000,-27.460333,153.022994,,,,,,,,,,,,,,,,,,TMR,,,,,,,,,,,,,,,
Strathpine,Service,Customer Service Centre,,43 Bells Pocket Road,Strathpine,4500,-27.300523,152.988904,,,,,,,,,,,,,,,,,,TMR,,,,,,,,,,,,,,,
Tewantin,Service,Customer Service Centre,,8 Sidoni Street,Tewantin,4565,-26.392184,153.036728,,,,,,,,,,,,,,,,,,TMR,,,,,,,,,,,,,,,
Toowoomba,Service,Customer Service Centre,,Corner Clopton and Phillip Streets,Toowoomba,4350,-27.563776,151.959229,,,,,,,,,,,,,,,,,,TMR,,,,,,,,,,,,,,,
Toowoomba,Service,Customer Service Centre,,Corner Yaldwyn and Warwick Street,Toowoomba,4350,-27.575649,151.927057,,,,,,,,,,,,,,,,,,TMR,,,,,,,,,,,,,,,
Townsville,Service,Customer Service Centre; Passenger Transport,,21-35 Leyland Street,Garbutt,4814,-19.271846,146.764793,,,,,,,,,,,,,,,,,,TMR,,,,,,,,,,,,,,,
Townsville,Service,Customer Service Centre,,146 Wills Street,Townsville,4810,-19.262566,146.809673,,,,,,,,,,,,,,,,,,TMR,,,,,,,,,,,,,,,
Warwick,Service,Customer Service Centre,,51 Victoria Street,Warwick,4370,-28.2102,152.035103,,,,,,,,,,,,,,,,,,TMR,,,,,,,,,,,,,,,
Wynnum,Service,Customer Service Centre,,139 Tingal Road,Wynnum,4178,-27.444986,153.171006,,,,,,,,,,,,,,,,,,TMR,,,,,,,,,,,,,,,
Zillmere,Service,Customer Service Centre; Passenger Transport,,69 Pineapple Street,Zillmere,4034,-27.356114,153.03465,,,,,,,,,,,,,,,,,,TMR,,,,,,,,,,,,,,,
Cairns,Service,Passenger Transport,,"Lvl 9, Corporate Tower, 15 Lake Street",Cairns,4870,-16.92523,145.778013,,,,,,,,,,,,,,,,,,TMR,,,,,,,,,,,,,,,
Mooloolaba,Service,Passenger Transport,,1 Parkyn Parade,Mooloolaba,4557,-26.684425,153.133425,,,,,,,,,,,,,,,,,,TMR,,,,,,,,,,,,,,,
Southport,Service,Passenger Transport,,34-36 Railway Street,Southport,4215,-27.963827,153.409792,,,,,,,,,,,,,,,,,,TMR,,,,,,,,,,,,,,,
Toowoomba,Service,Passenger Transport,,1-5 Phillip Street,Toowoomba,4350,-27.563776,151.959229,,,,,,,,,,,,,,,,,,TMR,,,,,,,,,,,,,,,
Main Beach,Service,Maritime Safety,,40-44 Seaworld Drive,Main Beach,4217,-27.9560887,153.42678,,,,,,,,,,,,,,,,,,TMR,,,,,,,,,,,,,,,
Pinkenba,Service,Maritime Safety,,MacAurthur Avenue East,Pinkenba,4008,-27.431623,153.114487,,,,,,,,,,,,,,,,,,TMR,,,,,,,,,,,,,,,
Mooloolaba,Service,Maritime Safety,Old Pilot Station,Parkyn Parade,Mooloolaba,4557,-26.684425,153.133425,,,,,,,,,,,,,,,,,,TMR,,,,,,,,,,,,,,,
Gladstone,Service,Maritime Safety,"Lvl 2, Centrepoint Building", 136 Goondoon Street,Gladstone,4680,-23.844427,151.257202,,,,,,,,,,,,,,,,,,TMR,,,,,,,,,,,,,,,
Bundaberg,Service,Maritime Safety,,"Floor 2, 46 Quay Street",Bundaberg,4670,-24.865579,152.347498,,,,,,,,,,,,,,,,,,TMR,,,,,,,,,,,,,,,
Hervey Bay,Service,Maritime Safety,,Buccaneer Avenue,Hervey Bay,4655,-25.293554,152.908526,,,,,,,,,,,,,,,,,,TMR,,,,,,,,,,,,,,,
Mackay,Service,Maritime Safety,,14 Discovery Lane,Mount Pleasant,4740,-21.12883,19.16414,,,,,,,,,,,,,,,,,,TMR,,,,,,,,,,,,,,,
Airlie Beach,Service,Maritime Safety,,384 Shute Harbour Road,Airlie Beach,4802,-20.26945,148.719382,,,,,,,,,,,,,,,,,,TMR,,,,,,,,,,,,,,,
Townsville,Service,Maritime Safety,,60 Ross Street South,Townsville,4810,-19.255141,146.827586,,,,,,,,,,,,,,,,,,TMR,,,,,,,,,,,,,,,
Cairns,Service,Maritime Safety,,100-106 Tingira Street,Portsmith,4870,-16.94765,145.771044,,,,,,,,,,,,,,,,,,TMR,,,,,,,,,,,,,,,
Barcaldine ,Regional Office,,,69 Ash Street,Barcaldine,4725,-23.553839,145.289896,,,,,,,,,,,,,,,,,,TMR,,,,,,,,,,,,,,,
Warwick,Regional Office,,,306 Wood Street,Warwick,4370,-28.214046,151.995754,,,,,,,,,,,,,,,,,,TMR,,,,,,,,,,,,,,,
Toowoomba,Regional Office,,,1-5 Phillip Street,Toowoomba,4350,-27.563776,151.959229,,,,,,,,,,,,,,,,,,TMR,,,,,,,,,,,,,,,
Cairns,Regional Office,,,"Lvl 4, Cairns Corporate Tower, 15 Lake Street",Cairns,4870,-16.92523,145.778013,,,,,,,,,,,,,,,,,,TMR,,,,,,,,,,,,,,,
Rockhampton,Regional Office,,,31 Knight Street,North Rockhampton,4701,-23.363074,150.514221,,,,,,,,,,,,,,,,,,TMR,,,,,,,,,,,,,,,
Emerald,Regional Office,,,83 Esmond Street,Emerald,4720,-23.520211,148.165629,,,,,,,,,,,,,,,,,,TMR,,,,,,,,,,,,,,,
Mackay,Regional Office,,,46 Gordon Street,Mackay,4740,-21.142222,149.182311,,,,,,,,,,,,,,,,,,TMR,,,,,,,,,,,,,,,
Spring Hill,Regional Office,,,183 Wharf Street,Spring Hill,4000,-27.462419,153.027095,,,,,,,,,,,,,,,,,,TMR,,,,,,,,,,,,,,,
Ipswich,Regional Office,,,"Shop R3, 38 Limestone Avenue",Ipswich,4305,-27.6159157,152.762554,,,,,,,,,,,,,,,,,,TMR,,,,,,,,,,,,,,,
Gympie,Regional Office,,,50 River Road,Gympie,4570,-26.193275,152.661636,,,,,,,,,,,,,,,,,,TMR,,,,,,,,,,,,,,,
Townsville,Regional Office,,,146 Wills Street,Townsville,4810,-19.262566,146.809673,,,,,,,,,,,,,,,,,,TMR,,,,,,,,,,,,,,,
Cloncurry,Regional Office,,,16-22 Ramsay Street,Cloncurry,4824,-20.705892,140.509015,,,,,,,,,,,,,,,,,,TMR,,,,,,,,,,,,,,,
Nerang,Regional Office,,,36-38 Cotton Street,Nerang,4211,-27.990747,153.334551,,,,,,,,,,,,,,,,,,TMR,,,,,,,,,,,,,,,
Loganholme,Regional Office,,,3912 Pacific Motorway,Loganholme,4129,-27.666598,153.175698,,,,,,,,,,,,,,,,,,TMR,,,,,,,,,,,,,,,
Roma,Regional Office,,,30 McDowall Street,Roma,4455,-26.572556,148.793933,,,,,,,,,,,,,,,,,,TMR,,,,,,,,,,,,,,,
Bundaberg,Regional Office,,,23 Quay Street,Bundaberg,4670,-24.865247,152.345865,,,,,,,,,,,,,,,,,,TMR,,,,,,,,,,,,,,,
Brisbane,Service,Local Government,,"Ground Floor, 63 George Street",Brisbane,4000,-27.47378,153.026302,,,,,,,,,,,,,,,,,,DLG,,,,,,,,,,,,,,,
Brisbane,Service,,,"Lvl 5, 63 George Street",Brisbane,4000,-27.47378,153.026302,,,,,,,,,,,,,,,,,,DSIP (DLGP),,,,,,,,,,,,,,,
Cairns,Service,,,"Lvl 9, City Central, 46-48 Sheridan Street",Cairns,4870,-16.925515,145.775706,,,,,,,,,,,,,,,,,,DSIP (DLGP),,,,,,,,,,,,,,,
Townsville,Service,,,"Lvl 5, Central Plaza, 370 Flinders Street",Townsville,4810,-19.260633,146.816657,,,,,,,,,,,,,,,,,,DSIP (DLGP),,,,,,,,,,,,,,,
Longreach,Service,,,138 Eagle Street,Longreach,4730,-23.44436,144.247599,,,,,,,,,,,,,,,,,,DSIP (DLGP),,,,,,,,,,,,,,,
Mackay,Service,,,"Lvl 1, Post Office Square, 73 Sydney Street",Mackay,4740,-21.143253,149.186922,,,,,,,,,,,,,,,,,,DSIP (DLGP),,,,,,,,,,,,,,,
Rockhampton,Service,,,"Lvl 3, 130 Victoria Parade",Rockhampton,4700,-23.375426,150.512337,,,,,,,,,,,,,,,,,,DSIP (DLGP),,,,,,,,,,,,,,,
Bundaberg,Service,,,"Lvl 1, 7 Takalvan Street",Bundaberg,4670,-24.872009,152.334086,,,,,,,,,,,,,,,,,,DSIP (DLGP),,,,,,,,,,,,,,,
Hervey Bay,Service,,,"Lvl 1, Brendan Hansen Building, 54 Main Street",Hervey Bay,4655,-25.28501,152.83898,,,,,,,,,,,,,,,,,,DSIP (DLGP),,,,,,,,,,,,,,,
Toowoomba,Service,,"Canberra Place,",123 Margaret Street,Toowoomba,4350,-27.561433,151.957333,,,,,,,,,,,,,,,,,,DSIP (DLGP),,,,,,,,,,,,,,,
Brisbane,Service,,,"Lvl 7, 63 George Street",Brisbane,4000,-27.47378,153.026302,,,,,,,,,,,,,,,,,,DSIP (DLGP),,,,,,,,,,,,,,,
Ipswich,Service,,,"Ground Floor, Tower Central, 114 Brisbane Street",Ipswich,4305,-27.614478,152.759432,,,,,,,,,,,,,,,,,,DSIP (DLGP),,,,,,,,,,,,,,,
Maroochydore,Service,,,"Lvl 8, Mike Ahern Building, 12 First Avenue",Maroochydore,4558,-26.38692,152.676474,,,,,,,,,,,,,,,,,,DSIP (DLGP),,,,,,,,,,,,,,,
Cairns,Service,,,"Lvl 2, William McCormack Place, 5B Sheridan Street",Cairns,4870,-16.926148,145.775376,,,,,,,,,,,,,,,,,,DATSI & MA,,,,,,,,,,,,,,,
Thursday Island,Service,,,1/46 Victoria Parade,Thursday Island,4875,-10.584779,142.21558,,,,,,,,,,,,,,,,,,DATSI & MA,,,,,,,,,,,,,,,
Cooktown,Service,,,3 Furneaux Street,Cooktown,4895,-15.467355,145.249922,,,,,,,,,,,,,,,,,,DATSI & MA,,,,,,,,,,,,,,,
Weipa,Service,,,2 Commercial Avenue,Weipa,4874,-12.638462,141.863642,,,,,,,,,,,,,,,,,,DATSI & MA,,,,,,,,,,,,,,,
Aurukun,Service,,,Corner Kang Kang and Themp Streets,Aurukun,4871,-13.3551943,141.729371,,,,,,,,,,,,,,,,,,DATSI & MA,,,,,,,,,,,,,,,
Townsville,Service,,,"Ground Floor, Suncorp Building, 61 Sturt Street",Townsville,4810,-19.258158,146.816186,,,,,,,,,,,,,,,,,,DATSI & MA,,,,,,,,,,,,,,,
Mount Isa,Service,,,52 Miles Street,Mount Isa,4825,-20.722957,139.492909,,,,,,,,,,,,,,,,,,DATSI & MA,,,,,,,,,,,,,,,
Mackay,Service,,"Lvl 2, Pharmacy Building", 67-69 Sydney Street,Mackay,4740,-21.144496,149.186745,,,,,,,,,,,,,,,,,,DATSI & MA,,,,,,,,,,,,,,,
Hervey Bay,Service,,"Lvl 1, Brendan Hansen Building", 54 Main Street,Hervey Bay,4655,-25.285053,152.839279,,,,,,,,,,,,,,,,,,DATSI & MA,,,,,,,,,,,,,,,
Rockhampton,Service,,,"Lvl 3, 209 Bolsover Street",Rockhampton,4700,-23.381493,150.514669,,,,,,,,,,,,,,,,,,DATSI & MA,,,,,,,,,,,,,,,
Toowoomba,Service,,,"Lvl 1, 1a Kitchener Street",Toowoomba,4350,-27.562324,151.958913,,,,,,,,,,,,,,,,,,DATSI & MA,,,,,,,,,,,,,,,
Charleville,Service,,,Lot 88 Hood Street,Charleville,4470,-26.4092996,146.244778,,,,,,,,,,,,,,,,,,DATSI & MA,,,,,,,,,,,,,,,
Ipswich,Service,,,38 Limestone Street,Ipswich,4305,-27.6159157,152.762554,,,,,,,,,,,,,,,,,,DATSI & MA,,,,,,,,,,,,,,,
Woodridge,Service,,"Ground Floor,",6 Ewing Road,Woodridge,4114,-27.639281,153.107481,,,,,,,,,,,,,,,,,,DATSI & MA,,,,,,,,,,,,,,,
Caboolture,Service,,,"Lvl 2, 33 King Street",Caboolture,4510,-27.084303,152.951395,,,,,,,,,,,,,,,,,,DATSI & MA,,,,,,,,,,,,,,,
Bowen Hills,Service,,,41 Murray Street,Bowen Hills,4006,-27.441714,153.041461,,,,,,,,,,,,,,,,,,DATSI & MA,,,,,,,,,,,,,,,
South Brisbane,Regional Office,,Ground Floor, 55 Russell Street,South Brisbane,4101,-27.478244,153.014309,,,,,,,,,,,,,,,,,,DOCCSDS,,,,,,,,,,,,,,,
Rockhampton,Regional Office,,,"Lvl 3, 209 Bolsover Street",Rockhampton,4700,-23.381493,150.514669,,,,,,,,,,,,,,,,,,DOCCSDS,,,,,,,,,,,,,,,
Cairns,Regional Office,,,"Lvl 1, William McCormack Place, 5B Sheridan Street",Cairns,4870,-16.926148,145.775376,,,,,,,,,,,,,,,,,,DOCCSDS,,,,,,,,,,,,,,,
Caboolture,Regional Office,,,"Lvl 2, Town Square Precinct, 33 King Street",Caboolture,4510,-27.084303,152.951395,,,,,,,,,,,,,,,,,,DOCCSDS,,,,,,,,,,,,,,,
Townsville,Regional Office,,,"State Government Building, 187-209 Stanley Street",Townsville,4810,-19.2599274,146.813558,,,,,,,,,,,,,,,,,,DOCCSDS,,,,,,,,,,,,,,,
Beenleigh,Regional Office,,,"Lvl 1, 100 George Street",Beenleigh,4207,-27.7160737,153.202173,,,,,,,,,,,,,,,,,,DOCCSDS,,,,,,,,,,,,,,,
Toowoomba,Regional Office,,,1 Kitchener Street,Toowoomba,4350,-27.562324,151.958913,,,,,,,,,,,,,,,,,,DOCCSDS,,,,,,,,,,,,,,,
Alderley,Service,,,"Lvl 1, 467 Enoggera Road",Alderley,4051,-27.42566,153.001597,,,,,,,,,,,,,,,,,,DOCCSDS,,,,,,,,,,,,,,,
Chermside,Service,,"Ground Level, Commonwealth Centre", 18 Banfield Street,Chermside,4032,-27.381299,153.030764,,,,,,,,,,,,,,,,,,DOCCSDS,,,,,,,,,,,,,,,
Forest Lake,Service,,,"Shop M, 255 Forest Lake Boulevard ",Forest Lake,4078,-27.626545,152.970013,,,,,,,,,,,,,,,,,,DOCCSDS,,,,,,,,,,,,,,,
Fortitude Valley,Service,,,"Ground Level, 503-505 St Pauls Terrace",Fortitude Valley,4006,-27.45386,153.034416,,,,,,,,,,,,,,,,,,DOCCSDS,,,,,,,,,,,,,,,
Inala,Service,,"Commonwealth Building,", 20 Wirraway Parade,Inala,4077,-27.60159,152.974287,,,,,,,,,,,,,,,,,,DOCCSDS,,,,,,,,,,,,,,,
Upper Mount Gravatt,Service,,,"Lvl 1, Block A 643 Kessels Road",Upper Mount Gravatt,4122,-27.56102,153.078212,,,,,,,,,,,,,,,,,,DOCCSDS,,,,,,,,,,,,,,,
Stones Corner,Service,,,441 Logan Road,Stones Corner,4120,-27.501684,153.04638,,,,,,,,,,,,,,,,,,DOCCSDS,,,,,,,,,,,,,,,
Wynnum,Service,,,212 Bay Terrace,Wynnum,4178,-27.446452,153.176691,,,,,,,,,,,,,,,,,,DOCCSDS,,,,,,,,,,,,,,,
Bundaberg,Service,,,"Lvl1, Queensland Government Building, 46 Quay Street",Bundaberg,4670,-24.865579,152.347498,,,,,,,,,,,,,,,,,,DOCCSDS,,,,,,,,,,,,,,,
Emerald,Service,,,51 Ruby Street,Emerald,4720,-23.522617,148.158932,,,,,,,,,,,,,,,,,,DOCCSDS,,,,,,,,,,,,,,,
Gladstone,Service,,,162 Goondoon Street,Gladstone,4680,-23.846205,151.257879,,,,,,,,,,,,,,,,,,DOCCSDS,,,,,,,,,,,,,,,
Maryborough,Service,,,161 Bazaar Street,Maryborough,4650,-25.53965,152.703339,,,,,,,,,,,,,,,,,,DOCCSDS,,,,,,,,,,,,,,,
Rockhampton,Service,,,"Lvl 4, 36 East Street",Rockhampton,4700,-23.376462,150.511637,,,,,,,,,,,,,,,,,,DOCCSDS,,,,,,,,,,,,,,,
Rockhampton,Service,,,"Lvl 1, 35 Fitzroy street",Rockhampton,4700,-23.377555,150.510807,,,,,,,,,,,,,,,,,,DOCCSDS,,,,,,,,,,,,,,,
Kingaroy,Service,,,180-182 Haly Street,Kingaroy,4610,-26.538598,151.837908,,,,,,,,,,,,,,,,,,DOCCSDS,,,,,,,,,,,,,,,
Murgon,Service,,"Lvl 2, Court House Building,", Stephen Street,Murgon,4605,-26.239818,151.940334,,,,,,,,,,,,,,,,,,DOCCSDS,,,,,,,,,,,,,,,
Woorabinda,Service,,,,Woorabinda,4713,-27.084303,152.951395,,,,,,,,,,,,,,,,,,DOCCSDS,,,,,,,,,,,,,,,
Atherton,Service,,,34 Mabel Street,Atherton,4883,-17.265405,145.477644,,,,,,,,,,,,,,,,,,DOCCSDS,,,,,,,,,,,,,,,
Cairns,Service,,,107 Lake Street,Cairns,4870,-16.921766,145.775213,,,,,,,,,,,,,,,,,,DOCCSDS,,,,,,,,,,,,,,,
Edmonton,Service,,,1 Ravizza Drive,Edmonton,4869,-17.017296,145.74217,,,,,,,,,,,,,,,,,,DOCCSDS,,,,,,,,,,,,,,,
Cairns,Service,,,"Lvl3, 65-67 Spence Street",Cairns,4870,-16.925515,145.775706,,,,,,,,,,,,,,,,,,DOCCSDS,,,,,,,,,,,,,,,
Cairns,Service,,,"Lvl 1, William McCormack Place, 5B Sheridan Street",Cairns,4870,-16.926148,145.775376,,,,,,,,,,,,,,,,,,DOCCSDS,,,,,,,,,,,,,,,
Cooktown,Service,,,"Lvl 2, 112 Charlotte Street",Cooktown,4895,-15.468473,145.249392,,,,,,,,,,,,,,,,,,DOCCSDS,,,,,,,,,,,,,,,
Innisfail,Service,,,31 Glady Street,Innisfail,4860,-17.525154,146.027395,,,,,,,,,,,,,,,,,,DOCCSDS,,,,,,,,,,,,,,,
Thursday Island,Service,,,37 Douglas Street,Thursday Island,4875,-10.584221,142.220344,,,,,,,,,,,,,,,,,,DOCCSDS,,,,,,,,,,,,,,,
Weipa,Service,,,2 Commercial Avenue,Weipa,4874,-12.638462,141.863642,,,,,,,,,,,,,,,,,,DOCCSDS,,,,,,,,,,,,,,,
Caboolture,Service,,,"Lvl 2, Town Square Precinct, 33 King Street",Caboolture,4510,-27.084303,152.951395,,,,,,,,,,,,,,,,,,DOCCSDS,,,,,,,,,,,,,,,
Gympie,Service,,,26 Duke Street,Gympie,4570,-26.187614,152.657557,,,,,,,,,,,,,,,,,,DOCCSDS,,,,,,,,,,,,,,,
Maroochydore,Service,,,15 Beach Road,Maroochydore,4558,-26.650886,153.088684,,,,,,,,,,,,,,,,,,DOCCSDS,,,,,,,,,,,,,,,
Kippa Ring,Service,,,59 High Street,Kippa Ring,4021,-27.226173,153.090717,,,,,,,,,,,,,,,,,,DOCCSDS,,,,,,,,,,,,,,,
Strathpine,Service,,,"Lvl1, 328 Gympie Road",Strathpine,4500,-27.306159,152.988787,,,,,,,,,,,,,,,,,,DOCCSDS,,,,,,,,,,,,,,,
Townsville,Service,,,71-77 Patrick Street,Aitkenvale,4814,-19.298027,146.766788,,,,,,,,,,,,,,,,,,DOCCSDS,,,,,,,,,,,,,,,
Bowen,Service,,,60-62 Williams Street,Bowen,4805,-20.015363,148.242363,,,,,,,,,,,,,,,,,,DOCCSDS,,,,,,,,,,,,,,,
Doomadgee,Service,,,,Doomadgee,4830,-17.941666,138.828333,,,,,,,,,,,,,,,,,,DOCCSDS,,,,,,,,,,,,,,,
Mount Isa,Service,,,"Suite 30, Lvl 1 Mount Isa House, Corner Camooweal and Mary Streets",Mount Isa,4825,-20.722556,139.492768,,,,,,,,,,,,,,,,,,DOCCSDS,,,,,,,,,,,,,,,
Mackay,Service,,,110 Wood Street,Mackay,4740,-21.14383,149.184887,,,,,,,,,,,,,,,,,,DOCCSDS,,,,,,,,,,,,,,,
Mornington Island,Service,,,Lot 305 Lardil Street,Mornington Island,4871,-16.663013,139.17014,,,,,,,,,,,,,,,,,,DOCCSDS,,,,,,,,,,,,,,,
Normanton,Service,,,"Suite 1, 36 Landsborough Street",Normanton,4890,-17.675689,141.072791,,,,,,,,,,,,,,,,,,DOCCSDS,,,,,,,,,,,,,,,
Palm Island,Service,,,,Palm Island,4816,-18.736478,146.581263,,,,,,,,,,,,,,,,,,DOCCSDS,,,,,,,,,,,,,,,
Thuringowa,Service,,,39 Blackhawk Boulevard,Thuringowa Central,4817,-19.321946,146.720209,,,,,,,,,,,,,,,,,,DOCCSDS,,,,,,,,,,,,,,,
Townsville,Service,,"State Government Building, ",187-209 Stanley Street,Townsville,4810,-19.259927,146.813558,,,,,,,,,,,,,,,,,,DOCCSDS,,,,,,,,,,,,,,,
Beaudesert,Service,,,"Shop 12-18, Telemon Place Shopping Centre, Telemon Street",Beaudesert,4285,-27.993733,152.9911866,,,,,,,,,,,,,,,,,,DOCCSDS,,,,,,,,,,,,,,,
Beenleigh,Service,,,"Ground Lvl, 100 George Street",Beenleigh,4207,-27.716073,153.202173,,,,,,,,,,,,,,,,,,DOCCSDS,,,,,,,,,,,,,,,
Browns Plains,Service,,,75-87 Grand Plaza Drive,Browns Plains,4118,-27.664236,153.043249,,,,,,,,,,,,,,,,,,DOCCSDS,,,,,,,,,,,,,,,
Cleveland,Service,,,146 Bloomfield Street,Cleveland,4163,-27.52896,153.267013,,,,,,,,,,,,,,,,,,DOCCSDS,,,,,,,,,,,,,,,
Labrador,Service,,,"Lvl 1, BRP House, 118 Brisbane Road",Labrador,4215,-27.936047,153.394941,,,,,,,,,,,,,,,,,,DOCCSDS,,,,,,,,,,,,,,,
Woodridge,Service,,,6 Ewing Road ,Woodridge,4114,-27.639281,153.107481,,,,,,,,,,,,,,,,,,DOCCSDS,,,,,,,,,,,,,,,
Kingston,Service,,,1-9 Juers Street,Kingston,4114,-27.659623,153.116478,,,,,,,,,,,,,,,,,,DOCCSDS,,,,,,,,,,,,,,,
Mermaid Beach,Service,,"Shop 9 Pacific Square, ",2532-2540 Gold Coast Highway,Mermaid Beach,4218,-28.0418707,153.433913,,,,,,,,,,,,,,,,,,DOCCSDS,,,,,,,,,,,,,,,
Nerang,Service,,,24 White Street,Nerang,4211,-27.990641,153.333276,,,,,,,,,,,,,,,,,,DOCCSDS,,,,,,,,,,,,,,,
Logan Central,Service,,,"Lvl 1, 22 Blackwood Road",Logan Central,4114,-27.637757,153.105729,,,,,,,,,,,,,,,,,,DOCCSDS,,,,,,,,,,,,,,,
Charleville,Service,,,86-88 Alfred Street,Charleville,4470,-26.401604,146.239536,,,,,,,,,,,,,,,,,,DOCCSDS,,,,,,,,,,,,,,,
Goodna,Service,,,23-27 Smiths Road,Goodna,4300,-27.608958,152.896616,,,,,,,,,,,,,,,,,,DOCCSDS,,,,,,,,,,,,,,,
Ipswich,Service,,,18-24 Brisbane Street,Ipswich,4305,-27.615558,152.763996,,,,,,,,,,,,,,,,,,DOCCSDS,,,,,,,,,,,,,,,
Roma,Service,,,95 Arthur Street,Roma,4455,-26.574777,148.788706,,,,,,,,,,,,,,,,,,DOCCSDS,,,,,,,,,,,,,,,
Toowoomba,Service,,,"Lvl 1, 128 Margaret Street",Toowoomba,4350,-27.561528,151.956797,,,,,,,,,,,,,,,,,,DOCCSDS,,,,,,,,,,,,,,,
Brisbane,Service,,,"Lvl G2, 200 Mary Street",Brisbane,4000,-27.470304,153.029769,,,,,,,,,,,,,,,,,,DOCCSDS,,,,,,,,,,,,,,,
Windsor,Service,,,"Lvl 2 Muruk Haus, 230 Lutwyche Road",Windsor,4030,-27.434896,153.030905,,,,,,,,,,,,,,,,,,DOCCSDS,,,,,,,,,,,,,,,
Robina,Service,,,14 Edgewater Court,Robina,4226,-28.075889,153.381106,,,,,,,,,,,,,,,,,,DOCCSDS,,,,,,,,,,,,,,,
Ipswich,Service,,,5-7 Wharf Street,Ipswich,4305,-27.614076,152.762745,,,,,,,,,,,,,,,,,,DOCCSDS,,,,,,,,,,,,,,,
Mackay,Service,,"Lvl 2, Pharmacy Building",67-69 Sydney Street,Mackay,4870,-21.144496,149.186745,,,,,,,,,,,,,,,,,,DOCCSDS,,,,,,,,,,,,,,,
Nambour,Service,,,91-95 Howard Street,Nambour,4560,-26.626516,152.96269,,,,,,,,,,,,,,,,,,DOCCSDS,,,,,,,,,,,,,,,
Toowoomba,Service,,,"Lvl 6, 10 Russell Street",Toowoomba,4350,-27.559466,151.954853,,,,,,,,,,,,,,,,,,DOCCSDS,,,,,,,,,,,,,,,
Hervey Bay,Service,,,"Lvl 1, Brendan Hansen Building, 54 Main Street",Hervey Bay,4655,-25.285053,152.839279,,,,,,,,,,,,,,,,,,DOCCSDS,,,,,,,,,,,,,,,
Rockhampton,Service,,,"Lvl 3, State Government Building, 209 Bolsover Street",Rockhampton,4700,-23.381493,150.514669,,,,,,,,,,,,,,,,,,DOCCSDS,,,,,,,,,,,,,,,
Townsville,Service,,Lvl 2 Suncorp Building, 61 Sturt Street,Townsville,4810,-19.258158,146.816186,,,,,,,,,,,,,,,,,,DOCCSDS,,,,,,,,,,,,,,,
Cairns,Service,,,"Lvl 3, 85 Spence Street",Cairns,4870,-16.927421,145.77268,,,,,,,,,,,,,,,,,,DOCCSDS,,,,,,,,,,,,,,,
Mount Isa,Service,,Ground Lvl Mt Isa House, Mary Street,Mount Isa,4825,-20.722188,139.493755,,,,,,,,,,,,,,,,,,DOCCSDS,,,,,,,,,,,,,,,
Brisbane,Service,,,"Lvl 14, 313 Adelaide Street",Brisbane,4000,-27.465895,153.029156,,,,,,,,,,,,,,,,,,DOCCSDS,,,,,,,,,,,,,,,
South Brisbane,Regional Office,,,Lvl 1 Corner Edmondstone and Russell Streets,South Brisbane,4101,-27.478319,153.014793,,,,,,,,,,,,,,,,,,DOCCSDS,,,,,,,,,,,,,,,
Upper Mount Gravatt,Regional Office,,,"Lvl 1, Block A 643 Kessels Road",Upper Mount Gravatt,4122,-27.56102,153.078212,,,,,,,,,,,,,,,,,,DOCCSDS,,,,,,,,,,,,,,,
Nundah,Regional Office,,,1159 Sandgate Road,Nundah,4012,-27.404331,153.060837,,,,,,,,,,,,,,,,,,DOCCSDS,,,,,,,,,,,,,,,
Goodna,Regional Office,,,23-27 Smiths Road,Goodna,4300,-27.608958,152.896616,,,,,,,,,,,,,,,,,,DOCCSDS,,,,,,,,,,,,,,,
Wacol,Regional Office,,,Aveyron Road,Wacol,4076,-27.588178,152.910985,,,,,,,,,,,,,,,,,,DOCCSDS,,,,,,,,,,,,,,,
Beenleigh,Regional Office,,,24 Tansey Street,Beenleigh,4207,-27.720011,153.202389,,,,,,,,,,,,,,,,,,DOCCSDS,,,,,,,,,,,,,,,
Robina,Regional Office,,,"Lvl 2 Campus Alpha, 2 Investigator Drive",Robina,4226,-28.074217,153.377021,,,,,,,,,,,,,,,,,,DOCCSDS,,,,,,,,,,,,,,,
Caboolture,Regional Office,,,"Lvl 1, 12 King Street",Caboolture,4510,-27.085224,152.953495,,,,,,,,,,,,,,,,,,DOCCSDS,,,,,,,,,,,,,,,
Strathpine,Regional Office,,,"Lvl1, 454 Gympie Road",Strathpine,4500,-27.302017,152.988307,,,,,,,,,,,,,,,,,,DOCCSDS,,,,,,,,,,,,,,,
Maroochydore,Regional Office,,,"Lvl2 Mike Ahern Building, 12 First Avenue",Maroochydore,4558,-26.656606,153.093294,,,,,,,,,,,,,,,,,,DOCCSDS,,,,,,,,,,,,,,,
Ipswich,Regional Office,,Lvl 3 George Thorn Centre,30 Thorn Street,Ipswich,4305,-27.616211,152.76529,,,,,,,,,,,,,,,,,,DOCCSDS,,,,,,,,,,,,,,,
Toowoomba,Regional Office,,,"Lvl 1, 162 Hume Street",Toowoomba,4350,-27.563126,151.95756,,,,,,,,,,,,,,,,,,DOCCSDS,,,,,,,,,,,,,,,
Maryborough,Regional Office,,,271 Albert Street,Maryborough,4650,-25.542173,152.698209,,,,,,,,,,,,,,,,,,DOCCSDS,,,,,,,,,,,,,,,
Rockhampton,Regional Office,,,80-82 Denham Street,Rockhampton,4700,-23.380951,150.507814,,,,,,,,,,,,,,,,,,DOCCSDS,,,,,,,,,,,,,,,
Bundaberg,Regional Office,,,"Ground Lvl Claude Wharton Building, 46 Quay Street",Bundaberg,4670,-24.865579,152.347498,,,,,,,,,,,,,,,,,,DOCCSDS,,,,,,,,,,,,,,,
Gladstone,Regional Office,,,"Government Building, Corner Oaka Lane and Roseberry Street",Gladstone,4680,-23.841421,151.255906,,,,,,,,,,,,,,,,,,DOCCSDS,,,,,,,,,,,,,,,
Mackay,Regional Office,,,110 Wood Street,Mackay,4740,-21.14383,149.184887,,,,,,,,,,,,,,,,,,DOCCSDS,,,,,,,,,,,,,,,
Townsville,Regional Office,,,"National Bank Building, 313-315 Ross River Road",Aitkenvale,4814,-19.297559,146.764066,,,,,,,,,,,,,,,,,,DOCCSDS,,,,,,,,,,,,,,,
Cairns,Regional Office,,Ground Lvl CitiCentral,Corner Sheridan and Spence Streets,Cairns,4870,-16.925299,145.775174,,,,,,,,,,,,,,,,,,DOCCSDS,,,,,,,,,,,,,,,
Thursday Island,Service,Housing Service Centre,,37 Douglas Street,Thursday Island,4875,-10.584221,142.220344,(07) 4214 1117,(07) 4069 2154,1300 650 910,,,,,,,,,,,,,,,HPW,,,,,,,,,,,,,,,
Townsville,Service,Housing Service Centre,,2/143 Walker Street,Townsville,4810,-19.258964,146.813892,(07) 4760 7378; 1800 806 197,(07) 4760 7376,1300 650 913,,,,,,,,,,,,,,,HPW,,,,,,,,,,,,,,,
Mount Isa,Service,Housing Service Centre,,19 West Street,Mount Isa,4825,-20.726122,139.489689,(07) 4747 2137; 1800 620 466,(07) 4747 2138,1300 650 912,,,,,,,,,,,,,,,HPW,,,,,,,,,,,,,,,
Mackay,Service,Housing Service Centre,,22-30 Wood Street,Mackay,4740,-21.140405,149.186007,(07) 4967 0888; 1800 069 237,(07) 4967 0906,1300 650 914,,,,,,,,,,,,,,,HPW,,,,,,,,,,,,,,,
Rockhampton,Service,Housing Service Centre,,"Lvl 3, State Government Building, 209 Bolsover Street",Rockhampton,4700,-23.381493,150.514669,(07) 4938 4085; 1800 801 176,(07) 4938 4088,(07) 4938 4085; 1800 817 029,,,,,,,,,,,,,,,HPW,,,,,,,,,,,,,,,
Emerald,Service,Housing Service Centre,,27A Hospital Road,Emerald,4720,-23.520886,148.156931,(07) 4987 4871; 1800 659 160,(07) 4982 1721,(07) 4982 3090; 1800 817 029,,,,,,,,,,,,,,,HPW,,,,,,,,,,,,,,,
Gladstone,Service,Housing Service Centre,,147 Goodoon Street,Gladstone,4680,-23.84501,151.256771,(07) 4979 6560; 1800 266 807,(07) 4979 6574,(07) 4979 4960,,,,,,,,,,,,,,,HPW,,,,,,,,,,,,,,,
Bundaberg,Service,Housing Service Centre,,16 Quay Street,Bundaberg,4670,-24.863789,152.354064,(07) 4131 5990; 1800 809 835,(07) 4131 5989,1800 655 949,,,,,,,,,,,,,,,HPW,,,,,,,,,,,,,,,
Maryborough,Service,Housing Service Centre,,116 Lennox Street,Maryborough,4650,-25.539681,152.354064,(07) 4121 1918; 1800 623 242,(07) 4121 1775,1300 137 687,,,,,,,,,,,,,,,HPW,,,,,,,,,,,,,,,
Toowoomba,Service,Housing Service Centre,Lvl 2 Condamine Centre, 10 Russell Street,Toowoomba,4350,-27.559466,151.954853,(07) 4615 3560; 1800 623 435,(07) 4615 3679,1300 650 915,,,,,,,,,,,,,,,HPW,,,,,,,,,,,,,,,
Ipswich,Service,Housing Service Centre,,4 Bell Street,Ipswich,4305,-27.612402,152.760302,(07) 3280 1420; 1800 636 390,(07) 3280 1421,(07) 3280 1778,,,,,,,,,,,,,,,HPW,,,,,,,,,,,,,,,
Riverview,Service,,,"Shop 12, Corner Mitchell and Price Streets",Riverview,4303,-27.598501,152.846999,,,,,,,,,,,,,,,,,,HPW,,,,,,,,,,,,,,,
Wynnum,Service,,,212 Bay Terrace,Wynnum,4178,-27.446452,153.176691,,,,,,,,,,,,,,,,,,HPW,,,,,,,,,,,,,,,
Fortitude Valley,Service,Housing Service Centre,,505 St Pauls Terrace,Fortitude Valley,4006,-27.45386,153.034416,(07) 3872 0320,(07) 3872 0366,(07) 3872 0303,,,,,,,,,,,,,,,HPW,,,,,,,,,,,,,,,
Chermside,Service,Housing Service Centre,,"Lvl 3, 18 Banfield Street",Chermside,4032,-27.381299,153.030764,(07) 3896 9900,(07) 3896 9904,(07) 3896 9973,,,,,,,,,,,,,,,HPW,,,,,,,,,,,,,,,
Buranda,Service,Housing Service Centre,,"Lvl 1, 221 Logan Road",Buranda,4102,-27.496579,153.040391,(07) 3405 5300,(07) 3405 5324,(07) 3405 5322,,,,,,,,,,,,,,,HPW,,,,,,,,,,,,,,,
Inala,Service,Housing Service Centre,,14 Wirraway Street,Inala,4077,-27.601393,152.974654,(07) 3362 9200,(07) 3362 9220,(07) 3362 9230,,,,,,,,,,,,,,,HPW,,,,,,,,,,,,,,,
Capalaba,Service,Housing Service Centre,Capalaba Tower Court Building, 36 Old Cleveland Road,Capalaba,4157,-27.5205229,153.190782,(07) 3362 9100,(07) 3362 9104,(07) 3362 9109,,,,,,,,,,,,,,,HPW,,,,,,,,,,,,,,,
Robina,Service,Housing Service Centre,,Robina Town Centre,Robina,4226,-28.070145,153.376411,(07) 5583 2200,(07) 5583 2242,1300 650 917,,,,,,,,,,,,,,,HPW,,,,,,,,,,,,,,,
Woodridge,Service,Housing Service Centre,,11 Station Road,Woodridge,4131,-27.66928,153.123511,(07) 3884 9800,(07) 3884 9830,(07) 3884 9840,,,,,,,,,,,,,,,HPW,,,,,,,,,,,,,,,
Caboolture,Service,Housing Service Centre,"Lvl 5, Caboolture Park Shopping Centre",60-78 King Street,Caboolture,4510,-27.084958,152.948498,(07) 5431 2501,(07) 5431 2505,(07) 3480 1580,,,,,,,,,,,,,,,HPW,,,,,,,,,,,,,,,
Redcliffe,Service,Housing Service Centre,Lvl 1 Blue Water Square Shopping Centre, 20 Anzac Avenue,Redcliffe,4020,-27.230427,153.114933,(07) 3480 1550,(07) 3480 1577,(07) 3480 1580,,,,,,,,,,,,,,,HPW,,,,,,,,,,,,,,,
Brisbane,Program Office,,,"Lvl 7, 133 Mary Street",Brisbane,4000,-27.470594,153.029049,,,,,,,,,,,,,,,,,,HPW,,,,,,,,,,,,,,,
Brisbane,Program Office,,,"Lvl 13, 61 Mary Street",Brisbane,4000,-27.472495,153.02675,,,,,,,,,,,,,,,,,,HPW,,,,,,,,,,,,,,,
Brisbane,Program Office,,,"Lvl 5, 133 Mary Street",Brisbane,4000,-27.470594,153.029049,,,,,,,,,,,,,,,,,,HPW,,,,,,,,,,,,,,,
Brisbane,Program Office,,,"Lvl 9, 61 Mary Street",Brisbane,4000,-27.472495,153.02675,,,,,,,,,,,,,,,,,,HPW,,,,,,,,,,,,,,,
Brisbane,Central Office,,"Primary Industries Building, ",80 Ann Street,Brisbane,4000,-27.468868,153.022577,,,,,,,,,,,,,,,,,,DAFF,,,,,,,,,,,,,,,
Brisbane,Brisbane Offices,,,160 Ann Street,Brisbane,4000,-27.467572,153.024248,,,,,,,,,,,,,,,,,,DAFF,,,,,,,,,,,,,,,
Brisbane,Brisbane Offices,,,160 Mary Street,Brisbane,4000,-27.470657,153.029102,,,,,,,,,,,,,,,,,,DAFF,,,,,,,,,,,,,,,
Brisbane,Brisbane Offices,,,41 George Street,Brisbane,4000,-27.473657,153.026393,,,,,,,,,,,,,,,,,,DAFF,,,,,,,,,,,,,,,
Dutton Park,Brisbane Offices,,,41 Boggo Road,Dutton Park,4102,-27.494867,153.030337,,,,,,,,,,,,,,,,,,DAFF,,,,,,,,,,,,,,,
Toowoomba,Principal Regional Office,,,203 Tor Street,Toowoomba,4350,-27.535996,151.93222,,,,,,,,,,,,,,,,,,DAFF,,,,,,,,,,,,,,,
Longreach,Principal Regional Office,,,Landsborough Highway,Longreach,4730,-23.369302,144.193172,,,,,,,,,,,,,,,,,,DAFF,,,,,,,,,,,,,,,
Rockhampton,Principal Regional Office,,,25 Yeppoon Road,Parkhurst,4701,-23.311872,150.518346,,,,,,,,,,,,,,,,,,DAFF,,,,,,,,,,,,,,,
Townsville,Principal Regional Office,,,180-202 River Boulevard,Oonoonba,4811,-19.29291,146.809566,,,,,,,,,,,,,,,,,,DAFF,,,,,,,,,,,,,,,
Airlie Beach,Office,,,Shingley Drive,Airlie Beach,4802,-20.267571,148.712325,,,,,,,,,,,,,,,,,,DAFF,,,,,,,,,,,,,,,
Alpha,District Office,,,Milton Street,Alpha,4724,-23.649673,146.641071,,,,,,,,,,,,,,,,,,DAFF,,,,,,,,,,,,,,,
Bowen,Office,,,6 Herbert Street,Bowen,4805,-20.015021,148.248759,,,,,,,,,,,,,,,,,,DAFF,,,,,,,,,,,,,,,
Clermont,District Office,,,36 Capella Street,Clermont,4721,-22.822603,147.640198,,,,,,,,,,,,,,,,,,DAFF,,,,,,,,,,,,,,,
Duaringa,Forestry Office,,,6 Edward Street,Duaringa,4712,-23.707191,149.671157,,,,,,,,,,,,,,,,,,DAFF,,,,,,,,,,,,,,,
Emerald,District Office,,,99 Hospital Road,Emerald,4720,-23.509863,148.153267,,,,,,,,,,,,,,,,,,DAFF,,,,,,,,,,,,,,,
Gladstone,Office,,,1 Alf O'Rourke Drive,Gladstone,4680,-23.837779,151.237227,,,,,,,,,,,,,,,,,,DAFF,,,,,,,,,,,,,,,
Mackay,Office,,,Presto Avenue,Mackay,4740,-21.108836,149.211713,,,,,,,,,,,,,,,,,,DAFF,,,,,,,,,,,,,,,
Mackay,District Office,,,30 Tennyson Street,Mackay,4740,-21.144533,149.190096,,,,,,,,,,,,,,,,,,DAFF,,,,,,,,,,,,,,,
Mackay,Office,,,Satellite Crescent,Mackay,4740,-21.106728,149.210844,,,,,,,,,,,,,,,,,,DAFF,,,,,,,,,,,,,,,
Moura,District Office,,,Shirley Street,Moura,4718,-24.570362,149.973189,,,,,,,,,,,,,,,,,,DAFF,,,,,,,,,,,,,,,
Springsure,District Office,,,Porphyry Street,Springsure,4722,-24.114747,148.088833,,,,,,,,,,,,,,,,,,DAFF,,,,,,,,,,,,,,,
Taroom,District Office,,,24 Yaldwyn Street,Taroom,4420,-25.64145,149.796048,,,,,,,,,,,,,,,,,,DAFF,,,,,,,,,,,,,,,
Rosslyn Bay,Office,,,John Howes Drive,Rosslyn Bay,4703,-23.163625,150.789534,,,,,,,,,,,,,,,,,,DAFF,,,,,,,,,,,,,,,
Atherton,Forestry Office,,,83 Main Street,Atherton,4883,-17.266808,145.474527,,,,,,,,,,,,,,,,,,DAFF,,,,,,,,,,,,,,,
Cairns,Office,,,64-66 Tingira Street,Portsmith,4870,-16.950251,145.772279,,,,,,,,,,,,,,,,,,DAFF,,,,,,,,,,,,,,,
Cairns,District Office,,,21-23 Redden Street,Cairns,4870,-16.946538,145.767084,,,,,,,,,,,,,,,,,,DAFF,,,,,,,,,,,,,,,
Charters Towers,District Office,,,1-5 Prior Street,Charters Towers,4820,-20.061138,146.262923,,,,,,,,,,,,,,,,,,DAFF,,,,,,,,,,,,,,,
Coen,Office,,,Peninsula Development Road,Coen,4871,-13.862651,143.165659,,,,,,,,,,,,,,,,,,DAFF,,,,,,,,,,,,,,,
Cooktown,District Office,,,3/99 Charlotte Street,Cooktown,4895,-15.468045,145.248976,,,,,,,,,,,,,,,,,,DAFF,,,,,,,,,,,,,,,
Georgetown,District Office,,,St George Street,Georgetown,4871,-18.289811,143.549615,,,,,,,,,,,,,,,,,,DAFF,,,,,,,,,,,,,,,
Ingham,Office,,,7 Haig Street,Ingham,4850,-18.648885,146.157582,,,,,,,,,,,,,,,,,,DAFF,,,,,,,,,,,,,,,
Ingham,Forestry Office,,,52 McIlwraith Street,Ingham,4850,-18.651404,146.155925,,,,,,,,,,,,,,,,,,DAFF,,,,,,,,,,,,,,,
Karumba,Office,,,Palmer Street,Karumba,4891,-17.462468,140.8292,,,,,,,,,,,,,,,,,,DAFF,,,,,,,,,,,,,,,
Malanda,District Office,,,James Street,Malanda,4885,-17.352787,145.595688,,,,,,,,,,,,,,,,,,DAFF,,,,,,,,,,,,,,,
Mareeba,District Office,,,28 Peters Street,Mareeba,4880,-17.007924,145.429516,,,,,,,,,,,,,,,,,,DAFF,,,,,,,,,,,,,,,
Normanton,District Office,,,Haig Street,Normanton,4890,-17.668484,141.079517,,,,,,,,,,,,,,,,,,DAFF,,,,,,,,,,,,,,,
Port Douglas,Office,,,Ashford Avenue,Port Douglas,4877,-16.481944,145.46083,,,,,,,,,,,,,,,,,,DAFF,,,,,,,,,,,,,,,
Ravenshoe,District Office,,,Grigg Street,Ravenshoe,4888,-17.605361,145.481979,,,,,,,,,,,,,,,,,,DAFF,,,,,,,,,,,,,,,
Thursday Island,District Office,,,Res 80-89 Aubrey Parade,Thursday Island,4875,-10.586587,142.211571,,,,,,,,,,,,,,,,,,DAFF,,,,,,,,,,,,,,,
Thursday Island,Office,,,Douglas Street,Thursday Island,4875,-10.583778,142.219311,,,,,,,,,,,,,,,,,,DAFF,,,,,,,,,,,,,,,
Townsville,Office,,,60 Ross Street South,Townsville,4810,-19.255141,146.827586,,,,,,,,,,,,,,,,,,DAFF,,,,,,,,,,,,,,,
Evans Landing,Office,,,Kerr Point Drive,Evans Landing,4874,-12.661585,141.852706,,,,,,,,,,,,,,,,,,DAFF,,,,,,,,,,,,,,,
Weipa,District Office,,,Central Avenue,Weipa,4874,-12.631393,141.878255,,,,,,,,,,,,,,,,,,DAFF,,,,,,,,,,,,,,,
Beaudesert,District Office,,,29-31 William Street,Beaudesert,4285,-27.9897983,152.998815,,,,,,,,,,,,,,,,,,DAFF,,,,,,,,,,,,,,,
Boonah,District Office,,,Highbury Street,Boonah,4310,-27.9985354,152.679001,,,,,,,,,,,,,,,,,,DAFF,,,,,,,,,,,,,,,
Boondooma,District Office,,,9355 Mundubbera Durong Road,Boondooma,4613,-26.295025,151.261098,,,,,,,,,,,,,,,,,,DAFF,,,,,,,,,,,,,,,
Bundaberg,District Office,,,16-32 Enterprise Street,Bundaberg,4670,-24.885319,152.327811,,,,,,,,,,,,,,,,,,DAFF,,,,,,,,,,,,,,,
Gayndah,District Office,,,20 Capper Street,Gayndah,4625,-25.625522,151.609046,,,,,,,,,,,,,,,,,,DAFF,,,,,,,,,,,,,,,
Main Beach,Office,,,40-44 Seaworld Drive,Main Beach,4217,-27.956088,153.42678,,,,,,,,,,,,,,,,,,DAFF,,,,,,,,,,,,,,,
Gympie,District Office,,,1 Cartwright Road,Gympie,4570,-26.177393,152.665258,,,,,,,,,,,,,,,,,,DAFF,,,,,,,,,,,,,,,
Gympie,Forestry Office,,,28 Fraser Road,Gympie,4570,-26.162321,152.642361,,,,,,,,,,,,,,,,,,DAFF,,,,,,,,,,,,,,,
Helidon,District Office,,,Turner Street,Helidon,4344,-27.550999,152.126289,,,,,,,,,,,,,,,,,,DAFF,,,,,,,,,,,,,,,
Urangan,Office,,,Buccaneer Avenue,Urangan,4655,-25.293241,-152.908624,,,,,,,,,,,,,,,,,,DAFF,,,,,,,,,,,,,,,
Ipswich,District Office,,,"Lvl 1, 225 Brisbane Street",Ipswich,4305,-27.614295,152.755823,,,,,,,,,,,,,,,,,,DAFF,,,,,,,,,,,,,,,
Maryborough,District Office,,,355 Kent Street,Maryborough,4650,-25.538673,152.703852,,,,,,,,,,,,,,,,,,DAFF,,,,,,,,,,,,,,,
Monto,Forestry Office,,,Rutherford Street,Monto,4630,-24.864344,151.123356,,,,,,,,,,,,,,,,,,DAFF,,,,,,,,,,,,,,,
Mooloolaba,Office,,,18-20 Parkyn Parade,Mooloolaba,4557,-26.684394,153.130603,,,,,,,,,,,,,,,,,,DAFF,,,,,,,,,,,,,,,
Mundubbera,District Office,,,20 Bouverie Street,Mundubbera,4626,-25.589487,151.298353,,,,,,,,,,,,,,,,,,DAFF,,,,,,,,,,,,,,,
Murgon,District Office,,,Stephens Street West,Murgon,4605,-26.239818,151.940334,,,,,,,,,,,,,,,,,,DAFF,,,,,,,,,,,,,,,
Noosa,Office,,,Russell Street,Noosaville,4566,-26.394596,153.072704,,,,,,,,,,,,,,,,,,DAFF,,,,,,,,,,,,,,,
Pinkenba,Office,,,Macarthur Avenue East,Pinkenba,4008,-27.431825,153.115908,,,,,,,,,,,,,,,,,,DAFF,,,,,,,,,,,,,,,
Toogoolawah,District Office,,,Gardner Street,Toogoolawah,4313,-27.08875,152.379489,,,,,,,,,,,,,,,,,,DAFF,,,,,,,,,,,,,,,
Wondai,Office,,,32 Bramston Street,Wondai,4606,-26.318269,151.876617,,,,,,,,,,,,,,,,,,DAFF,,,,,,,,,,,,,,,
Yarraman,Forestry Office,,,6 Mill Street,Yarraman,4614,-26.837593,151.983083,,,,,,,,,,,,,,,,,,DAFF,,,,,,,,,,,,,,,
Yarraman,District Office,,,18 Douglas Street,Yarraman,4614,-26.842172,151.979006,,,,,,,,,,,,,,,,,,DAFF,,,,,,,,,,,,,,,
Chinchilla,District Office,,,Heeney Street,Chinchilla,4413,-26.7396293,150.624896,,,,,,,,,,,,,,,,,,DAFF,,,,,,,,,,,,,,,
Clifton,District Office,,,60 Clark Street,Clifton,4361,-27.930786,151.906923,,,,,,,,,,,,,,,,,,DAFF,,,,,,,,,,,,,,,
Crows Nest,District Office,,,34 Albert Street,Crows Nest,4355,-27.265493,152.058381,,,,,,,,,,,,,,,,,,DAFF,,,,,,,,,,,,,,,
Dalby,Forestry Office,,,45 Drayton Street,Dalby,4405,-27.182268,151.263109,,,,,,,,,,,,,,,,,,DAFF,,,,,,,,,,,,,,,
Dalby,District Office,,,132 Cunningham Street,Dalby,4405,-27.183012,151.263554,,,,,,,,,,,,,,,,,,DAFF,,,,,,,,,,,,,,,
Goondiwindi,District Office,,,26 Lagoon Street,Goondiwindi,4390,-28.535275,150.289004,,,,,,,,,,,,,,,,,,DAFF,,,,,,,,,,,,,,,
Inglewood,District Office,,,5206 Milmerran Inglewood Road,Inglewood,4387,-28.357166,151.139252,,,,,,,,,,,,,,,,,,DAFF,,,,,,,,,,,,,,,
Inglewood,Forestry Office,,,145 Albert Street,Inglewood,4387,-28.421248,151.072541,,,,,,,,,,,,,,,,,,DAFF,,,,,,,,,,,,,,,
Injune,Forestry Office,,,1 Second Avenue,Injune,4454,-25.84375,148.568215,,,,,,,,,,,,,,,,,,DAFF,,,,,,,,,,,,,,,
Miles,District Office,,,32 Constance Street,Miles,4415,-26.65735,150.185788,,,,,,,,,,,,,,,,,,DAFF,,,,,,,,,,,,,,,
Mitchell,District Office,,,85 Mary Street,Mitchell,4465,-26.489265,147.977925,,,,,,,,,,,,,,,,,,DAFF,,,,,,,,,,,,,,,
Oakey,District Office,,,73 Campbell Street,Oakey,4401,-27.434405,151.720685,,,,,,,,,,,,,,,,,,DAFF,,,,,,,,,,,,,,,
Roma ,Forestry Office,,,44-46 Bungil Street,Roma,4455,-26.569984,148.790491,,,,,,,,,,,,,,,,,,DAFF,,,,,,,,,,,,,,,
Roma,Forestry Office,,,41 Bowen Street,Roma,4455,-26.572632,148.783366,,,,,,,,,,,,,,,,,,DAFF,,,,,,,,,,,,,,,
St George,District Office,,,126 Alfred Street,St Geroge,4487,-28.039376,148.580574,,,,,,,,,,,,,,,,,,DAFF,,,,,,,,,,,,,,,
Wandoan,District Office,,,45 Royd Street,Wandoan,4419,-26.121119,149.959968,,,,,,,,,,,,,,,,,,DAFF,,,,,,,,,,,,,,,
Warwick,Forestry Office,,,35 Guy Street,Warwick,4370,-28.213417,152.030313,,,,,,,,,,,,,,,,,,DAFF,,,,,,,,,,,,,,,
Warwick,District Office,,,35 Guy Street,Warwick,4370,-28.213417,152.030313,,,,,,,,,,,,,,,,,,DAFF,,,,,,,,,,,,,,,
Barcaldine ,District Office,,,79 Ash Street,Barcaldine,4725,-23.553824,145.288552,,,,,,,,,,,,,,,,,,DAFF,,,,,,,,,,,,,,,
Blackall,District Office,,,143 Shamrock Street,Blackall,4472,-24.422482,145.458796,,,,,,,,,,,,,,,,,,DAFF,,,,,,,,,,,,,,,
Charleville,District Office,,,Hood Street,Charleville,4470,-26.409299,146.244778,,,,,,,,,,,,,,,,,,DAFF,,,,,,,,,,,,,,,
Cloncurry,District Office,,,31-47 Daintree Street,Cloncurry,4824,-20.702402,140.506898,,,,,,,,,,,,,,,,,,DAFF,,,,,,,,,,,,,,,
Cunnamulla,District Office,,,Stockyard Street,Cunnamulla,4490,-28.071887,145.681823,,,,,,,,,,,,,,,,,,DAFF,,,,,,,,,,,,,,,
Hughenden,District Office,,,67 Brodie Street,Hughenden,4821,-20.842267,144.199239,,,,,,,,,,,,,,,,,,DAFF,,,,,,,,,,,,,,,
Julia Creek,District Office,,,Burke Street,Julia Creek,4823,-20.65727,141.744245,,,,,,,,,,,,,,,,,,DAFF,,,,,,,,,,,,,,,
Mount Isa,District Office,,,Isa Street,Mount Isa,4825,-20.728389,139.492388,,,,,,,,,,,,,,,,,,DAFF,,,,,,,,,,,,,,,
Quilpie,District Office,,,Bulnbuln Street,Quilpie,4480,-26.617068,144.26939,,,,,,,,,,,,,,,,,,DAFF,,,,,,,,,,,,,,,
Richmond,District Office,,,3 Clayton Street,Richmond,4822,-20.728915,143.142014,,,,,,,,,,,,,,,,,,DAFF,,,,,,,,,,,,,,,
Winton,District Office,,,Oondooroo Street,Winton,4735,-22.386967,143.039566,,,,,,,,,,,,,,,,,,DAFF,,,,,,,,,,,,,,,
Brisbane,Head Office,,,80 Albert Street,Brisbane,4000,-27.4723,153.02754,,,,,,,,,,,,,,,,,,DNPRS & R,,,,,,,,,,,,,,,
Windsor,District Office,,,"Lvl 2 Muruk Haus, 230 Lutwyche Road",Windsor,4030,-27.434896,153.030905,,,,,,,,,,,,,,,,,,DNPRS & R,,,,,,,,,,,,,,,
Maroochydore,District Office,,,"Lvl 3, Mike Ahern Building, 12 First Avenue",Maroochydore,4558,-26.38692,152.676474,,,,,,,,,,,,,,,,,,DNPRS & R,,,,,,,,,,,,,,,
Woodridge,District Office,,,"Lvl 1, 6 Ewing Road",Woodridge,4114,-27.639281,153.107481,,,,,,,,,,,,,,,,,,DNPRS & R,,,,,,,,,,,,,,,
Palm Beach,District Office,,,1525 Gold Coast Highway,North Palm Beach,4221,-28.098704,153.460416,,,,,,,,,,,,,,,,,,DNPRS & R,,,,,,,,,,,,,,,
Toowoomba,District Office,,,"Lvl 5, 10 Russell Street",Toowoomba,4350,-27.559466,151.954853,,,,,,,,,,,,,,,,,,DNPRS & R,,,,,,,,,,,,,,,
Dalby,District Office,,,132 Cunningham Street,Dalby,4405,-27.183012,151.263554,,,,,,,,,,,,,,,,,,DNPRS & R,,,,,,,,,,,,,,,
Warwick,District Office,,,"Government Building, Fitzroy Street",Warwick,4370,-28.214513,152.035896,,,,,,,,,,,,,,,,,,DNPRS & R,,,,,,,,,,,,,,,
Rockhampton,District Office,,,36 East Street,Rockhampton,4700,-23.376642,150.511637,,,,,,,,,,,,,,,,,,DNPRS & R,,,,,,,,,,,,,,,
Bundaberg,District Office,,,33 Maryborough Street,Bundaberg,4670,-24.87098,152.348615,,,,,,,,,,,,,,,,,,DNPRS & R,,,,,,,,,,,,,,,
Emerald,District Office,,,14 Ruby Street,Emerald,4720,-23.524912,148.15841,,,,,,,,,,,,,,,,,,DNPRS & R,,,,,,,,,,,,,,,
Hervey Bay,District Office,,,"Lvl 1, Brendan Hansen Building, 54 Main Street",Hervey Bay,4655,-25.285053,152.839279,,,,,,,,,,,,,,,,,,DNPRS & R,,,,,,,,,,,,,,,
Townsville,District Office,,,"Townsville Sport House, 3-9 Redpath Street",North Ward,4810,-19.248331,146.806634,,,,,,,,,,,,,,,,,,DNPRS & R,,,,,,,,,,,,,,,
Mount Isa,District Office,,,"Suite 16, Mount Isa House, Mary Street",Mount Isa,4825,-20.722188,139.493755,,,,,,,,,,,,,,,,,,DNPRS & R,,,,,,,,,,,,,,,
Mackay,District Office,,,"Lvl 2, 67-69 Sydney Street",Mackay,4740,-21.1444963,149.186745,,,,,,,,,,,,,,,,,,DNPRS & R,,,,,,,,,,,,,,,
Cairns,District Office,,,"Lvl 2, William McCormack Place, 5B Sheridan Street",Cairns,4870,-16.926148,145.775376,,,,,,,,,,,,,,,,,,DNPRS & R,,,,,,,,,,,,,,,
Atherton,District Office,,,"Unit 2, 53 Mabel Street",Atherton,4883,-17.267736,145.475912,,,,,,,,,,,,,,,,,,DNPRS & R,,,,,,,,,,,,,,,
Townsville,Service,,,254 Ross River Road,Aitkenvale,4814,-19.296554,146.769661,,,,,,,,,,,,,,,,,,DJAG,,,,,,,,,,,,,,,
Brisbane,Service,,,50 Ann Street,Brisbane,4000,-27.468858,153.021921,,,,,,,,,,,,,,,,,,DJAG,,,,,,,,,,,,,,,
Lutwyche,Service,,,"Lvl 4, Lutwyche Shopping Centre, 543 Lutwyche Road",Lutwyche,4030,-27.421351,153.03405,,,,,,,,,,,,,,,,,,DJAG,,,,,,,,,,,,,,,
Mount Gravatt,Service,,,"Lvl 2, Block C, 643 Kessels Road",Mount Gravatt,4122,-27.56102,153.078212,,,,,,,,,,,,,,,,,,DJAG,,,,,,,,,,,,,,,
Bundaberg,Service,,,16 Quay Street,Bundaberg,4670,-24.863789,152.354064,,,,,,,,,,,,,,,,,,DJAG,,,,,,,,,,,,,,,
Cairns,Service,,,"Lvl 6, William McCormack Place, 5B Sheridan Street",Cairns,4870,-16.926148,145.775376,,,,,,,,,,,,,,,,,,DJAG,,,,,,,,,,,,,,,
Mackay,Service,,,"Lvl 1, Post Office Square, 73 Sydney Street",Mackay,4740,-21.143466,149.186756,,,,,,,,,,,,,,,,,,DJAG,,,,,,,,,,,,,,,
Gladstone,Service,,,"Lvl 2, Government Building, Cnr Oaka Lane and Roseberry Street",Gladstone,4680,-23.841421,151.255906,,,,,,,,,,,,,,,,,,DJAG,,,,,,,,,,,,,,,
Robina,Service,,,"Lvl 5, Robina Town Centre, Robina Town Centre Drive",Robina,4226,-28.073262,153.377953,,,,,,,,,,,,,,,,,,DJAG,,,,,,,,,,,,,,,
Innisfail,Service,,,12 Fitzgerald Esplanade,Innisfail,4860,-17.523565,146.032214,,,,,,,,,,,,,,,,,,DJAG,,,,,,,,,,,,,,,
Ipswich,Service,,,"Lvl 1, Ipswich Courthouse, Corner East and Limestone Streets",Ipswich,4305,-27.615497,152.7606,,,,,,,,,,,,,,,,,,DJAG,,,,,,,,,,,,,,,
Logan Central,Service,,,"Lvl 1, Wembley Place, 91 Wembley Road",Logan Central,4114,-27.64086,153.108654,,,,,,,,,,,,,,,,,,DJAG,,,,,,,,,,,,,,,
Maryborough,Service,,,319-325 Kent Street,Maryborough,4650,-25.535498,152.699344,,,,,,,,,,,,,,,,,,DJAG,,,,,,,,,,,,,,,
Mount Isa,Service,,,75 Camooweal Street,Mount Isa,4825,-20.727216,139.491906,,,,,,,,,,,,,,,,,,DJAG,,,,,,,,,,,,,,,
Nambour,Service,,,"Fdir 1, Centenary Square Building, 52-64 Currie Street",Nambour,4560,-26.62602,152.958212,,,,,,,,,,,,,,,,,,DJAG,,,,,,,,,,,,,,,
Roma,Service,,,Corner Bowen and Spencer Streets,Roma,4455,-26.573029,148.784169,,,,,,,,,,,,,,,,,,DJAG,,,,,,,,,,,,,,,
Rockhampton,Service,,,"Lvl 2, State Government Building, 209 Bolsover Street",Rockhampton,4700,-23.381493,150.514669,,,,,,,,,,,,,,,,,,DJAG,,,,,,,,,,,,,,,
Thursday Island,Service,,,"Block C, Tagai Business Services, 1 Hargrave Street",Thursday Island,4875,-10.581497,142.224169,,,,,,,,,,,,,,,,,,DJAG,,,,,,,,,,,,,,,
Toowoomba,Service,,,"Lvl 1, James Cook Centre, Corner Herries and Ruthven Streets",Toowoomba,4350,-27.56484,151.952676,,,,,,,,,,,,,,,,,,DJAG,,,,,,,,,,,,,,,
Brisbane,Service,,,110 George Street,Brisbane,4000,-27.472995,153.02527,,,,,,,,,,,,,,,,,,DJAG,,,,,,,,,,,,,,,
Brisbane,Service,,,259 Queen Street,Brisbane,4000,-27.468012,153.027588,,,,,,,,,,,,,,,,,,DJAG,,,,,,,,,,,,,,,
Hervey Bay,Service,,,"Ground Floor,  Brendan Hansen Building, 54 Main Street",Pialba,4655,-25.28501,152.83898,,,,,,,,,,,,,,,,,,DJAG,,,,,,,,,,,,,,,
Mackay,Service,,Post Office Square ,69 Sydney Street,Mackay,4740,-21.143253,149.186922,,,,,,,,,,,,,,,,,,DJAG,,,,,,,,,,,,,,,
Rockhampton,Service,,,"Ground Floor, 209 Bolsover Street",Rockhampton,4700,-23.381493,150.514669,,,,,,,,,,,,,,,,,,DJAG,,,,,,,,,,,,,,,
Southport,Service,,,7 Short Street,Southport,4215,-27.970087,153.417009,,,,,,,,,,,,,,,,,,DJAG,,,,,,,,,,,,,,,
Toowoomba,Service,,,137 Herries Street,Toowoomba,4350,-27.564797,151.954588,,,,,,,,,,,,,,,,,,DJAG,,,,,,,,,,,,,,,
Townsville,Service,,"Lvl 4, State Government Building",187 Stanley Street,Townsville,4810,-19.259495,146.814425,,,,,,,,,,,,,,,,,,DJAG,,,,,,,,,,,,,,,
Townsville,Service,,"Lvl 1, State Government Building",187 Stanley Street,Townsville,4810,-19.259495,146.814425,,,,,,,,,,,,,,,,,,DJAG,,,,,,,,,,,,,,,
Brisbane,Service,,"Lvl 3, Brisbane Magistrates Court",363 George Street,Brisbane,4000,-27.467929,153.02153,,,,,,,,,,,,,,,,,,DJAG,,,,,,,,,,,,,,,
Brisbane,Service,,"Lvl 4, Brisbane Magistrates Court",363 George Street,Brisbane,4000,-27.467929,153.02153,,,,,,,,,,,,,,,,,,DJAG,,,,,,,,,,,,,,,
Brisbane,Service,,,"Lvl 17, 53 Albert Street",Brisbane,4000,-27.472448,153.028178,,,,,,,,,,,,,,,,,,DJAG,,,,,,,,,,,,,,,
Brisbane,Service,,"Lvl 1, Brisbane Magistrates Court,", 363 George Street,Brisbane,4000,-27.467929,153.02153,,,,,,,,,,,,,,,,,,DJAG,,,,,,,,,,,,,,,
Brisbane,Service,,"Lvl 6, Forestry House", 160 Mary Street,Brisbane,4000,-27.470657,153.029102,,,,,,,,,,,,,,,,,,DJAG,,,,,,,,,,,,,,,
Brisbane,Service,,,44 Herschel Street,Brisbane,4000,-27.467311,153.019164,,,,,,,,,,,,,,,,,,DJAG,,,,,,,,,,,,,,,
Bundaberg,Service,,"Lvl 2, Win Tower",Corner Quay and Barolin Streets,Bundaberg,4670,-24.864952,152.348492,,,,,,,,,,,,,,,,,,DJAG,,,,,,,,,,,,,,,
Caboolture,Service,,"Kingsgate, Ground Floor ","Suite 7, 42 King Street",Caboolture,4510,-27.085076,152.951092,,,,,,,,,,,,,,,,,,DJAG,,,,,,,,,,,,,,,
Cairns,Service,,"Lvl 2, Cairns Square", 42-52 Abbott Street,Cairns,4870,-16.920707,145.776551,,,,,,,,,,,,,,,,,,DJAG,,,,,,,,,,,,,,,
Cooktown,Service,,Family Resource Centre,13 Charles Street,Cooktown,4895,-15.481084,145.25279,,,,,,,,,,,,,,,,,,DJAG,,,,,,,,,,,,,,,
Bamaga,Service,,Bamaga Resource Centre, Lot 10 Adidi Street,Bamaga,4876,-10.890443,142.387677,,,,,,,,,,,,,,,,,,DJAG,,,,,,,,,,,,,,,
Ravenshoe,Service,,Community Information Centre,3 Bolton Street,Ravenshoe,4888,-17.61335,145.480595,,,,,,,,,,,,,,,,,,DJAG,,,,,,,,,,,,,,,
Thursday Island,Service,,Magistrates Court,136 Douglas Street,Thursday Island,4875,-10.584579,142.213971,,,,,,,,,,,,,,,,,,DJAG,,,,,,,,,,,,,,,
Thursday Island,Service,,Mua Kosker Sorority,99 Douglas Street,Thursday Island,4875,-10.584179,142.217563,,,,,,,,,,,,,,,,,,DJAG,,,,,,,,,,,,,,,
Tully,Service,,Community Information Centre,54 Bryant Street,Tully,4854,-17.937041,145.923059,,,,,,,,,,,,,,,,,,DJAG,,,,,,,,,,,,,,,
Yarrabah,Service,,Women's Resource Centre,Lot 9 Workshop Street,Yarrabah,4871,-16.9084789,145.871138,,,,,,,,,,,,,,,,,,DJAG,,,,,,,,,,,,,,,
Inala,Service,,"Lvl 1, Inala Commonwealth Buildin ",20 Wirraway Parade,Inala,4077,-27.60159,152.974287,,,,,,,,,,,,,,,,,,DJAG,,,,,,,,,,,,,,,
Ipswich,Service,,,97 Brisbane Street,Ipswich,4305,-27.614257,152.760555,,,,,,,,,,,,,,,,,,DJAG,,,,,,,,,,,,,,,
Mackay,Service,,Ground Floor,17 Brisbane Street,Mackay,4740,-21.142609,149.189106,,,,,,,,,,,,,,,,,,DJAG,,,,,,,,,,,,,,,
Maroochydore,Service,,Ground Floor,"M1 Building, 1 Duporth Avenue",Maroochydore,4558,-26.65351,153.093158,,,,,,,,,,,,,,,,,,DJAG,,,,,,,,,,,,,,,
Mount Isa,Service,,,6 Miles Street,Mount Isa,4825,-20.727753,139.491809,,,,,,,,,,,,,,,,,,DJAG,,,,,,,,,,,,,,,
Rockhampton,Service,,Ground Floor,35 Fitzroy Street,Rockhampton,4700,-23.377555,150.510807,,,,,,,,,,,,,,,,,,DJAG,,,,,,,,,,,,,,,
Southport,Service,,,"Lvl 1, 100 Scarborough Street",Southport,4215,-27.96653,153.413139,,,,,,,,,,,,,,,,,,DJAG,,,,,,,,,,,,,,,
Toowoomba,Service,,,"Lvl 1, 154 Hume Street",Toowoomba,4350,-27.562268,151.957568,,,,,,,,,,,,,,,,,,DJAG,,,,,,,,,,,,,,,
Townsville,Service,,"Lvl 3, Northtown", 280 Flinders Street Mall,Townsville,4810,-19.259246,146.817786,,,,,,,,,,,,,,,,,,DJAG,,,,,,,,,,,,,,,
Bowen,Service,,Girudala Community Co-Operative Society Ltd,50 George Street,Bowen,4805,-20.016775,148.242153,,,,,,,,,,,,,,,,,,DJAG,,,,,,,,,,,,,,,
Ingham,Service,,,Ingham Court House,Ingham,4850,-18.651315,146.156357,,,,,,,,,,,,,,,,,,DJAG,,,,,,,,,,,,,,,
Palm Island,Service,,,"Community Justice Group, Main Street",Palm Island,4816,-18.735566,146.578989,,,,,,,,,,,,,,,,,,DJAG,,,,,,,,,,,,,,,
Woodridge,Service,,"Lvl 1, Woodridge Place", Corner Ewing Road and Carmody Street,Woodridge,4114,-27.639885,153.107535,,,,,,,,,,,,,,,,,,DJAG,,,,,,,,,,,,,,,
Brisbane,Service,,,"Lvl 17, 53 Albert Street",Brisbane,4000,-27.472448,153.028178,,,,,,,,,,,,,,,,,,DJAG,,,,,,,,,,,,,,,
Brisbane,Service,,,"Lvl 8, 160 Mary Street",Brisbane,4000,-27.470657,153.029102,,,,,,,,,,,,,,,,,,DJAG,,,,,,,,,,,,,,,
