Title,Location,Address 1,Address 2,Suburb,Postcode,Postal address 1,Postal address 2,Postal suburb,Postal postcode,Latitude,Longitude,Phone,Fax,Email,Operating hours,Mon am,Mon pm,Tues am,Tues pm,Wed am,Wed pm,Thurs am,Thurs pm,Fri am,Fri pm,Sat am,Sat pm,Sun am,Sun pm,Agency,Services,Facilities
Atherton Magistrates Court,Atherton,81 Main Street,,Atherton ,4883,PO Box 912,,ATHERTON,4883,-17.266429,145.474815,(07) 4091 9210,(07) 4091 9211,courthouse.atherton@justice.qld.gov.au,8:30am-16:30pm - Monday - Friday,8:30-12:00,12:00-16:30,8:30-12:00,12:00-16:30,8:30-12:00,12:00-16:30,8:30-12:00,12:00-16:30,8:30-12:00,12:00-16:30,,,,,DJAG,,
Ayr Magistrates Court,Ayr,163 Queen Street,,Ayr ,4807,PO Box 594,,AYR,4807,-19.576835,147.403959,(07) 4761 2050,(07) 4761 2057,courthouse.ayr@justice.qld.gov.au,8:30am-16:30pm - Monday - Friday,8:30-12:00,12:00-16:30,8:30-12:00,12:00-16:30,8:30-12:00,12:00-16:30,8:30-12:00,12:00-16:30,8:30-12:00,12:00-16:30,,,,,DJAG,,
Barcaldine Magistrates Court,Barcaldine,65 Ash Street,,Barcaldine ,4725,PO Box 13,,BARCALDINE,4725,-23.553702,145.290202,(07) 4651 1191,(07) 4651 2021,courthouse.barcaldine@justice.qld.gov.au,8:30am-16:30pm - Monday - Friday,8:30-12:00,12:00-16:30,8:30-12:00,12:00-16:30,8:30-12:00,12:00-16:30,8:30-12:00,12:00-16:30,8:30-12:00,12:00-16:30,,,,,DJAG,,
Beaudesert Magistrates Court,Beaudesert,29 William Street,,Beaudesert ,4285,PO Box 14,,BEAUDESERT,4285,-27.990289,152.998346,(07) 5542 2055,(07) 5542 2050,courthouse.beaudesert@justice.qld.gov.au,8:30am-16:30pm - Monday - Friday,8:30-12:00,12:00-16:30,8:30-12:00,12:00-16:30,8:30-12:00,12:00-16:30,8:30-12:00,12:00-16:30,8:30-12:00,12:00-16:30,,,,,DJAG,,
Beenleigh District Court,Beenleigh,Cnr Kent and James Streets,,Beenleigh,4207,PO Box 383,,BEENLEIGH,4207,-27.718785,153.198457,(07) 3884 7512,(07) 3884 7544,courthouse.beenleigh@justice.qld.gov.au,8:30am-16:30pm - Monday - Friday,8:30-12:00,12:00-16:30,8:30-12:00,12:00-16:30,8:30-12:00,12:00-16:30,8:30-12:00,12:00-16:30,8:30-12:00,12:00-16:30,,,,,DJAG,,"Wi-Fi
Videoconferencing
Remote witness room"
Beenleigh Magistrates Court,Beenleigh,Cnr Kent and James Streets,,Beenleigh,4207,PO Box 383,,BEENLEIGH,4207,-27.718785,153.198457,(07) 3884 7500,(07) 3884 7544,courthouse.beenleigh@justice.qld.gov.au ,8:30am-16:30pm - Monday - Friday,8:30-12:00,12:00-16:30,8:30-12:00,12:00-16:30,8:30-12:00,12:00-16:30,8:30-12:00,12:00-16:30,8:30-12:00,12:00-16:30,,,,,DJAG,,"Wi-Fi
Videoconferencing
Remote witness room"
Biloela Magistrates Court,Biloela,Cnr Grevillea and Melton Streets,,Biloela,4715,PO Box 781,,BILOELA,4715,-24.399813,150.512667,(07) 4992 0700,(07) 4992 0705,courthouse.biloela@justice.qld.gov.au,8:30am-16:30pm - Monday - Friday,8:30-12:00,12:00-16:30,8:30-12:00,12:00-16:30,8:30-12:00,12:00-16:30,8:30-12:00,12:00-16:30,8:30-12:00,12:00-16:30,,,,,DJAG,,
Blackall Magistrates Court,Blackall,Shamrock Street,,Blackall,4472,PO Box 133,,BLACKALL,4472,-24.424342,145.466043,(07) 4657 4233,(07) 4657 4908,,8:30am-16:30pm - Monday - Friday,8:30-12:00,12:00-16:30,8:30-12:00,12:00-16:30,8:30-12:00,12:00-16:30,8:30-12:00,12:00-16:30,8:30-12:00,12:00-16:30,,,,,DJAG,,
Blackwater Magistrates Court,Backwater,6 Blain Street,,Blackwater,4717,PO Box 120,,BLACKWATER,4717,-23.576108,148.889029,(07) 4982 5537,(07) 4982 6313,courthouse.blackwater@justice.qld.gov.au,8:30am-16:30pm - Monday - Friday,8:30-12:00,12:00-16:30,8:30-12:00,12:00-16:30,8:30-12:00,12:00-16:30,8:30-12:00,12:00-16:30,8:30-12:00,12:00-16:30,,,,,DJAG,,
Bowen District Court,Bowen,Herbert Street,,Bowen ,4805,PO Box 205,,BOWEN ,4805,-20.012195,148.246291,(07) 4786 1777,(07) 4786 2464,Courthouse.bowen@justice.qld.gov.au,8:30am-16:30pm - Monday - Friday,8:30-12:00,12:00-16:30,8:30-12:00,12:00-16:30,8:30-12:00,12:00-16:30,8:30-12:00,12:00-16:30,8:30-12:00,12:00-16:30,,,,,DJAG,,"Videoconferencing
Remote witness room"
Bowen Magistrates Court,Bowen,Herbert Street,,Bowen ,4805,PO Box 206,,BOWEN ,4805,-20.012195,148.246291,(07) 4761 3701,(07) 4761 3717,Courthouse.bowen@justice.qld.gov.au,8:30am-16:30pm - Monday - Friday,8:30-12:00,12:00-16:30,8:30-12:00,12:00-16:30,8:30-12:00,12:00-16:30,8:30-12:00,12:00-16:30,8:30-12:00,12:00-16:30,,,,,DJAG,,"Videoconferencing
Remote witness room"
Brisbane Childrens Court,Brisbane,30 - 40 Quay Street,,Brisbane,4001,GPO Box 1649,,BRISBANE,4001,-27.467651,153.013544,(07) 3235 9841,(07) 3235 9890,brisbane.childrenscourt@justice.qld.gov.au,8:30am-16:30pm - Monday - Friday,8:30-12:00,12:00-16:30,8:30-12:00,12:00-16:30,8:30-12:00,12:00-16:30,8:30-12:00,12:00-16:30,8:30-12:00,12:00-16:30,,,,,DJAG,,
Brisbane District Court,Brisbane,"QEII Courts of Law Complex
415 George Street",,Brisbane,4000,PO Box 15167,,BRISBANE,4000,-27.467811,153.020497,"(07) 3247 4313
(07) 3247 4761 (Jury service)
(07) 3030 0327 (Jury-recorded message)
(07) 3247 4771 (After hours access-urgent hearings)",(07) 3247 5316,"courtinfo@justice.qld.gov.au (General register enquiries)
DC-PEListmanager@justice.qld.gov.au (Planning and environment court)
EmailDC-Appeals@justice.qld.gov.au (District court appeals)","8:30am-17:00pm - Monday - Friday (Telephone enquiries)
9:00am-16:00pm - Monday - Friday (Counter enquiries)",9:00-12:00,12:00-16:00,9:00-12:00,12:00-16:00,9:00-12:00,12:00-16:00,9:00-12:00,12:00-16:00,9:00-12:00,12:00-16:00,,,,,DJAG,,
Brisbane Magistrates Court,Brisbane,363 George Street,,Brisbane,4001,GPO Box 1649,,BRISBANE,4001,-27.467929,153.021531,"(07) 3247 5598
(07) 3247 5598 (Court enquiries)
(07) 3247 4760 (Roma Street Courts)
(07) 3235 9841 (Childrens Court) 
(07) 3247 4612 (Domestic violence)
(07) 3247 4606 (Office of the State Coroner)
(07) 3239 0450 (Directorate)
(07) 3247 4631 (Office of the Chief Magistrate)
(07) 3109 9011 (Court security) ",(07) 3247 5669,courthouse.Brisbane@justice.qld.gov.au,8:30am-4:30pm - Monday - Friday,8:30-12:00,12:00-4:30,8:30-12:00,12:00-4:30,8:30-12:00,12:00-4:30,8:30-12:00,12:00-4:30,8:30-12:00,12:00-4:30,,,,,DJAG,,"Videoconferencing
Remote witness room"
Brisbane Supreme Court,Brisbane,"QEII Courts of Law Complex
415 George Street",,Brisbane,4000,PO Box 15167,,BRISBANE,4000,-27.467811,153.020497,"(07) 3247 4313
(07) 3247 4761 (Jury service enquiries)
(07) 3030 0327 (Jury-recorded message)
(07) 3247 4771 (After hours access-urgent hearings)",(07) 3247 5316,courtinfo@justice.qld.gov.au,"8:30am-5:00pm - Monday - Friday (Telephone enquiries)
9:00am-4:00pm - Monday - Friday (Counter enquiries)",9:00-12:00,12:00-16:00,9:00-12:00,12:00-16:00,9:00-12:00,12:00-16:00,9:00-12:00,12:00-16:00,9:00-12:00,12:00-16:00,,,,,DJAG,,
Bundaberg District Court,Bundaberg,44 Quay Street,,Bundaberg,4670,PO Box 908,,BUNDABERG,4670,-24.865579,152.347499,(07) 4131 5667,(07) 4153 3420,Courthouse.bundaberg@justice.qld.gov.au,8:30am-16:30pm - Monday - Friday,8:30-12:00,12:00-16:30,8:30-12:00,12:00-16:30,8:30-12:00,12:00-16:30,8:30-12:00,12:00-16:30,8:30-12:00,12:00-16:30,,,,,DJAG,,Remote witness room
Bundaberg Magistrates Court,Bundaberg,44 Quay Street,,Bundaberg,4670,PO Box 908,,BUNDABERG,4670,-24.865579,152.347499,"(07) 4131 5667
(07) 4131 5667 (Coroner)","(07) 4153 3420
(07) 4153 3420 (Coroner)",courthouse.bundaberg@justice.qld.gov.au,8:30am-16:30pm - Monday - Friday,8:30-12:00,12:00-16:30,8:30-12:00,12:00-16:30,8:30-12:00,12:00-16:30,8:30-12:00,12:00-16:30,8:30-12:00,12:00-16:30,,,,,DJAG,,"Videoconferencing
Remote witness room"
Bundaberg Supreme Court,Bundaberg,44 Quay Street,,Bundaberg,4670,PO Box 908,,BUNDABERG,4670,-24.865579,152.347499,(07) 4131 5667,(07) 4153 3420,Courthouse.bundaberg@justice.qld.gov.au,8:30am-16:30pm - Monday - Friday,8:30-12:00,12:00-16:30,8:30-12:00,12:00-16:30,8:30-12:00,12:00-16:30,8:30-12:00,12:00-16:30,8:30-12:00,12:00-16:30,,,,,DJAG,,
Caboolture Magistrates Court,Caboolture,30 King Street,,Caboolture,4510,PO Box 244,,CABOOLTURE,4510,-27.085045,152.951956,(07) 5431 2200,(07) 5431 2211,courthouse.caboolture@justice.qld.gov.au,8:30am-16:30pm - Monday - Friday,8:30-12:00,12:00-16:30,8:30-12:00,12:00-16:30,8:30-12:00,12:00-16:30,8:30-12:00,12:00-16:30,8:30-12:00,12:00-16:30,,,,,DJAG,,"Videoconferencing
Remote witness room"
Cairns District Court,Cairns,5D Sheridan Street,,Cairns,4870,PO Box 7515,,CAIRNS,4870,-16.926828,145.775694,(07) 4039 8885,(07) 4039 8919,Cairns.HCRegistry@justice.qld.gov.au ,8:30am-16:30pm - Monday - Friday,8:30-12:00,12:00-16:30,8:30-12:00,12:00-16:30,8:30-12:00,12:00-16:30,8:30-12:00,12:00-16:30,8:30-12:00,12:00-16:30,,,,,DJAG,,"Wi-Fi
Videoconferencing
Remote witness room"
Cairns Magistrates Court,Cairns,5D Sheridan Street,,Cairns,4870,PO Box 1110,,CAIRNS,4870,-16.926828,145.775694,(07) 4039 8900,(07) 4039 8933,courthouse.cairns@justice.qld.gov.au,8:30am-16:30pm - Monday - Friday,8:30-12:00,12:00-16:30,8:30-12:00,12:00-16:30,8:30-12:00,12:00-16:30,8:30-12:00,12:00-16:30,8:30-12:00,12:00-16:30,,,,,DJAG,,"Wi-Fi
Videoconferencing
Remote witness room"
Cairns Supreme Court,Cairns,5D Sheridan Street,,Cairns,4870,PO Box 7515,,CAIRNS,4870,-16.926828,145.775694,(07) 4039 8885,(07) 4039 8919,Cairns.HCRegistry@justice.qld.gov.au,8:30am-16:30pm - Monday - Friday,8:30-12:00,12:00-16:30,8:30-12:00,12:00-16:30,8:30-12:00,12:00-16:30,8:30-12:00,12:00-16:30,8:30-12:00,12:00-16:30,,,,,DJAG,,
Caloundra Magistrates Court,Caloundra,3 Gregson Place,,Caloundra,4551,PO Box 250,,CALOUNDRA,4551,-26.801381,153.118745,(07) 5420 9000,(07) 5491 8014,courthouse.caloundra@justice.qld.gov.au,8:30am-16:30pm - Monday - Friday,8:30-12:00,12:00-16:30,8:30-12:00,12:00-16:30,8:30-12:00,12:00-16:30,8:30-12:00,12:00-16:30,8:30-12:00,12:00-16:30,,,,,DJAG,,"Videoconferencing
Remote witness room"
Charleville District Court,Charleville,43 Alfred street,,Charleville,4470,PO Box 141,,CHARLEVILLE,4470,-26.402472,146.236532,(07) 4656 5011,(07) 4656 5018,courthouse.charleville@justice.qld.gov.au,8:30am-16:30pm - Monday - Friday,8:30-12:00,12:00-16:30,8:30-12:00,12:00-16:30,8:30-12:00,12:00-16:30,8:30-12:00,12:00-16:30,8:30-12:00,12:00-16:30,,,,,DJAG,,
Charters Towers District Court,Charters Towers,26-30 Hodgkinson Street,,Charters Towers,4820,PO Box 176,,CHARTERS TOWERS,4820,-20.07793,146.263093,(07) 4761 5120,(07) 4761 5129,courthouse.charterstowers@justice.qld.gov.au,8:30am-16:30pm - Monday - Friday,8:30-12:00,12:00-16:30,8:30-12:00,12:00-16:30,8:30-12:00,12:00-16:30,8:30-12:00,12:00-16:30,8:30-12:00,12:00-16:30,,,,,DJAG,,
Charters Towers Magistrates Court,Charters Towers,26-30 Hodgkinson Street,,Charters Towers,4820,PO Box 176,,CHARTERS TOWERS,4820,-20.07793,146.263093,(07) 4761 5125,(07) 4761 5129,courthouse.charterstowers@justice.qld.gov.au,8:30am-16:30pm - Monday - Friday,8:30-12:00,12:00-16:30,8:30-12:00,12:00-16:30,8:30-12:00,12:00-16:30,8:30-12:00,12:00-16:30,8:30-12:00,12:00-16:30,,,,,DJAG,,
"Cherbourg Magistrates Court
",Murgon,Stephens Street,,Murgon ,4605,PO Box 254,,MURGON,4605,-26.239818,151.940334,(07) 4168 1801,(07) 4168 1669,courthouse.murgon@justice.qld.gov.au,8:30am-16:30pm - Monday - Friday,8:30-12:00,12:00-16:30,8:30-12:00,12:00-16:30,8:30-12:00,12:00-16:30,8:30-12:00,12:00-16:30,8:30-12:00,12:00-16:30,,,,,DJAG,Please direct all enquirires to the Murgon Magistrates Court,
Childers Magistrates Court,Childers,67 Churchill Street,,Childers,4660,PO Box 39,,CHILDERS,4660,-25.236114,152.27781,(07) 4126 1455,(07) 4126 1208,courthouse.childers@justice.qld.gov.au,8:30am-16:30pm - Monday - Friday,8:30-12:00,12:00-16:30,8:30-12:00,12:00-16:30,8:30-12:00,12:00-16:30,8:30-12:00,12:00-16:30,8:30-12:00,12:00-16:30,,,,,DJAG,,
Chinchilla Magistrates Court,Chincilla,Heeney Street,,Chinchilla,4413,PO Box 277,,CHINCHILLA,4413,-26.739629,150.624896,(07) 4662 7017,(07) 4662 7021,courthouse.chinchilla@justice.qld.gov.au,8:30am-16:30pm - Monday - Friday,8:30-12:00,12:00-16:30,8:30-12:00,12:00-16:30,8:30-12:00,12:00-16:30,8:30-12:00,12:00-16:30,8:30-12:00,12:00-4:30,,,,,DJAG,,
Clermont District Court,Clermont,44 Daintree Street,,Clermont,4721,PO Box 283,,CLERMONT,4721,-22.82425,147.639669,(07) 4983 1233,(07) 4983 3164,courthouse.clermont@justice.qld.gov.au,8:30am-16:30pm - Monday - Friday,8:30-12:00,12:00-16:30,8:30-12:00,12:00-16:30,8:30-12:00,12:00-16:30,8:30-12:00,12:00-16:30,8:30-12:00,12:00-4:30,,,,,DJAG,,
Clermont Magistrates Court,Clermont,44 Daintree Street,,Clermont,4721,PO Box 283,,CLERMONT,4721,-22.82425,147.639669,(07) 4983 1233,(07) 4983 3164,courthouse.clermont@justice.qld.gov.au,8:30am-16:30pm - Monday - Friday,8:30-12:00,12:00-16:30,8:30-12:00,12:00-16:30,8:30-12:00,12:00-16:30,8:30-12:00,12:00-16:30,8:30-12:00,12:00-4:30,,,,,DJAG,,
Cleveland Magistrates Court,Cleveland,5 Middle Street,,Cleveland,4163,PO Box 10,,CLEVELAND,4163,-27.525539,153.263353,(07) 3383 0733,(07) 3383 0744,courthouse.cleveland@justice.qld.gov.au,8:30am-16:30pm - Monday - Friday,8:30-12:00,12:00-16:30,8:30-12:00,12:00-16:30,8:30-12:00,12:00-16:30,8:30-12:00,12:00-16:30,8:30-12:00,12:00-4:30,,,,,DJAG,,
Cloncurry District Court,Cloncurry,Sheaffe Streeet,,Cloncurry,4824,PO Box 335,,CLONCURRY,4824,-20.704353,140.505613,(07) 4742 3000,(07) 4742 3006,courthouse.cloncurry@justice.qld.gov.au,8:30am-16:30pm - Monday - Friday,8:30-12:00,12:00-16:30,8:30-12:00,12:00-16:30,8:30-12:00,12:00-16:30,8:30-12:00,12:00-16:30,8:30-12:00,12:00-4:30,,,,,DJAG,,
Cloncurry Magistrates Court,Cloncurry,Sheaffe Streeet,,Cloncurry,4824,PO Box 335,,CLONCURRY,4824,-20.704353,140.505613,(07) 4742 3000,(07) 4742 3006,courthouse.cloncurry@justice.qld.gov.au,8:30am-16:30pm - Monday - Friday,8:30-12:00,12:00-16:30,8:30-12:00,12:00-16:30,8:30-12:00,12:00-16:30,8:30-12:00,12:00-16:30,8:30-12:00,12:00-4:30,,,,,DJAG,,
Cooktown Magistrates Court,Cooktown,172 Charlotte Street,,Cooktown,4895,PO Box 91,,COOKTOWN,4895,-15.461985,145.250595,(07) 4069 5333,(07) 4069 5864,courthouse.cooktown@justice.qld.gov.au,8:30am-16:30pm - Monday - Friday,8:30-12:00,12:00-16:30,8:30-12:00,12:00-16:30,8:30-12:00,12:00-16:30,8:30-12:00,12:00-16:30,8:30-12:00,12:00-4:30,,,,,DJAG,,Remote Witness Room
Coolangatta Magistrates Court,Coolangatta,Musgrave Street,,Coolangatta,4225,PO Box 375,,COOLANGATTA,4225,-28.168351,153.53848,(07) 5569 3040,(07) 5569 3044,courthouse.coolangatta@justice.qld.gov.au,8:30am-16:30pm - Monday - Friday,8:30-12:00,12:00-16:30,8:30-12:00,12:00-16:30,8:30-12:00,12:00-16:30,8:30-12:00,12:00-16:30,8:30-12:00,12:00-4:30,,,,,DJAG,,
Cunnamulla District Court,Cunnamulla,Cnr Stockyard and Louise Streets,,Cunnamulla,4490,PO Box 227,,CUNNAMULLA,4490,-28.06986,145.682244,(07) 4655 1331,(07) 4655 1422,courthouse.cunnamulla@justice.qld.gov.au,8:30am-16:30pm - Monday - Friday,8:30-12:00,12:00-16:30,8:30-12:00,12:00-16:30,8:30-12:00,12:00-16:30,8:30-12:00,12:00-16:30,8:30-12:00,12:00-4:30,,,,,DJAG,,
Cunnamulla Magistrates Court,Cunnamulla,Cnr Stockyard and Louise Streets,,Cunnamulla,4490,PO Box 227,,CUNNAMULLA,4490,-28.06986,145.682244,(07) 4655 1331,(07) 4655 1422,courthouse.cunnamulla@justice.qld.gov.au,8:30am-16:30pm - Monday - Friday,8:30-12:00,12:00-16:30,8:30-12:00,12:00-16:30,8:30-12:00,12:00-16:30,8:30-12:00,12:00-16:30,8:30-12:00,12:00-4:30,,,,,DJAG,,
Dalby District Court,Dalby,Cnr Cunningham and Drayton Streets,,Dalby,4405,PO Box 277,,DALBY,4405,-27.183614,151.26332,(07) 4672 1810,(07) 4672 1819,courthouse.dalby@justice.qld.gov.au,8:30am-16:30pm - Monday - Friday,8:30-12:00,12:00-16:30,8:30-12:00,12:00-16:30,8:30-12:00,12:00-16:30,8:30-12:00,12:00-16:30,8:30-12:00,12:00-4:30,,,,,DJAG,,
Dalby Magistrates Court,Dalby,Cnr Cunningham and Drayton Streets,,Dalby,4405,PO Box 277,,DALBY,4405,-27.183614,151.26332,"(07) 4672 1810
(07) 4672 1812 (Coroner)",(07) 4672 1819,courthouse.dalby@justice.qld.gov.au,8:30am-16:30pm - Monday - Friday,8:30-12:00,12:00-16:30,8:30-12:00,12:00-16:30,8:30-12:00,12:00-16:30,8:30-12:00,12:00-16:30,8:30-12:00,12:00-16:30,,,,,DJAG,,Videoconferencing
Emerald District Court,Emerald,Egerton Street,,Emerald,4720,PO Box 989,,EMERALD,4720,-23.525588,148.161498,(07) 4982 1877,(07) 4982 4342,courthouse.emerald@justice.qld.gov.au,8:30am-16:30pm - Monday - Friday,8:30-12:00,12:00-16:30,8:30-12:00,12:00-16:30,8:30-12:00,12:00-16:30,8:30-12:00,12:00-16:30,8:30-12:00,12:00-16:30,,,,,DJAG,,
Emerald Magistrates Court,Emerald,Egerton Street,,Emerald,4720,PO Box 989,,EMERALD,4720,-23.525588,148.161498,(07) 4982 1877,(07) 4982 4342,courthouse.emerald@justice.qld.gov.au,8:30am-16:30pm - Monday - Friday,8:30-12:00,12:00-16:30,8:30-12:00,12:00-16:30,8:30-12:00,12:00-16:30,8:30-12:00,12:00-16:30,8:30-12:00,12:00-16:30,,,,,DJAG,,"Video conferencing
Remote witness room"
Gatton Magistrates Court,Gatton,7 William Street,,Gatton,4343,PO Box 413,,GATTON,4343,-27.556605,152.278833,(07) 5462 1155,(07) 5462 3436,courthouse.gatton@justice.qld.gov.au,8:30am-16:30pm - Monday - Friday,8:30-12:00,12:00-16:30,8:30-12:00,12:00-16:30,8:30-12:00,12:00-16:30,8:30-12:00,12:00-16:30,8:30-12:00,12:00-16:30,,,,,DJAG,,
Gayndah Magistrates Court,Gayndah,20 Capper Street,,Gayndah,4625,PO Box 249,,GAYNDAH,4625,-25.625522,151.609046,(07) 4161 1655,(07) 4161 2221,courthouse.gayndah@justice.qld.gov.au,8:30am-16:30pm - Monday - Friday,8:30-12:00,12:00-16:30,8:30-12:00,12:00-16:30,8:30-12:00,12:00-16:30,8:30-12:00,12:00-16:30,8:30-12:00,12:00-16:30,,,,,DJAG,,
Gladstone District Court,Gladstone,14 Yarroon Street,,Gladstone,4680,PO Box 5045,,GLADSTONE,4680,-23.839128,151.255988,(07) 4971 2423,(07) 4971 2410,courthouse.gladstone@justice.qld.gov.au,8:30am-16:30pm - Monday - Friday,8:30-12:00,12:00-16:30,8:30-12:00,12:00-16:30,8:30-12:00,12:00-16:30,8:30-12:00,12:00-16:30,8:30-12:00,12:00-16:30,,,,,DJAG,,Remote witness room
Gladstone Magistrates Court,Gladstone,14 Yarroon Street,,Gladstone,4680,PO Box 5045,,GLADSTONE,4680,-23.839128,151.255988,(07) 4971 2423,(07) 4971 2410,courthouse.gladstone@justice.qld.gov.au,8:30am-16:30pm - Monday - Friday,8:30-12:00,12:00-16:30,8:30-12:00,12:00-16:30,8:30-12:00,12:00-16:30,8:30-12:00,12:00-16:30,8:30-12:00,12:0016:30,,,,,DJAG,,"Video conferencing
Remote witness room"
Goondiwindi District Court,Goondiwindi,21 Herbert Street,,Goondiwindi,4390,PO Box 470,,GOONDIWINDI,4390,-28.544836,150.305308,(07) 4671 8100,(07) 4671 3220,courthouse.goondiwindi@justice.qld.gov.au,8:30am-16:30pm - Monday - Friday,8:30-12:00,12:00-16:30,8:30-12:00,12:00-16:30,8:30-12:00,12:00-1630,8:30-12:00,12:00-16:30,8:30-12:00,12:00-16:30,,,,,DJAG,,
Goondiwindi Magistrates Court,Goondiwindi,21 Herbert Street,,Goondiwindi,4390,PO Box 470,,GOONDIWINDI,4390,-28.544836,150.305308,(07) 4671 8100,(07) 4671 3220,courthouse.goondiwindi@justice.qld.gov.au,8:30am-16:30pm - Monday - Friday,8:30-12:00,12:00-16:30,8:30-12:00,12:00-16:30,8:30-12:00,12:00-16:30,8:30-12:00,12:00-16:30,8:30-12:00,12:00-16:30,,,,,DJAG,,
Gympie District Court,Gympie,38 Channon Street,,Gympie,4570,PO Box 133,,GYMPIE,4570,-26.18713,152.659383,(07) 5480 5488,(07) 5480 5499,courthouse.gympie@justice.qld.gov.au,8:30am-16:30pm - Monday - Friday,8:30-12:00,12:00-16:30,8:30-12:00,12:00-16:30,8:30-12:00,12:00-16:30,8:30-12:00,12:00-16:30,8:30-12:00,12:00-16:30,,,,,DJAG,,Remote witness room
Gympie Magistrates Court,Gympie,38 Channon Street,,Gympie,4570,PO Box 133,,GYMPIE,4570,-26.18713,152.659383,"(07) 5480 5488
(07) 5480 5488 (Coroner)",(07) 5480 5499,courthouse.gympie@justice.qld.gov.au,8:30am-16:30pm - Monday - Friday,8:30-12:00,12:00-16:30,8:30-12:00,12:00-16:30,8:30-12:00,12:00-16:30,8:30-12:00,12:00-16:30,8:30-12:00,12:00-16:30,,,,,DJAG,,"Videoconferencing
Remote witness room
Justice of the peace at the following times
Monday: 1pm - 4pm
Wednesday: 10am - 1pm
Friday: 10am - 1pm
"
Hervey Bay District Court,Hervey Bay,Crn Queens Road and Freshwater Street,,Hervey Bay,4655,PO Box 321,,HERVEY BAY,4655,-25.285227,152.853632,(07) 4125 9300,(07) 4125 9315,courthouse.herveybay@justice.qld.gov.au,8:30am-16:30pm - Monday - Friday,8:30-12:00,12:00-16:30,8:30-12:00,12:00-16:30,8:30-12:00,12:00-16:30,8:30-12:00,12:00-16:30,8:30-12:00,12:00-16:30,,,,,DJAG,,"Wifi
Videoconferencing
Remote Witness Room"
Hervey Bay Magistrates Court,Hervey Bay,Crn Queens Road and Freshwater Street,,Hervey Bay,4655,PO Box 321,,HERVEY BAY,4655,-25.285227,152.853632,"(07) 4125 9300
(07) 4125 9300 (Coroner)",(07) 4125 9315,courthouse.herveybay@justice.qld.gov.au,8:30am-16:30pm - Monday - Friday,8:30-12:00,12:00-16:30,8:30-12:00,12:00-16:30,8:30-12:00,12:00-16:30,8:30-12:00,12:00-16:30,8:30-12:00,12:00-16:30,,,,,DJAG,,"Wifi
Videoconferencing
Remote Witness Room"
Holland Park Magistrates Court,Holland Park,Marshall Road,,Holland Park,4121,PO Box 135,,HOLLAND PARK,4121,-27.526055,153.05441,(07) 3336 0885,(07) 3336 0889,courthouse.hollandpark@justice.qld.gov.au,8:30am-16:30pm - Monday - Friday,8:30-12:00,12:00-16:30,8:30-12:00,12:00-16:30,8:30-12:00,12:00-16:30,8:30-12:00,12:00-16:30,8:30-12:00,12:00-16:30,,,,,DJAG,,
Hughenden District Court,Hughenden,Brodie Street,,Hughenden,4821,PO Box 153,,HUGHENDEN,4821,-20.842422,144.199941,(07) 4741 1735,(07) 4741 1412,courthouse.hughenden@justice.qld.gov.au,8:30am-16:30pm - Monday - Friday,8:30-12:00,12:00-16:30,8:30-12:00,12:00-16:30,8:30-12:00,12:00-16:30,8:30-12:00,12:00-16:30,8:30-12:00,12:00-16:30,,,,,DJAG,,
Hughenden Magistrates Court,Hughenden,Brodie Street,,Hughenden,4821,PO Box 153,,HUGHENDEN,4821,-20.842422,144.199941,(07) 4741 1735,(07) 4741 1412,courthouse.hughenden@justice.qld.gov.au,8:30am-16:30pm - Monday - Friday,8:30-12:00,12:00-16:30,8:30-12:00,12:00-16:30,8:30-12:00,12:00-16:30,8:30-12:00,12:00-16:30,8:30-12:00,12:00-16:30,,,,,DJAG,,
Ingham Magistrates Court,Ingham,35 Palm Terrace,,Ingham,4850,PO Box 987,,INGHAM,4850,-18.651315,146.156358,(07) 4761 7401,(07) 4761 7407,courthouse.ingham@justice.qld.gov.au,8:30am-16:30pm - Monday - Friday,8:30-12:00,12:00-16:30,8:30-12:00,12:00-16:30,8:30-12:00,12:00-16:30,8:30-12:00,12:00-16:30,8:30-12:00,12:00-16:30,,,,,DJAG,,
Innisfail District Court,Innisfail,10 Edith Street,,Innisfail,4860,PO Box 133,,INNISFAIL,4860,-17.52436,146.031652,(07) 4048 3300,(07) 4061 4239,courthouse.innisfail@justice.qld.gov.au,8:30am-16:30pm - Monday - Friday,8:30-12:00,12:00-16:30,8:30-12:00,12:00-16:30,8:30-12:00,12:00-16:30,8:30-12:00,12:00-16:30,8:30-12:00,12:00-16:30,,,,,DJAG,,
Innisfail Magistrates Court,Innisfail,10 Edith Street,,Innisfail,4860,PO Box 133,,INNISFAIL,4860,-17.52436,146.031652,(07) 4048 3300,(07) 4061 4239,courthouse.innisfail@justice.qld.gov.au,8:30am-16:30pm - Monday - Friday,8:30-12:00,12:00-16:30,8:30-12:00,12:00-16:30,8:30-12:00,12:00-16:30,8:30-12:00,12:00-16:30,8:30-12:00,12:00-16:30,,,,,DJAG,,
Ipswich District Court,Ipswich,43 Ellenborough Street,,Ipswich,4305,PO Box 70,,IPSWICH,4305,-27.615768,152.757035,(07) 3280 1720,(07) 3280 1904,courthouse.ipswich@justice.qld.gov.au,8:30am-16:30pm - Monday - Friday,8:30-12:00,12:00-16:30,8:30-12:00,12:00-16:30,8:30-12:00,12:00-16:30,8:30-12:00,12:00-16:30,8:30-12:00,12:00-16:30,,,,,DJAG,,"Wifi
Videoconferencing
Remote Witness Room"
Ipswich Magistrates Court,Ipswich,43 Ellenborough Street,,Ipswich,4305,PO Box 70,,IPSWICH,4305,-27.615768,152.757035,(07) 3280 1720,(07) 3280 1904,courthouse.ipswich@justice.qld.gov.au,8:30am-16:30pm - Monday - Friday,8:30-12:00,12:00-16:30,8:30-12:00,12:00-16:30,8:30-12:00,12:00-16:30,8:30-12:00,12:00-16:30,8:30-12:00,12:00-16:30,,,,,DJAG,,
Julia Creek Magistrates Court,Julia Creek,14 Burke Street,,Julia Creek,4823,PO Box 6,,JULIA CREEK,4823,-20.657234,141.748342,(07) 4746 7162,(07) 4746 7338,courthouse.juliecreek@justice.qld.gov.au,8:30am-16:30pm - Monday - Friday,8:30-12:00,12:00-16:30,8:30-12:00,12:00-16:30,8:30-12:00,12:00-16:30,8:30-12:00,12:00-16:30,8:30-12:00,12:00-16:30,,,,,DJAG,,
Kingaroy District Court,Kingaroy,Cnr Kingaroy and Alford Streets,,Kingaroy,4610,PO Box 777,,KINGAROY,4610,-26.541028,151.839289,(07) 4164 0230,(07) 4164 0240,courthouse.kingaroy@justice.qld.gov.au,8:30am-16:30pm - Monday - Friday,8:30-12:00,12:00-16:30,8:30-12:00,12:00-16:30,8:30-12:00,12:00-16:30,8:30-12:00,12:00-16:30,8:30-12:00,12:00-16:30,,,,,DJAG,,Remote Witness Room
Kingaroy Magistrates Court,Kingaroy,Cnr Kingaroy and Alford Streets,,Kingaroy,4610,PO Box 777,,KINGAROY,4610,-26.541028,151.839289,"(07) 4164 0230
(07) 4164 0230 (Coroner)",(07) 4164 0240,courthouse.kingaroy@justice.qld.gov.au,8:30am-16:30pm - Monday - Friday,8:30-12:00,12:00-16:30,8:30-12:00,12:00-16:30,8:30-12:00,12:00-16:30,8:30-12:00,12:00-16:30,8:30-12:00,12:00-16:30,,,,,DJAG,,Remote Witness Room
Landsborough Magistrates Court,Landsborough,12 Caloundra Street,,Landsborough,4550,,,LANDSBOROUGH,4550,-26.811068,152.968285,(07) 5494 1054,(07) 5494 1070,courthouse.landsborough@justice.qld.gov.au,8:30am-16:30pm - Monday - Friday,8:30-12:00,12:00-16:30,8:30-12:00,12:00-16:30,8:30-12:00,12:00-16:30,8:30-12:00,12:00-16:30,8:30-12:00,12:00-16:30,,,,,DJAG,,
Longreach District Court,Longreach,Galah Street,,Longreach,4730,PO Box 19,,LONGREACH,4730,-23.445554,144.248281,(07) 4650 1983,(07) 4650 1986,courthouse.longreach@justice.qld.gov.au,8:30am-16:30pm - Monday - Friday,8:30-12:00,12:00-16:30,8:30-12:00,12:00-16:30,8:30-12:00,12:00-16:30,8:30-12:00,12:00-16:30,8:30-12:00,12:00-16:30,,,,,DJAG,,
Longreach Magistrates Court,Longreach,Galah Street,,Longreach,4730,PO Box 19,,LONGREACH,4730,-23.445554,144.248281,(07) 4650 1983,(07) 4650 1986,courthouse.longreach@justice.qld.gov.au,8:30am-16:30pm - Monday - Friday,8:30-12:00,12:00-16:30,8:30-12:00,12:00-16:30,8:30-12:00,12:00-16:30,8:30-12:00,12:00-16:30,8:30-12:00,12:00-16:30,,,,,DJAG,,
Longreach Supreme Court,Longreach,Galah Street,,Longreach,4730,PO Box 19,,LONGREACH,4730,-23.445554,144.248281,(07) 4650 1983,(07) 4650 1986,courthouse.longreach@justice.qld.gov.au,8:30am-16:30pm - Monday - Friday,8:30-12:00,12:00-16:30,8:30-12:00,12:00-16:30,8:30-12:00,12:00-16:30,8:30-12:00,12:00-16:30,8:30-12:00,12:00-16:30,,,,,DJAG,,
Mackay District Court,Mackay,12 Brisbane Street,,Mackay,4740,PO Box 104,,MACKAY,4740,-21.141917,149.187773,(07) 4967 0885 or (07) 4967 0787,(07) 4967 0786,courthouse.mackay@justice.qld.gov.au,8:30am-16:30pm - Monday - Friday,8:30-12:00,12:00-16:30,8:30-12:00,12:00-16:30,8:30-12:00,12:00-16:30,8:30-12:00,12:00-16:30,8:30-12:00,12:00-16:30,,,,,DJAG,,"Wifi
Videoconferencing
Remote Witness Room"
Mackay Magistrates Court,Mackay,12 Brisbane Street,,Mackay,4740,PO Box 104,,MACKAY ,4740,-21.141917,149.187773,"(07) 4967 0711
(07) 4967 0702 (Coroner)",(07) 4953 1476,courthouse.mackay@justice.qld.gov.au,8:30am-16:30pm - Monday - Friday,8:30-12:00,12:00-16:30,8:30-12:00,12:00-16:30,8:30-12:00,12:00-16:30,8:30-12:00,12:00-16:30,8:30-12:00,12:00-16:30,,,,,DJAG,,"Wifi
Videoconferencing
Remote Witness Room"
Mackay Supreme Court,Mackay,12 Brisbane Street,,Mackay,4740,PO Box 104,,MACKAY,4740,-21.141917,149.187773,(07) 4967 0885 or (07) 4967 0787,(07) 4967 0786,courthouse.mackay@justice.qld.gov.au,8:30am-16:30pm - Monday - Friday,8:30-12:00,12:00-16:30,8:30-12:00,12:00-16:30,8:30-12:00,12:00-16:30,8:30-12:00,12:00-16:30,8:30-12:00,12:00-16:30,,,,,DJAG,,
Mareeba Magistrates Court,Mareeba,14 Hort Street,,Mareeba,4880,PO Box 182,,MAREEBA,4880,-16.995141,145.424358,(07) 4048 4660,(07) 4048 4693,courthouse.mareeba@justice.qld.gov.au,8:30am-16:30pm - Monday - Friday,8:30-12:00,12:00-16:30,8:30-12:00,12:00-16:30,8:30-12:00,12:00-16:30,8:30-12:00,12:00-16:30,8:30-12:00,12:00-16:30,,,,,DJAG,,
Maroochydore District Court,Maroochydore,Cornmeal Parade,,Maroochydore,4558,PO Box 732,,MAROOCHYDORE,4558,-26.655033,153.09233,(07) 5470 8111,(07) 5470 8146,courthouse.maroochydoore@justice.qld.gov.au,8:30am-16:30pm - Monday - Friday,8:30-12:00,12:00-16:30,8:30-12:00,12:00-16:30,8:30-12:00,12:00-16:30,8:30-12:00,12:00-16:30,8:30-12:00,12:00-16:30,,,,,DJAG,,"Wifi
Videoconferencing
Remote Witness Room"
Maroochydore Magistrates Court,Maroochydore,Cornmeal Parade,,Maroochydore,4558,PO Box 732,,MAROOCHYDORE,4558,-26.655033,153.09233,"(07) 5470 8111
(07) 5470 8113 (Coroner)",(07) 5470 8146,courthouse.maroochydoore@justice.qld.gov.au,8:30am-16:30pm - Monday - Friday,8:30-12:00,12:00-16:30,8:30-12:00,12:00-16:30,8:30-12:00,12:00-16:30,8:30-12:00,12:00-16:30,8:30-12:00,12:00-16:30,,,,,DJAG,,"Wifi
Videoconferencing
Remote Witness Room"
Maryborough District Court,Maryborough,170 Richmond Street,,Maryborough,4650,PO Box 111,,MARYBOROUGH,4650,-25.53991,152.703673,(07) 4121 1810,(07) 4121 1883,courthouse.maryborough@justice.qld.gov.au,8:30am-16:30pm - Monday - Friday,8:30-12:00,12:00-4:30,8:30-12:00,12:00-4:30,8:30-12:00,12:00-4:30,8:30-12:00,12:00-4:30,8:30-12:00,12:00-4:30,,,,,DJAG,,"Wifi
Videoconferencing
Remote Witness Room"
Maryborough Magistrates Court,Maryborough,170 Richmond Street,,Maryborough,4650,PO Box 111,,MARYBOROUGH,4650,-25.53991,152.703673,(07) 4121 1810,(07) 4121 1883,courthouse.maryborough@justice.qld.gov.au,8:30am-16:30pm - Monday - Friday,8:30-12:00,12:00-16:30,8:30-12:00,12:00-16:30,8:30-12:00,12:00-16:30,8:30-12:00,12:00-16:30,8:30-12:00,12:00-16:30,,,,,DJAG,,"Wifi
Videoconferencing
Remote Witness Room"
Maryborough Supreme Court,Maryborough,170 Richmond Street,,Maryborough,4650,PO Box 111,,MARYBOROUGH,4650,-25.53991,152.703673,(07) 4121 1810,(07) 4121 1883,courthouse.maryborough@justice.qld.gov.au,8:30am-16:30pm - Monday - Friday,8:30-12:00,12:00-16:30,8:30-12:00,12:00-16:30,8:30-12:00,12:00-16:30,8:30-12:00,12:00-16:30,8:30-12:00,12:00-16:30,,,,,DJAG,,
Mitchell Magistrates Court,Mitchell,Cnr Mary and Dublin Streets,,Mitchell,4465,PO Box 41,,MITCHELL,4465,-26.488663,147.978196,(07) 4623 1106,(07) 4623 1510,courthouse.mitchell@justice.qld.gov.au,8:30am-16:30pm - Monday - Friday,8:30-12:00,12:00-16:30,8:30-12:00,12:00-16:30,8:30-12:00,12:00-16:30,8:30-12:00,12:00-16:30,8:30-12:00,12:00-16:30,,,,,DJAG,,
Moranbah Magistrates Court,Moranbah,21 Griffin Street,,Moranbah,4744,PO Box 41,,MORANBAH,4744,-21.999212,148.045257,(07) 4941 7633,(07) 4941 5743,courthouse.moranbah@justice.qld.gov.au,8:30am-16:30pm - Monday - Friday,8:30-12:00,12:00-16:30,8:30-12:00,12:00-16:30,8:30-12:00,12:00-16:30,8:30-12:00,12:00-16:30,8:30-12:00,12:00-16:30,,,,,DJAG,,
Mossman Magistrates Court,Mossman,25?27 Front Street,,Mossman,4873,PO Box 103,,MOSSMAN,4873,-16.463971,145.373313,(07) 4098 1500,(07) 4098 2207,courthouse.mossman@justice.qld.gov.au,8:30am-16:30pm - Monday - Friday,8:30-12:00,12:00-16:30,8:30-12:00,12:00-16:30,8:30-12:00,12:00-16:30,8:30-12:00,12:00-16:30,8:30-12:00,12:00-16:30,,,,,DJAG,,
Mount Isa District Court,Mount Isa,Isa Street,,Mount Isa,4825,PO Box 1660,,MOUNT ISA,4825,-20.728389,139.492389,(07) 4747 2011,(07) 4747 2077,courthouse.mountisa@justice.qld.gov.au,8:30am-16:30pm - Monday - Friday,8:30-12:00,12:00-16:30,8:30-12:00,12:00-16:30,8:30-12:00,12:00-16:30,8:30-12:00,12:00-16:30,8:30-12:00,12:00-16:30,,,,,DJAG,,"Videoconferencing
Remote Witness Room"
Mount Isa Magistrates Court,Mount Isa,Isa Street,,Mount Isa,4825,PO Box 1660,,MOUNT ISA,4825,-20.728389,139.492389,(07) 4747 2011,(07) 4747 2077,courthouse.mountisa@justice.qld.gov.au,8:30am-16:30pm - Monday - Friday,8:30-12:00,12:00-16:30,8:30-12:00,12:00-16:30,8:30-12:00,12:00-16:30,8:30-12:00,12:00-16:30,8:30-12:00,12:00-16:30,,,,,DJAG,,"Videoconferencing
Remote Witness Room"
Mount Isa Supreme Court,Mount Isa,Isa Street,,Mount Isa,4825,PO Box 1660,,MOUNT ISA,4825,-20.728389,139.492389,(07) 4747 2011,(07) 4747 2077,courthouse.mountisa@justice.qld.gov.au,8:30am-16:30pm - Monday - Friday,8:30-12:00,12:00-16:30,8:30-12:00,12:00-16:30,8:30-12:00,12:00-16:30,8:30-12:00,12:00-16:30,8:30-12:00,12:00-16:30,,,,,DJAG,,"Videoconferencing
Remote Witness Room"
Murgon Magistrates Court,Murgon,Stephens Street,,Murgon,4605,PO Box 254,,MURGON,4605,-26.239818,151.940334,(07) 4168 1801,(07) 4168 1669,courthouse.murgon@justice.qld.gov.au,8:30am-16:30pm - Monday - Friday,8:30-12:00,12:00-16:30,8:30-12:00,12:00-16:30,8:30-12:00,12:00-16:30,8:30-12:00,12:00-16:30,8:30-12:00,12:00-16:30,,,,,DJAG,,
Nambour Magistrates Court,Nambour,156?168 Currie Street,,Nambour,4560,PO Box 310,,NAMBOUR,4560,-26.629695,152.95978,(07) 5470 8755,(07) 5470 8769,courthouse.nambour@justice.qld.gov.au,8:30am-16:30pm - Monday - Friday,8:30-12:00,12:00-16:30,8:30-12:00,12:00-16:30,8:30-12:00,12:00-16:30,8:30-12:00,12:00-16:30,8:30-12:00,12:00-16:30,,,,,DJAG,,
Nanango Magistrates Court,Nanango,30 Henry Street,,Nanango,4615,PO Box 72,,NANANGO,4615,-26.670863,152.002416,(07) 4163 1165,(07) 4163 1083,courthouse.nanango@justice.qld.gov.au,8:30am-16:30pm - Monday - Friday,8:30-12:00,12:00-16:30,8:30-12:00,12:00-16:30,8:30-12:00,12:00-16:30,8:30-12:00,12:00-16:30,8:30-12:00,12:00-16:30,,,,,DJAG,,
Noosa Magistrates Court,Noosa,Langura Street,,Noosa,4567,PO Box 851,,NOOSA,4567,-26.409006,153.091614,(07) 5473 8400,(07) 5447 2425,courthouse.noosa@justice.qld.gov.au,8:30am-16:30pm - Monday - Friday,8:30-12:00,12:00-16:30,8:30-12:00,12:00-16:30,8:30-12:00,12:00-16:30,8:30-12:00,12:00-16:30,8:30-12:00,12:00-16:30,,,,,DJAG,,
Normanton Magistrates Court,Normanton,Haig Street,,Normanton,4890,PO Box 23,,NORMANTON,4890,-17.668484,141.079517,(07) 4745 1177,(07) 4745 1393,courthouse.normanton@justice.qld.gov.au,8:30am-16:30pm - Monday - Friday,8:30-12:00,12:00-16:30,8:30-12:00,12:00-16:30,8:30-12:00,12:00-16:30,8:30-12:00,12:00-16:30,8:30-12:00,12:00-16:30,,,,,DJAG,,
Oakey Magistrates Court,Oakey,73 Campbell Street,,Oakey,4401,PO Box 243,,OAKEY,4401,-27.434405,151.720685,(07) 4691 1028,(07) 4691 1250,courthouse.oakey@justice.qld.gov.au,8:30am-16:30pm - Monday - Friday,8:30-12:00,12:00-16:30,8:30-12:00,12:00-16:30,8:30-12:00,12:00-16:30,8:30-12:00,12:00-16:30,8:30-12:00,12:00-16:30,,,,,DJAG,,
"Petrie Magistrates Court
",Petrie,374 Gympie Road,,Petrie,4500,PO Box 2333,,PETRIE,4500,-27.304763,152.989215,(07) 3384 8233,(07) 3384 8244,courthouse.petrie@justice.qld.gov.au,8:30am-16:30pm - Monday - Friday,8:30-12:00,12:00-16:30,8:30-12:00,12:00-16:30,8:30-12:00,12:00-16:30,8:30-12:00,12:00-16:30,8:30-12:00,12:00-16:30,,,,,DJAG,,
Pine Rivers Magistrates Court,Strathpine,374 Gympie Road,,Strathpine,4500,PO Box 2333,,STRATHPINE,4500,-27.304763,152.989215,(07) 3384 8233,(07) 3384 8244,courthouse.pinerivers@justice.qld.gov.au,8:30am-16:30pm - Monday - Friday,8:30-12:00,12:00-16:30,8:30-12:00,12:00-16:30,8:30-12:00,12:00-16:30,8:30-12:00,12:00-16:30,8:30-12:00,12:00-16:30,,,,,DJAG,,
Pittsworth Magistrates Court,Pittsworth,Yandilla Street,,Pittsworth,4356,PO Box 20,,PITTSWORTH,4356,-27.717352,151.628688,(07) 4693 1168,(07) 4693 2348,courthouse.pittsworth@justice.qld.gov.au,8:30am-16:30pm - Monday - Friday,8:30-12:00,12:00-16:30,8:30-12:00,12:00-16:30,8:30-12:00,12:00-16:30,8:30-12:00,12:00-16:30,8:30-12:00,12:00-16:30,,,,,DJAG,,
Pomona Magistrates Court,Pomona,26 Red Street,,Pomona,4568,PO Box 23,,POMONA,4568,-26.363797,152.854198,(07) 5485 1385,(07) 5485 1091,courthouse.pomona@justice.qld.gov.au,8:30am-16:30pm - Monday - Friday,8:30-12:00,12:00-16:30,8:30-12:00,12:00-16:30,8:30-12:00,12:00-16:30,8:30-12:00,12:00-16:30,8:30-12:00,12:00-16:30,,,,,DJAG,,
Proserpine Magistrates Court,Prosperine,17 Main Street,,Proserpine,4800,PO Box 117,,PROSERPINE,4800,-20.401619,148.581693,(07) 4964 6000,(07) 4964 6008,courthouse.proserpine@justice.qld.gov.au,8:30am-16:30pm - Monday - Friday,8:30-12:00,12:00-16:30,8:30-12:00,12:00-16:30,8:30-12:00,12:00-16:30,8:30-12:00,12:00-16:30,8:30-12:00,12:00-16:30,,,,,DJAG,,
Quilpie Magistrates Court,Quipie,Bulnbuln Street,,Quilpie,4480,PO Box 29,,QUILPIE,4480,-26.617069,144.269391,(07) 4656 1266,(07) 4656 1442,courthouse.quilpie@justice.qld.gov.au,8:30am-16:30pm - Monday - Friday,8:30-12:00,12:00-16:30,8:30-12:00,12:00-16:30,8:30-12:00,12:00-16:30,8:30-12:00,12:00-16:30,8:30-12:00,12:00-16:30,,,,,DJAG,,
Redcliffe Magistrates Court,Redcliffe,193 Redcliffe Parade,,Redcliffe,4020,PO Box 155,,REDCLIFFE,4020,-27.224123,153.114247,(07) 3480 1511,(07) 3480 1522,courthouse.redcliffe@justice.qld.gov.au,8:30am-16:30pm - Monday - Friday,8:30-12:00,12:00-16:30,8:30-12:00,12:00-16:30,8:30-12:00,12:00-16:30,8:30-12:00,12:00-16:30,8:30-12:00,12:00-16:30,,,,,DJAG,,
Richlands Magistrates Court,Inala,Cnr Old Progress and Archerfield Roads,,Inala,4077,PO Box 39,,INALA,4077,-27.596125,152.955807,(07) 3710 1200,(07) 3710 1211,courthouse.richlands@justice.qld.gov.au,8:30am-16:30pm - Monday - Friday,8:30-12:00,12:00-16:30,8:30-12:00,12:00-16:30,8:30-12:00,12:00-16:30,8:30-12:00,12:00-16:30,8:30-12:00,12:00-16:30,,,,,DJAG,,"Videoconferencing
Remote Witness Room"
Richmond Magistrates Court,Richmond,53 Goldring Street,,Richmond,4822,PO Box 17,,RICHMOND,4822,-20.72874,143.142132,(07) 4741 3227,(07) 4741 3721,courthouse.richmond@justice.qld.gov.au,8:30am-16:30pm - Monday - Friday,8:30-12:00,12:00-16:30,8:30-12:00,12:00-16:30,8:30-12:00,12:00-16:30,8:30-12:00,12:00-16:30,8:30-12:00,12:00-16:30,,,,,DJAG,,
Rockhampton District Court,Rockhampton,Cnr East and Fitzroy Streets,,Rockhampton,4700,PO Box 300,,ROCKHAMPTON,4700,-23.37598,150.512659,(07) 4938 4568,(07) 4927 5463,courtinfo@justice.qld.gov.au,8:30am-16:30pm - Monday - Friday,8:30-12:00,12:00-16:30,8:30-12:00,12:00-16:30,8:30-12:00,12:00-16:30,8:30-12:00,12:00-16:30,8:30-12:00,12:00-16:30,,,,,DJAG,,"Wifi
Videoconferencing
Remote Witness Room"
Rockhampton Magistrates Court,Rockhampton,Cnr East and Fitzroy Streets,,Rockhampton,4700,PO Box 830,,ROCKHAMPTON,4700,-23.37598,150.512659,(07) 4938 4558,(07) 4938 4830,courthouse.rockhampton@justice.qld.gov.au,8:30am-16:30pm - Monday - Friday,8:30-12:00,12:00-16:30,8:30-12:00,12:00-16:30,8:30-12:00,12:00-16:30,8:30-12:00,12:00-16:30,8:30-12:00,12:00-16:30,,,,,DJAG,,"Wifi
Videoconferencing
Remote Witness Room"
Rockhampton Supreme Court,Rockhampton,Cnr East and Fitzroy Streets,,Rockhampton,4700,PO Box 300,,ROCKHAMPTON,4700,-23.37598,150.512659,(07) 4938 4568,(07) 4927 5463,courtinfo@justice.qld.gov.au,8:30am-16:30pm - Monday - Friday,8:30-12:00,12:00-16:30,8:30-12:00,12:00-16:30,8:30-12:00,12:00-16:30,8:30-12:00,12:00-16:30,8:30-12:00,12:00-16:30,,,,,DJAG,,
Roma District Court,Roma,141 McDowall Street,,Roma,4455,PO Box 245,,ROMA,4455,-26.570521,148.784628,(07) 4624 3033,(07) 4624 3032,courthouse.roma@justice.qld.gov.au,8:30am-16:30pm - Monday - Friday,8:30-12:00,12:00-16:30,8:30-12:00,12:00-16:30,8:30-12:00,12:00-16:30,8:30-12:00,12:00-16:30,8:30-12:00,12:00-16:30,,,,,DJAG,,"Video conferencing
Remote witness room"
Roma Magistrates Court,Roma,141 McDowall Street,,Roma,4455,PO Box 245,,ROMA,4455,-26.570521,148.784628,(07) 4624 3033,(07) 4624 3032,courthouse.roma@justice.qld.gov.au,8:30am-16:30pm - Monday - Friday,8:30-12:00,12:00-16:30,8:30-12:00,12:00-16:30,8:30-12:00,12:00-16:30,8:30-12:00,12:00-16:30,8:30-12:00,12:00-16:30,,,,,DJAG,,"Video conferencing
Remote witness room"
Roma Supreme Court,Roma,141 McDowall Street,,Roma,4455,PO Box 245,,ROMA,4455,-26.570521,148.784628,(07) 4624 3033,(07) 4624 3032,courthouse.roma@justice.qld.gov.au,8:30am-16:30pm - Monday - Friday,8:30-12:00,12:00-16:30,8:30-12:00,12:00-16:30,8:30-12:00,12:00-16:30,8:30-12:00,12:00-16:30,8:30-12:00,12:00-16:30,,,,,DJAG,,"Video conferencing
Remote witness room"
Sandgate Magistrates Court,Sandgate,84 Keogh Street,,Sandgate,4017,PO Box 154,,SANDGATE,4017,-27.318508,153.067271,(07) 3631 8222,(07) 3631 8212,courthouse.sandgate@justice.qld.gov.au,8:30am-16:30pm - Monday - Friday,8:30-12:00,12:00-16:30,8:30-12:00,12:00-16:30,8:30-12:00,12:00-16:30,8:30-12:00,12:00-16:30,8:30-12:00,12:00-16:30,,,,,DJAG,,"Video conferencing
Remote witness room"
Sarina Magistrates Court,Sarina,52-54 Broad Street,,Sarina,4737,PO Box 462,,SARINA,4737,-21.421399,149.21767,(07) 4956 1820,(07) 4943 1009,courthouse.sarina@justice.qld.gov.au,8:30am-16:30pm - Monday - Friday,8:30-12:00,12:00-16:30,8:30-12:00,12:00-16:30,8:30-12:00,12:00-16:30,8:30-12:00,12:00-16:30,8:30-12:00,12:00-16:30,,,,,DJAG,,
Southport District Court,Southport,Cnr Davenport and Hinze Streets,,Southport,4215,PO Box 103,,SOUTHPORT,4215,-27.967132,153.412382,(07) 5583 5900,(07) 5591 1204,courthouse.southport@justice.qld.gov.au,8:30am-16:30pm - Monday - Friday,8:30-12:00,12:00-16:30,8:30-12:00,12:00-16:30,8:30-12:00,12:00-16:30,8:30-12:00,12:00-16:30,8:30-12:00,12:00-16:30,,,,,DJAG,,"Wifi
Videoconferencing
Remote Witness Room"
Southport Magistrates Court,Southport,Cnr Davenport and Hinze Streets,,Southport,4215,PO Box 103,,SOUTHPORT,4215,-27.967132,153.412382,(07) 5583 5900,(07) 5591 1204,courthouse.southport@justice.qld.gov.au,8:30am-16:30pm - Monday - Friday,8:30-12:00,12:00-16:30,8:30-12:00,12:00-16:30,8:30-12:00,12:00-16:30,8:30-12:00,12:00-16:30,8:30-12:00,12:00-16:30,,,,,DJAG,,"Wifi
Videoconferencing
Remote Witness Room"
Springsure Magistrates Court,Springsure,Eclipse Street,,Springsure,4722,PO Box 68,,SPRINSURE,4722,-24.11483,148.089483,(07) 4984 1433,(07) 4984 1368,courthouse.springsure@justice.qld.gov.au,8:30am-16:30pm - Monday - Friday,8:30-12:00,12:00-16:30,8:30-12:00,12:00-16:30,8:30-12:00,12:00-16:30,8:30-12:00,12:00-16:30,8:30-12:00,12:00-16:30,,,,,DJAG,,
St George Magistrates Court,St George,The Terrace,,St George,4487,PO Box 266,,ST GEORGE,4487,-28.036652,148.576812,(07) 4625 3266,(07) 4625 3180,courthouse.stgeorge@justice.qld.gov.au,8:30am-16:30pm - Monday - Friday,8:30-12:00,12:00-16:30,8:30-12:00,12:00-16:30,8:30-12:00,12:00-16:30,8:30-12:00,12:00-16:30,8:30-12:00,12:00-16:30,,,,,DJAG,,
Stanthorpe District Court,Stanthorpe,51 Marsh Street,,Stanthorpe,4380,PO Box 308,,STANTHORPE,4380,-28.652662,151.934083,(07) 4681 1025,(07) 4681 3228,courthouse.stanthorpe@justice.qld.gov.au,8:30am-16:30pm - Monday - Friday,8:30-12:00,12:00-16:30,8:30-12:00,12:00-16:30,8:30-12:00,12:00-16:30,8:30-12:00,12:00-16:30,8:30-12:00,12:00-16:30,,,,,DJAG,,
Stanthorpe Magistrates Court,Stanthorpe,51 Marsh Street,,Stanthorpe,4380,PO Box 308,,STANTHORPE,4380,-28.652662,151.934083,(07) 4681 1025,(07) 4681 3228,courthouse.stanthorpe@justice.qld.gov.au,8:30am-16:30pm - Monday - Friday,8:30-12:00,12:00-16:30,8:30-12:00,12:00-16:30,8:30-12:00,12:00-16:30,8:30-12:00,12:00-16:30,8:30-12:00,12:00-16:30,,,,,DJAG,,
Taroom Magistrates Court,Taroom,33 Yaldwyn Street,,Taroom,4420,PO Box 2,,TAROOM,4420,-25.640895,149.795281,(07) 4627 3106,(07) 4627 3357,courthouse.taroom@justice.qld.gov.au,8:30am-16:30pm - Monday - Friday,8:30-12:00,12:00-16:30,8:30-12:00,12:00-16:30,8:30-12:00,12:00-16:30,8:30-12:00,12:00-16:30,8:30-12:00,12:00-16:30,,,,,DJAG,,
Thursday Island Magistrates Court,Thursday Island,Douglas Street,,Thursday Island,4875,PO Box 5,,THURSDAY ISLAND,4875,-10.583779,142.219311,(07) 4069 1503,(07) 4069 1438,courthouse.thursdayisland@justice.qld.gov.au,8:30am-16:30pm - Monday - Friday,8:30-12:00,12:00-16:30,8:30-12:00,12:00-16:30,8:30-12:00,12:00-16:30,8:30-12:00,12:00-16:30,8:30-12:00,12:00-16:30,,,,,DJAG,,Videoconferencing
Toogoolawah Magistrates Court,Toogoolawah,"Hopkins Place, Gardener Street North",,Toogoolawah,4313,PO Box 109,,TOOGOOLAWAH,4313,-27.088751,152.37949,(07) 5423 1522,(07) 5423 1473,courthouse.toogoolawah@justice.qld.gov.au,8:30am-16:30pm - Monday - Friday,8:30-12:00,12:00-16:30,8:30-12:00,12:00-16:30,8:30-12:00,12:00-16:30,8:30-12:00,12:00-16:30,8:30-12:00,12:00-16:30,,,,,DJAG,,
Toowoomba District Court,Toowoomba,159 Hume Street,,Toowoomba,4350,PO Box 1800,,TOOWOOMBA,4350,-27.562411,151.956332,(07) 4615 3660,(07) 4615 3598,courthouse.toowoomba@justice.qld.gov.au,8:30am-16:30pm - Monday - Friday,8:30-12:00,12:00-16:30,8:30-12:00,12:00-16:30,8:30-12:00,12:00-16:30,8:30-12:00,12:00-16:30,8:30-12:00,12:00-16:30,,,,,DJAG,,"Wifi
Videoconferencing
Remote Witness Room"
Toowoomba Magistrates Court,Toowoomba,159 Hume Street,,Toowoomba,4350,PO Box 1800,,TOOWOOMBA,4350,-27.562411,151.956332,"(07) 4615 3660
(07) 4615 3418 (Coroner)",(07) 4615 3598,courthouse.toowoomba@justice.qld.gov.au,8:30am-16:30pm - Monday - Friday,8:30-12:00,12:00-16:30,8:30-12:00,12:00-16:30,8:30-12:00,12:00-16:30,8:30-12:00,12:00-16:30,8:30-12:00,12:00-16:30,,,,,DJAG,,"Wifi
Videoconferencing
Remote Witness Room"
Toowoomba Supreme Court,Toowoomba,159 Hume Street,,Toowoomba,4350,PO Box 1800,,TOOWOOMBA,4350,-27.562411,151.956332,(07) 4615 3660,(07) 4615 3598,courthouse.toowoomba@justice.qld.gov.au,8:30am-16:30pm - Monday - Friday,8:30-12:00,12:00-16:30,8:30-12:00,12:00-16:30,8:30-12:00,12:00-16:30,8:30-12:00,12:00-16:30,8:30-12:00,12:00-16:30,,,,,DJAG,,
Townsville District Court,Townsville,31 Walker Street,,Townsville,4810,PO Box 1032,,TOWNSVILLE,4810,-19.257208,146.815795,(07) 4799 7261 or (07) 4799 7498,(07) 4799 7555,TownsvilleHCRegistry@justice.qld.gov.au,8:30am-16:30pm - Monday - Friday,8:30-12:00,12:00-16:30,8:30-12:00,12:00-16:30,8:30-12:00,12:00-16:30,8:30-12:00,12:00-16:30,8:30-12:00,12:00-16:30,,,,,DJAG,,"Wifi
Videoconferencing
Remote Witness Room"
Townsville Magistrates Court,Townsville,31 Walker Street,,Townsville,4810,PO Box 985,,TOWNSVILLE,4810,-19.257208,146.815795,(07) 4761 8300,(07) 4761 8310,courthouse.townsville@justice.qld.gov.au,8:30am-16:30pm - Monday - Friday,8:30-12:00,12:00-16:30,8:30-12:00,12:00-16:30,8:30-12:00,12:00-16:30,8:30-12:00,12:00-16:30,8:30-12:00,12:00-16:30,,,,,DJAG,,"Wifi
Videoconferencing
Remote Witness Room"
Townsville Supreme Court,Townsville,31 Walker Street,,Townsville,4810,PO Box 1032,,TOWNSVILLE,4810,-19.257208,146.815795,(07) 4799 7261 or (07) 4799 7498,(07) 4799 7555,TownsvilleHCRegistry@justice.qld.gov.au,8:30am-16:30pm - Monday - Friday,8:30-12:00,12:00-16:30,8:30-12:00,12:00-16:30,8:30-12:00,12:00-16:30,8:30-12:00,12:00-16:30,8:30-12:00,12:00-16:30,,,,,DJAG,,"Wifi
Videoconferencing
Remote Witness Room"
Tully Magistrates Court,Tully,46 Bryant Street,,Tully,4854,PO Box 229,,TULLY,4854,-17.936019,145.922833,(07) 4068 1065,(07) 4068 3288,courthouse.tully@justice.qld.gov.au,8:30am-16:30pm - Monday - Friday,8:30-12:00,12:00-16:30,8:30-12:00,12:00-16:30,8:30-12:00,12:00-16:30,8:30-12:00,12:00-16:30,8:30-12:00,12:00-16:30,,,,,DJAG,,
Warwick District Court,Warwick,Cnr Guy and Fitzroy Streets,,Warwick,4370,PO Box 208,,WARWICK,4370,-28.214513,152.035896,(07) 4667 5122,(07) 4661 1202,courthouse.warwick@justice.qld.gov.au,8:30am-16:30pm - Monday - Friday,8:30-12:00,12:00-16:30,8:30-12:00,12:00-16:30,8:30-12:00,12:00-16:30,8:30-12:00,12:00-16:30,8:30-12:00,12:00-16:30,,,,,DJAG,,
Warwick Magistrates Court,Warwick,Cnr Guy and Fitzroy Streets,,Warwick,4370,PO Box 208,,WARWICK,4370,-28.214513,152.035896,"(07) 4667 5122
(07) 4667 5122 (Coroner)",(07) 4661 1202,courthouse.warwick@justice.qld.gov.au,8:30am-16:30pm - Monday - Friday,8:30-12:00,12:00-16:30,8:30-12:00,12:00-16:30,8:30-12:00,12:00-16:30,8:30-12:00,12:00-16:30,8:30-12:00,12:00-16:30,,,,,DJAG,,
Weipa Magistrates Court,Weipa,"Central Avenue, Memorial Square",,Weipa,4874,PO Box 109,,WEIPA,4874,-12.659148,141.838406,(07) 4069 9999,(07) 4069 9160,courthouse.weipa@justice.qld.gov.au,8:30am-16:30pm - Monday - Friday,8:30-12:00,12:00-16:30,8:30-12:00,12:00-16:30,8:30-12:00,12:00-16:30,8:30-12:00,12:00-16:30,8:30-12:00,12:00-16:30,,,,,DJAG,,
Wynnum Magistrates Court,Wynnum,Pine Street,,Wynnum,4178,PO Box 20,,WYNNUM,4178,-27.448283,153.173814,(07) 3362 9090,(07) 3362 9089,courthouse.wynnum@justice.qld.gov.au,8:30am-16:30pm - Monday - Friday,8:30-12:00,12:00-16:30,8:30-12:00,12:00-16:30,8:30-12:00,12:00-16:30,8:30-12:00,12:00-16:30,8:30-12:00,12:00-16:30,,,,,DJAG,,"Video conferencing
Remote witness room"
Yeppoon Magistrates Court,Yeppoon,21-23 Normanby Street,,Yeppoon,4703,PO Box 2259,,YEPPOON,4703,-23.128586,150.747355,(07) 4939 5385,(07) 4939 3023,courthouse.yeppoon@justice.qld.gov.au,8:30am-16:30pm - Monday - Friday,8:30-12:00,12:00-16:30,8:30-12:00,12:00-16:30,8:30-12:00,12:00-16:30,8:30-12:00,12:00-16:30,8:30-12:00,12:00-16:30,,,,,DJAG,,
